"title","categoryName","address","neighborhood","street","city","postalCode","state","countryCode","website","phone","phoneUnformatted","location/lat","location/lng","plusCode"
"88 Seafood","Chinese restaurant","27 W Coast Hwy, #01-12, Singapore 117867","Queenstown","27 W Coast Hwy, #01-12","Singapore","117867",,"SG","https://www.orto.sg/dining/88seafood/","+65 8685 2181","+6586852181","1.28292","103.78048","7QMJ+55 Singapore"
"Song Hua Jiang Restaurant","Chinese restaurant","#01-17, 306 Woodlands Street 31, Singapore 730306","Woodlands","#01-17, 306 Woodlands Street 31","Singapore","730306",,"SG",,"+65 6362 1885","+6563621885","1.4299072","103.7748405","CQHF+XW Singapore"
"Canopy HortPark","Restaurant","#01-01, 33 Hyderabad Road, HortPark, Singapore 119578","Queenstown","#01-01, 33 Hyderabad Road, HortPark","Singapore","119578",,"SG","http://www.canopygardendining.com/","+65 6556 1533","+6565561533","1.2786628","103.8008116","7RH2+F8 Singapore"
"Aburi-EN (Causeway Point)","Japanese restaurant","1 Woodlands Square, #02-09B Causeway Point, Singapore 738099","Woodlands","1 Woodlands Square, #02-09B Causeway Point","Singapore","738099",,"SG","http://aburi-en.com/","+65 6760 2081","+6567602081","1.4360863","103.7859909","CQPP+C9 Singapore"
"Super Thai by Soi Aroy @ Pasir Panjang","Thai restaurant","91 Pasir Panjang Rd, Singapore 118512","Queenstown","91 Pasir Panjang Rd","Singapore","118512",,"SG","http://www.super-thai.com/","+65 9344 1680","+6593441680","1.2748436","103.7952081","7QFW+W3 Singapore"
"Thashan's curry","Indian restaurant","50 Woodlands Industrial Park E4, Singapore 757322","Woodlands","50 Woodlands Industrial Park E4","Singapore","757322",,"SG",,"+65 8909 9917","+6589099917","1.4504216","103.7952256","FQ2W+53 Singapore"
"Curry Paradise","Indian restaurant","218 Pasir Panjang Rd, #01-12, Singapore 118579","Queenstown","218 Pasir Panjang Rd, #01-12","Singapore","118579",,"SG",,"+65 9189 5350 ext. 90033861","+6591895350","1.2796312","103.7856762","7QHP+V7 Singapore"
"Volta Bistro","Bistro","27 W Coast Hwy, #01-02/03, Singapore 117867","Queenstown","27 W Coast Hwy, #01-02/03","Singapore","117867",,"SG","https://www.facebook.com/voltabistro","+65 8505 6801","+6585056801","1.2830764","103.7806052","7QMJ+66 Singapore"
"Hillman 99 Restaurant","Chinese restaurant","99 Pasir Panjang Rd, Singapore 118517","Queenstown","99 Pasir Panjang Rd","Singapore","118517",,"SG","https://manhillrestaurant.com/","+65 6474 6835","+6564746835","1.2750237","103.7949379","7QGV+2X Singapore"
"COLLIN'S® Jurong Point","Western restaurant","63 Jurong West Central 3, #03-58/59 Jurong Point, Singapore 648331","Jurong West","63 Jurong West Central 3, #03-58/59 Jurong Point","Singapore","648331",,"SG","https://www.collins.sg/","+65 6261 5910","+6562615910","1.3392697","103.7051807","8PQ4+P3 Singapore"
"Pallet Cafe Bar","Bistro","4 Jln Mat Jambol, #01-07B, Bijou 119555","Queenstown","4 Jln Mat Jambol, #01-07B","Bijou","119555",,"SG",,"+65 8812 5002","+6588125002","1.2767207","103.7914561","7QGR+MH Singapore"
"Rasa Istimewa Waterfront Restaurant","Halal restaurant","6A Admiralty Rd W, Singapore 757445","Woodlands","6A Admiralty Rd W","Singapore","757445",,"SG","https://www.rasaistimewa.sg/","+65 6366 9339","+6563669339","1.4539459","103.7776873","FQ3H+H3 Singapore"
"Texas Chicken (Causeway Point)","Fast food restaurant","1 Woodlands Square, #01-14/15 Causeway Point, Singapore 738099","Woodlands","1 Woodlands Square, #01-14/15 Causeway Point","Singapore","738099",,"SG","https://sg.texaschicken.com/","+65 6894 8677","+6568948677","1.4357372","103.7854557","CQPP+75 Singapore"
"PastaMania - Causeway Point","Italian restaurant","1 Woodlands Square, B1-20 Causeway Point, Singapore 738099","Woodlands","1 Woodlands Square, B1-20 Causeway Point","Singapore","738099",,"SG","http://www.pastamania.com.sg/locations/","+65 6891 1349","+6568911349","1.4357915","103.7854072","CQPP+85 Singapore"
"Lao Huo Tang Restaurant","Restaurant","1 Woodlands Square, #03-02 Causeway Point, Singapore 738099","Woodlands","1 Woodlands Square, #03-02 Causeway Point","Singapore","738099",,"SG",,"+65 6219 5716","+6562195716","1.4360322","103.7867236","CQPP+CM Singapore"
"Gravy Bistro and Bar","Bistro","40 Pasir Panjang Rd, #02-36, Singapore 117440","Queenstown","40 Pasir Panjang Rd, #02-36","Singapore","117440",,"SG","https://gravy-bistro-and-bar.business.site/?utm_source=gmb&utm_medium=referral","+65 9723 3336","+6597233336","1.2756422","103.7995973","7QGX+7R Singapore"
"Ivan's Carbina","Restaurant","354A Woodlands Ave 5, Singapore 730354","Woodlands","354A Woodlands Ave 5","Singapore","730354",,"SG","https://m.facebook.com/Carbinawesternfood/","+65 8292 8599","+6582928599","1.432727","103.7850318","CQMP+32 Singapore"
"Zhong Tai Seafood Restaurant","Restaurant","Blk 354-A Woodlands Ave 1, #01-01, Singapore 731354","Woodlands","Blk 354-A Woodlands Ave 1, #01-01","Singapore","731354",,"SG",,"+65 6368 9738","+6563689738","1.4326703","103.7851375","CQMP+33 Singapore"
"Crystal Jade Hong Kong Kitchen","Chinese restaurant","Woodlands Square, #05-10 Causeway Point, Singapore 738099","Woodlands","Woodlands Square, #05-10 Causeway Point","Singapore","738099",,"SG","http://www.crystaljade.com/","+65 8366 8498","+6583668498","1.4357518","103.7855824","CQPP+86 Singapore"
"ASHMI Restaurant","Restaurant","124 Pasir Panjang Rd, Singapore 118545","Queenstown","124 Pasir Panjang Rd","Singapore","118545",,"SG",,"+65 6473 6116","+6564736116","1.2761561","103.7930965","7QGV+F6 Singapore"
"Saizeriya (Woods Square Mall)","Italian restaurant","6 Woodlands Square, #B2-22, Woods Square Mall, Singapore 737737","Woodlands","6 Woodlands Square, #B2-22, Woods Square Mall","Singapore","737737",,"SG","https://www.saizeriya.com.sg/","+65 6908 6571","+6569086571","1.434822","103.7861021","CQMP+WC Singapore"
"Bali Thai (Causeway Point)","Thai restaurant","1 Woodlands Square, #05-05, Singapore 738099","Woodlands","1 Woodlands Square, #05-05","Singapore","738099",,"SG","http://www.balithai.com.sg/","+65 6894 1363","+6568941363","1.4360092","103.7860308","CQPP+CC Singapore"
"Black Cherry","Italian restaurant","4 Jln Mat Jambol, #01-09, Singapore 119555","Queenstown","4 Jln Mat Jambol, #01-09","Singapore","119555",,"SG","https://www.blackcherry.sg/","+65 6957 5567","+6569575567","1.2769603","103.7917666","7QGR+QP Singapore"
"HooHa Cafe","Restaurant","3 South Buona Vista Rd, #B1-06 Viva Vista Mall, Singapore 118136","Queenstown","3 South Buona Vista Rd, #B1-06 Viva Vista Mall","Singapore","118136",,"SG","https://www.chope.co/singapore-restaurants/restaurant/hooha-cafe","+65 6250 6348","+6562506348","1.2799254","103.7861966","7QHP+XF Singapore"
"Yuzutei Japanese Restaurant","Restaurant","100G Pasir Panjang Rd #01-01Interlocal Centre, Singapore 118523","Queenstown","100G Pasir Panjang Rd #01-01Interlocal Centre","Singapore","118523",,"SG","https://yuzuteisg.business.site/?utm_source=gmb&utm_medium=referral","+65 9689 4092","+6596894092","1.27785","103.7964926","7QHW+4H Singapore"
"Vineyard","French restaurant","33 Hyderabad Road, #02-02 Hort Park, Singapore 119578","Queenstown","33 Hyderabad Road, #02-02 Hort Park","Singapore","119578",,"SG","https://www.vineyardhortpark.com.sg/","+65 3125 1860","+6531251860","1.2789216","103.8014419","7RH2+HH Singapore"
"Harry's Mapletree Business City","Restaurant","40 Pasir Panjang Rd, #02-43/44 Mapletree Business City II, Singapore 117383","Queenstown","40 Pasir Panjang Rd, #02-43/44 Mapletree Business City II","Singapore","117383",,"SG","http://harrys.com.sg/","+65 8268 8092","+6582688092","1.2756788","103.7995597","7QGX+7R Singapore"
"Al-Ameen Eating Corner","Coffee shop","35 Marsiling Industrial Estate Road 3 #01-11 Central Industrial Estate, Singapore 739257","Woodlands","35 Marsiling Industrial Estate Road 3 #01-11 Central Industrial Estate","Singapore","739257",,"SG","https://m.facebook.com/pages/Al-Ameen/361765083896082","+65 6366 1740","+6563661740","1.4391858","103.7834261","CQQM+M9 Singapore"
"Barrels","Restaurant","34 South Buona Vista Rd, Singapore 118162","Queenstown","34 South Buona Vista Rd","Singapore","118162",,"SG","https://barrels.business.site/?utm_source=gmb&utm_medium=referral","+65 6472 1834","+6564721834","1.2807082","103.7870009","7QJP+7R Singapore"
"Poulet - Causeway Point","Restaurant","1 Woodlands Square, #B1 - 25 Causeway Point, Singapore 738099","Woodlands","1 Woodlands Square, #B1 - 25 Causeway Point","Singapore","738099",,"SG","https://www.poulet.com.sg/","+65 6219 5122","+6562195122","1.4359673","103.7855623","CQPP+96 Singapore"
"Cheval Cafe Bar Bistro","Bistro","1 Equestrian Walk, Singapore Turf Club Riding Centre, Singapore 737863","Sungei Kadut","1 Equestrian Walk, Singapore Turf Club Riding Centre","Singapore","737863",,"SG","http://cheval.com.sg/","+65 6269 0918","+6562690918","1.4281829","103.7674324","CQH8+7X Singapore"
"BOMBAY DINING-NORTH INDIAN RESTAURANT","Restaurant","89 Pasir Panjang Rd, Singapore 118511","Queenstown","89 Pasir Panjang Rd","Singapore","118511",,"SG",,"+65 6475 5855","+6564755855","1.2749208","103.7952641","7QFW+X4 Singapore"
"Esarn Thai Corner Pasir Panjang","Thai restaurant","130 Pasir Panjang Rd, Singapore 118548","Queenstown","130 Pasir Panjang Rd","Singapore","118548",,"SG","https://social.quandoo.com/en/groups/Esarn%20Thai%20Corner%20-%20Pasir%20Panjang","+65 6473 3716","+6564733716","1.2761949","103.7930246","7QGV+F6 Singapore"
"99 Buona Vista Kitchen","Chinese restaurant","22 South Buona Vista Rd, Singapore 118156","Queenstown","22 South Buona Vista Rd","Singapore","118156",,"SG","https://www.facebook.com/pages/99-Kitchen-22-South-Buona-Vista/225258130841891","+65 9241 1352","+6592411352","1.2804626","103.7867971","7QJP+5P Singapore"
"East Treasure Chinese Restaurant (東寶) Woods Square","Chinese restaurant","6 Woodlands Square, #01-07/08/09/10 Woods Square, Singapore 737737","Woodlands","6 Woodlands Square, #01-07/08/09/10 Woods Square","Singapore","737737",,"SG","http://www.easttreasure.com.sg/","+65 6908 5650","+6569085650","1.434824","103.7861018","CQMP+WC Singapore"
"Hot Tomato","Restaurant","1 Woodlands Square, #02-11, Singapore 738099","Woodlands","1 Woodlands Square, #02-11","Singapore","738099",,"SG","http://www.hottomato.com.sg/","+65 6894 2685","+6568942685","1.4358165","103.7853953","CQPP+85 Singapore"
"Paradise Restaurant","Indian restaurant","93 Pasir Panjang Rd, Singapore 118513","Queenstown","93 Pasir Panjang Rd","Singapore","118513",,"SG",,"+65 6352 0010","+6563520010","1.2749216","103.795184","7QFW+X3 Singapore"
"Mamma Mia Trattoria E Caffè (Jurong Point)","Italian restaurant","1 Jurong West Central 2, #01-48/49, Singapore 648886","Jurong West","1 Jurong West Central 2, #01-48/49","Singapore","648886",,"SG","https://www.minorfoodsingapore.com/brands/mamma-mia-trattoria-e-caffe/","+65 6250 8545","+6562508545","1.3399257","103.7062886","8PQ4+XG Singapore"
"ALI MD KAWSAR","Restaurant","Singapore","Tuas",,,,,"SG",,,,"1.2949472","103.6304833","7JVJ+X5 Singapore"
"Legendary Hong Kong Restaurant @ Jurong Point 香港傳奇餐廳","Hong Kong style fast food restaurant","63 Jurong West Central 3, #03-80 Jurong Point, Singapore 648331","Jurong West","63 Jurong West Central 3, #03-80 Jurong Point","Singapore","648331",,"SG","http://www.lhk.com.sg/",,,"1.3399211","103.7058776","8PQ4+X9 Singapore"
"3 Monkeys","Fusion restaurant","122 Pasir Panjang Rd, Singapore 118544","Queenstown","122 Pasir Panjang Rd","Singapore","118544",,"SG","https://social.quandoo.com/en/groups/3%20Monkeys","+65 6471 3224","+6564713224","1.2761705","103.7932361","7QGV+F7 Singapore"
"Shou La Shou Beijing Restaurant","Restaurant","63 Jurong West Central 3, Singapore 648331","Jurong West","63 Jurong West Central 3","Singapore","648331",,"SG",,,,"1.3392697","103.7051807","8PQ4+P3 Singapore"
"Douraku Sushi","Japanese restaurant","511 Upper Jurong Rd, d'Arena, Singapore 638366","Jurong West","511 Upper Jurong Rd, d'Arena","Singapore","638366",,"SG","https://www.dourakusushi.com/","+65 6262 6996","+6562626996","1.3293792","103.6830768","8MHM+Q6 Singapore"
"KNS Restaurant","Indian Muslim restaurant","990 Jurong West Street 93, #01-01, Singapore 640990","Jurong West","990 Jurong West Street 93, #01-01","Singapore","640990",,"SG","https://knsrestaurant.com/","+65 6816 1633","+6568161633","1.3352247","103.6957382","8MPW+37 Singapore"
"Broadway Food Centre","Hawker center","60 Gul Ln, Singapore 629437","Pioneer","60 Gul Ln","Singapore","629437",,"SG","http://www.broadway.com.sg/",,,"1.3141599","103.6622191","8M76+MV Singapore"
"Xiang Xiang Vegetarian Food & Fruit","Vegetarian restaurant","1 Tuas Bay Walk637753 Tuas Bay Walk, Singapore 637753","Tuas","1 Tuas Bay Walk637753 Tuas Bay Walk","Singapore","637753",,"SG","http://www.xiangxiangvegetarian.com/contacts","+65 6558 7855","+6565587855","1.3131732","103.6311164","8J7J+7C Singapore"
"Wong Chian Choy","Restaurant","7 Tuas Ave 3, Singapore 639406","Tuas","7 Tuas Ave 3","Singapore","639406",,"SG",,"+65 6862 1637","+6568621637","1.3222604","103.6567998","8MC4+WP Singapore"
"Weng Jia Cai 翁家菜","Chinese restaurant","27 Pioneer Rd N, Singapore 628470","Pioneer","27 Pioneer Rd N","Singapore","628470",,"SG","https://weng-jia-cai.business.site/?utm_source=gmb&utm_medium=referral","+65 9228 2925","+6592282925","1.3265118","103.6961967","8MGW+JF Singapore"
"Subway","Fast food restaurant","30 Tuas Bay Dr, #01-1B Syscon Building, Singapore 637548","Tuas","30 Tuas Bay Dr, #01-1B Syscon Building","Singapore","637548",,"SG","http://www.sub2u.com/","+65 6592 4911","+6565924911","1.3152998","103.6322635","8J8J+4W Singapore"
"Rasa Istimewa Restaurant @ SAFRA Jurong","Restaurant","333 Boon Lay Wy, #2B-01, Singapore 649848","Jurong West","333 Boon Lay Wy, #2B-01","Singapore","649848",,"SG","http://www.rasaistimewa.sg/","+65 6877 9339","+6568779339","1.3350927","103.706292","8PP4+2G Singapore"
"Uncle Leong Signatures (FairPrice Hub)","Chinese restaurant","1 Joo Koon Cir, #03-26, Singapore 629117","Pioneer","1 Joo Koon Cir, #03-26","Singapore","629117",,"SG","http://www.uncleleongsignatures.com/","+65 8878 0803","+6588780803","1.3272183","103.6785455","8MGH+VC Singapore"
"Zen's Taste 真味","Hawker stall","71 Pioneer Rd, Singapore 639591","Tuas","71 Pioneer Rd","Singapore","639591",,"SG",,,,"1.3171601","103.6520821","8M82+VR Singapore"
"Devil's Kitchen","Bistro","1 Yuan Ching Rd, #01-03A/07, Singapore 618640","Jurong West","1 Yuan Ching Rd, #01-03A/07","Singapore","618640",,"SG","https://www.facebook.com/devilskitchenby15Five/","+65 6816 9868","+6568169868","1.3259658","103.7246953","8PGF+9V Singapore"
"iEat Canteen","Coffee shop","47 Tuas South Ave 1, Singapore 637328","Tuas","47 Tuas South Ave 1","Singapore","637328",,"SG","http://ieat.com.sg/","+65 8486 1721","+6584861721","1.3187438","103.629009","8J9H+FJ Singapore"
"Makkal Vilas","Indian restaurant","11 Tech Park Cres, Singapore 638121","Tuas","11 Tech Park Cres","Singapore","638121",,"SG",,"+65 8245 5484","+6582455484","1.3111156","103.6315005","8J6J+CJ Singapore"
"XI YAN SEAFOOD RESTAURANT (禧宴海鲜酒家)","Restaurant","241 Jln. Ahmad Ibrahim, Singapore 629143","Boon Lay","241 Jln. Ahmad Ibrahim","Singapore","629143",,"SG","http://xi-yan-seafood-restaurant.business.site/","+65 8938 1118","+6589381118","1.321007","103.7089233","8PC5+CH Singapore"
"SZ Kitchen @ D’Arena","Fish and seafood restaurant","511 Upper Jurong Rd, Blk E Level 1, Singapore 638366","Jurong West","511 Upper Jurong Rd, Blk E Level 1","Singapore","638366",,"SG","https://szkitchendarena.business.site/?utm_source=gmb&utm_medium=referral","+65 8013 0558","+6580130558","1.3294537","103.682807","8MHM+Q4 Singapore"
"Ashika Restaurant & Catering Pte Ltd","Restaurant","Singapore 627605","Jurong West",,"Singapore","627605",,"SG",,"+65 6369 9890","+6563699890","1.3332545","103.6976974","8MMX+83 Singapore"
"WESTEND","Restaurant","511 Upper Jurong Rd, #01-05 d'Arena, Singapore 638366","Jurong West","511 Upper Jurong Rd, #01-05 d'Arena","Singapore","638366",,"SG",,"+65 9834 2993","+6598342993","1.3294741","103.6822694","8MHJ+QW Singapore"
"I.Host Foodworks & Catering Pte Ltd","Fusion restaurant","6 Tuas Bay Walk, Singapore 637752","Tuas","6 Tuas Bay Walk","Singapore","637752",,"SG",,"+65 6261 4600","+6562614600","1.3121449","103.631192","8J6J+VF Singapore"
"D9 Pier Seafood & Tze Char","Seafood restaurant","9d Jurong Pier Rd, Singapore 619177","Boon Lay","9d Jurong Pier Rd","Singapore","619177",,"SG","https://instagram.com/d9seafood?igshid=YmMyMTA2M2Y=","+65 8381 1200","+6583811200","1.3126813","103.7095518","8P75+3R Singapore"
"Staff Canteen @ Tuas South Avenue 6","Restaurant","35 Tuas South Ave 6, Singapore 637377","Tuas","35 Tuas South Ave 6","Singapore","637377",,"SG",,"+65 6778 2810","+6567782810","1.299008","103.639971","7JXQ+JX Singapore"
"Nandhana’s Restaurant","Indian restaurant","1 Joo Koon Cir, Singapore 629117","Pioneer","1 Joo Koon Cir","Singapore","629117",,"SG","http://www.nandhanas.com/?utm_source=google&utm_medium=wix_google_business_profile&utm_campaign=7268294159237354021","+65 6904 3766","+6569043766","1.3271539","103.678449","8MGH+V9 Singapore"
"Santoshimaa Caterers Pte. Ltd.","Restaurant","71 Pioneer Rd, Singapore 639591","Tuas","71 Pioneer Rd","Singapore","639591",,"SG",,,,"1.3170704","103.6520632","8M82+RR Singapore"
"Le Top","Restaurant","47 Tuas South Ave 1, Singapore 637328","Tuas","47 Tuas South Ave 1","Singapore","637328",,"SG",,,,"1.3187438","103.629009","8J9H+FJ Singapore"
"JSN RESTAURANT PTE. LTD","Restaurant","No 1 Soon Lee St, Singapore 627605","Jurong West","No 1 Soon Lee St","Singapore","627605",,"SG",,"+65 8384 3433","+6583843433","1.3324615","103.6968092","8MJW+XP Singapore"
"Greenhouse Bistro","Restaurant","30 Tuas Bay Dr, #01-00, Singapore 637548","Tuas","30 Tuas Bay Dr, #01-00","Singapore","637548",,"SG",,"+65 9822 0053","+6598220053","1.3154265","103.6316115","8J8J+5J Singapore"
"GV RESTAURANT PTE LTD","Indian restaurant","109 Tuas View Walk 1, Singapore 637731","Tuas","109 Tuas View Walk 1","Singapore","637731",,"SG",,"+65 8268 2648","+6582682648","1.3008866","103.6273484","8J2G+9W Singapore"
"Tuas Food Court","Restaurant","69 Tuas Bay Dr, Singapore 636826","Tuas","69 Tuas Bay Dr","Singapore","636826",,"SG",,,,"1.3178121","103.6314998","8J9J+4H Singapore"
"Long King Canteen","Asian restaurant","69R Tuas South Ave 1, #01-01, Singapore 639926","Tuas","69R Tuas South Ave 1, #01-01","Singapore","639926",,"SG",,,,"1.3131847","103.6279858","8J7H+75 Singapore"
"AL-DIA Indian Muslim Restaurant","Indian restaurant","2 Tuas South Street 2, Singapore 637895","Tuas","2 Tuas South Street 2","Singapore","637895",,"SG",,,,"1.3078432","103.6315106","8J5J+4J Singapore"
"AA Restaurant","Indian restaurant","01-12 14 Tuas Ave 1, Singapore 639499","Tuas","01-12 14 Tuas Ave 1","Singapore","639499",,"SG",,"+65 9477 6642","+6594776642","1.3215273","103.6611946","8MC6+JF Singapore"
"Fillmes Ris Bar","Bar & grill","51 Pioneer Sector 1, Singapore 628437","Pioneer","51 Pioneer Sector 1","Singapore","628437",,"SG",,,,"1.3003729","103.6554466","8M24+45 Singapore"
"KJM CURRY HOUSE & RESTAURANT","Indian restaurant","3 Sakra Rd, Singapore 627878","Western Islands","3 Sakra Rd","Singapore","627878",,"SG",,"+65 9865 1168","+6598651168","1.2673385","103.704543","7P83+WR Singapore"
"Jai Raja's Pte Ltd","Restaurant","15 Tuas View Cl, 92 Tuas South Ave 3, Singapore 637485","Tuas","15 Tuas View Cl, 92 Tuas South Ave 3","Singapore","637485",,"SG",,"+65 9850 7386","+6598507386","1.3005644","103.624359","8J2F+6P Singapore"
"Mariners' Corner Restaurant","Restaurant","106 Clementi Street 12, #01-40, Singapore 120106","Clementi","106 Clementi Street 12, #01-40","Singapore","120106",,"SG","https://www.facebook.com/pages/category/Family-Style-Restaurant/Mariners-Corner-Restaurant-164932550195771/","+65 6224 9928","+6562249928","1.322078","103.7695238","8QC9+RR Singapore"
"Peperoni Pizzeria @ Upper Thomson","Italian restaurant","267 Upper Thomson Rd, Singapore 574394","Bishan","267 Upper Thomson Rd","Singapore","574394",,"SG","https://www.peperoni.com.sg/","+65 6681 6726","+6566816726","1.3536172","103.8332567","9R3M+C8 Singapore"
"Parker Korean Restaurant","Korean restaurant","209 Upper Thomson Rd, Singapore 574347","Bishan","209 Upper Thomson Rd","Singapore","574347",,"SG","https://parkerrestaurant.wixsite.com/parkerrestaurant","+65 6251 2606","+6562512606","1.352035","103.8350761","9R2P+R2 Singapore"
"Tandoori Corner","Indian restaurant","400 Balestier Rd, #01-12 Balestier Plaza, Singapore 329802","Novena","400 Balestier Rd, #01-12 Balestier Plaza","Singapore","329802",,"SG","http://www.tandooricorner.com.sg/","+65 6250 0200","+6562500200","1.3258138","103.8500717","8VG2+82 Singapore"
"Shake Shack Junction 8","Western restaurant","9 Bishan Pl, #01-51 Shopping Centre, Junction 8, Singapore 579837","Bishan","9 Bishan Pl, #01-51 Shopping Centre, Junction 8","Singapore","579837",,"SG","http://shakeshack.com.sg/",,,"1.3511432","103.8484443","9R2X+F9 Singapore"
"JuFu Mala Kitchen Restaurant","Mandarin restaurant","11 Lor 3 Toa Payoh #01-34, Stall 4 Block C Food Court, Jackson Square, Singapore 319579","Toa Payoh","11 Lor 3 Toa Payoh #01-34, Stall 4 Block C Food Court, Jackson Square","Singapore","319579",,"SG","http://www.jufucafe.com/","+65 8646 3609","+6586463609","1.3373363","103.8485543","8RPX+WC Singapore"
"Peach Garden @ Thomson Plaza","Chinese restaurant","301 Upper Thomson Rd, #01-88 Thomson Plaza, Singapore 574408","Bishan","301 Upper Thomson Rd, #01-88 Thomson Plaza","Singapore","574408",,"SG","http://www.peachgarden.com.sg/thomson-plaza","+65 6451 3233","+6564513233","1.3548791","103.8308643","9R3J+X8 Singapore"
"East Treasure Chinese Restaurant Toa Payoh","Chinese restaurant","470 Lor 6 Toa Payoh, #01-72, Singapore 310470","Toa Payoh","470 Lor 6 Toa Payoh, #01-72","Singapore","310470",,"SG","https://easttreasure.com.sg/","+65 6252 4645","+6562524645","1.3320695","103.8493901","8RJX+RQ Singapore"
"Shaan North Indian Restaurant","Indian restaurant","31 Ocean Way #01-08 Quayside Isle, Sentosa Cove, Singapore 098375","Southern Islands","31 Ocean Way #01-08 Quayside Isle, Sentosa Cove","Singapore","098375",,"SG","https://www.shaan.sg/",,,"1.247211","103.8422832","6RWR+VW Singapore"
"FOC Sentosa","Spanish restaurant","110 Tanjong Beach Walk, Singapore 098943","Southern Islands","110 Tanjong Beach Walk","Singapore","098943",,"SG","http://www.focsentosa.com/","+65 6100 1102","+6561001102","1.2467881","103.8249765","6RWF+PX Singapore"
"Good Old Days Food Court","Singaporean restaurant","60 Siloso Bch Walk, Singapore 098997","Southern Islands","60 Siloso Bch Walk","Singapore","098997",,"SG","https://www.mountfaberleisure.com/restaurant/good-old-days/","+65 6361 0088","+6563610088","1.2516525","103.8171855","7R28+MV Singapore"
"Feng Shui Inn","Chinese restaurant","8 Sentosa Gateway, Hotel, Lobby, #01-521 & 522 Resorts World Sentosa, Equarius, Singapore 098269","Southern Islands","8 Sentosa Gateway, Hotel, Lobby, #01-521 & 522 Resorts World Sentosa, Equarius","Singapore","098269",,"SG","https://www.rwsentosa.com/en/restaurants/signature-restaurants/feng-shui-inn","+65 6577 6599","+6565776599","1.258237","103.816715","7R58+7M Singapore"
"Greenwood Fish Market","Seafood restaurant","31 Ocean Way, #01 - 04 / 05, Singapore 098375","Southern Islands","31 Ocean Way, #01 - 04 / 05","Singapore","098375",,"SG","http://greenwoodfishmarket.com/","+65 6262 0450","+6562620450","1.2477209","103.8419157","6RXR+3Q Singapore"
"Royal Taj @ Village Hotel","Indian restaurant","2, block 16 Gunner Ln, #02-06 Singapore Mess Hall, Singapore 099567","Southern Islands","2, block 16 Gunner Ln, #02-06 Singapore Mess Hall","Singapore","099567",,"SG","http://www.royaltaj.sg/","+65 9118 5896","+6591185896","1.2528382","103.8207408","7R3C+47 Singapore"
"eM By The Marina","Bar","1 Cove Ave, #02-14 Sentosa Cove Arrival Plaza, Singapore 098537","Southern Islands","1 Cove Ave, #02-14 Sentosa Cove Arrival Plaza","Singapore","098537",,"SG","https://embythemarina.business.site/?utm_source=gmb&utm_medium=referral","+65 6271 2802","+6562712802","1.2472287","103.8400467","6RWR+V2 Singapore"
"Tea House by Soup Restaurant - IMM","Cantonese restaurant","2 Jurong East Street 21, Singapore 609601","Jurong East","2 Jurong East Street 21","Singapore","609601",,"SG","http://www.souprestaurant.com.sg/","+65 6899 1811","+6568991811","1.3343489","103.7463786","8PMW+PH Singapore"
"Maria restaurant pvt ltd","Indian restaurant","10 Lor Bakar Batu, Singapore 348744","Geylang","10 Lor Bakar Batu","Singapore","348744",,"SG",,,,"1.3269971","103.8714613","8VGC+QH Singapore"
"Curry Leaf Restaurant Pte. Ltd.","Restaurant","165 Tg Pagar Rd, Singapore 088539","Tanjong Pagar","165 Tg Pagar Rd","Singapore","088539",,"SG",,"+65 6220 2040","+6562202040","1.274961","103.843575","7RFV+XC Singapore"
"Paradise Classic","Chinese restaurant","78 Airport Blvd., #04 - 244, Singapore 819666","Changi","78 Airport Blvd., #04 - 244","Singapore","819666",,"SG","https://www.paradisegp.com/brand-paradise-classic/","+65 6214 3129","+6562143129","1.3608481","103.9897553","9X6Q+8W Singapore"
"Jack's Place Jewel Changi Airport","Restaurant","78 Airport Blvd., #04-219, Singapore 819666","Changi","78 Airport Blvd., #04-219","Singapore","819666",,"SG","https://www.jacksplace.com.sg/","+65 6214 9173","+6562149173","1.3602545","103.990184","9X6R+43 Singapore"
"Pondok Daun Upeh Restaurant","Restaurant","929 Tampines Street 91, Block 929, Singapore 520929","Tampines","929 Tampines Street 91, Block 929","Singapore","520929",,"SG",,,,"1.3463015","103.9396416","8WWQ+GV Singapore"
"Sushiro Jewel Changi","Conveyor belt sushi restaurant","78 Airport Boulevard B2-227/228 Jewel, Singapore Changi Airport, Singapore 819666","Changi","78 Airport Boulevard B2-227/228 Jewel, Singapore Changi Airport","Singapore","819666",,"SG","https://sushiro-jewel-changi.business.site/?utm_source=gmb&utm_medium=referral","+65 6513 4115","+6565134115","1.3597153","103.989438","9X5Q+VQ Singapore"
"J.B. Ah Meng Restaurant","Chinese restaurant","534 Geylang Rd, Singapore 389490","Geylang","534 Geylang Rd","Singapore","389490",,"SG",,"+65 6741 2418","+6567412418","1.3137378","103.8861926","8V7P+FF Singapore"
"5 Star Restaurant & Catering Pte Ltd","Restaurant","Singapore 486121","Tampines",,"Singapore","486121",,"SG","https://www.sgpbusiness.com/company/5-Star-Restaurant-Catering-Pte-Ltd","+65 6636 3129","+6566363129","1.3370669","103.9460997","8WPW+RC Singapore"
"SomBoon Thai restaurant","Thai restaurant","430 Upper Changi Rd, #01-05 East Village, Singapore 487048","Bedok","430 Upper Changi Rd, #01-05 East Village","Singapore","487048",,"SG",,,,"1.3318567","103.9467141","8WJW+PM Singapore"
"Tim Ho Wan","Dim sum restaurant","No 02-223, Jewel Changi Airport, 78 Airport Blvd., Changi Jewel, Singapore 819666","Changi","No 02-223, Jewel Changi Airport, 78 Airport Blvd., Changi Jewel","Singapore","819666",,"SG","http://restaurant.timhowan.com/tim-ho-wan-dim-sum-restaurant-changi-jewel-singapore-92431/Home?utm_source=locator&utm_medium=googleplaces","+65 6513 8588","+6565138588","1.360233","103.9895632","9X6Q+3R Singapore"
"Itacho Sushi","Sushi restaurant","78 Airport Blvd., #B2 - 210, Singapore 819666","Changi","78 Airport Blvd., #B2 - 210","Singapore","819666",,"SG","https://instagram.com/itachosushisg","+65 6214 9986","+6562149986","1.3600387","103.9899698","9X6Q+2X Singapore"
"Briyani Point Restaurant @76 Shenton Way #0101","Indian restaurant","76 Shenton Wy, #0101, Singapore 079119","Tanjong Pagar","76 Shenton Wy, #0101","Singapore","079119",,"SG","https://briyanipointrestaurant76shentonway0101.business.site/?utm_source=gmb&utm_medium=referral","+65 6974 7578","+6569747578","1.2735453","103.8454928","7RFW+C5 Singapore"
"Azman Seafood Restaurant","Hawker stall","58 New Upper Changi Rd, #01-185, Singapore 461058","Bedok","58 New Upper Changi Rd, #01-185","Singapore","461058",,"SG",,,,"1.3238335","103.9410273","8WFR+GC Singapore"
"Common Man Coffee Roasters - Quayside Isle","Cafe","31 Ocean Way, #01-09, Singapore 098375","Southern Islands","31 Ocean Way, #01-09","Singapore","098375",,"SG","https://commonmancoffeeroasters.com/?utm_source=google&utm_medium=organic&utm_campaign=gmb_quayside_isle","+65 6877 4892","+6568774892","1.2471056","103.8422382","6RWR+RV Singapore"
"Sampo Korean BBQ","Korean restaurant","132 Telok Ayer St, Singapore 068599","Chinatown","132 Telok Ayer St","Singapore","068599",,"SG","http://instagram.com/sampokorean","+65 6324 3009","+6563243009","1.2816844","103.8480606","7RJX+M6 Singapore"
"Gyu-Kaku ""牛角“ Japanese BBQ Restaurant VivoCity","Yakiniku restaurant","1 HarbourFront Walk, #02-01/02, Singapore 098585","Bukit Merah","1 HarbourFront Walk, #02-01/02","Singapore","098585",,"SG","http://www.gyu-kaku.com.sg/","+65 6428 4208","+6564284208","1.2643877","103.8226676","7R7F+Q3 Singapore"
"Hoàng Hâu Vietnamese Restaurant","Restaurant","146 01, 1090 Jalan Bukit Merah, Block 146, Singapore 160146","Bukit Merah","146 01, 1090 Jalan Bukit Merah, Block 146","Singapore","160146",,"SG","https://hoanghau.getz.co/","+65 8852 3687","+6588523687","1.2777732","103.8303497","7RHJ+44 Singapore"
"Gochi-So Shokudo Japanese Restaurant ごち惣食堂 @ Asia Square Tower 2","Tonkatsu restaurant","Asia Square Tower 2, #02-10, 2 Marina View, Singapore 018961","Central Area","Asia Square Tower 2, #02-10, 2 Marina View","Singapore","018961",,"SG",,"+65 6980 5573","+6569805573","1.2782649","103.8508791","7VH2+89 Singapore"
"Korean BBQ Restaurant Woo Hyang (우향 코리안 BBQ)","Korean barbecue restaurant","89 Amoy St, Singapore 069908","Chinatown","89 Amoy St","Singapore","069908",,"SG","https://woohyang.sg/","+65 6970 9789","+6569709789","1.2811405","103.8470067","7RJW+FR Singapore"
"Ficus Cafe By Chef Syed","Halal restaurant","39 Artillery Ave, Singapore 099958","Southern Islands","39 Artillery Ave","Singapore","099958",,"SG",,,,"1.2504277","103.827573","7R2H+52 Singapore"
"Cumi Bali Indonesian Restaurant","Indonesian restaurant","50 Tras St, Singapore 078989","Chinatown","50 Tras St","Singapore","078989",,"SG","http://www.cumibali.com/","+65 6220 6619","+6562206619","1.2781374","103.844249","7RHV+7M Singapore"
"Komala's Restaurant International Plaza","Indian restaurant","Anson Rd, #01-09 International Plaza, Singapore 079903","Tanjong Pagar","Anson Rd, #01-09 International Plaza","Singapore","079903",,"SG","http://komalasrestaurants.com/our-locations/","+65 6655 7190","+6566557190","1.2756998","103.8458098","7RGW+78 Singapore"
"Don Dae Bak Restaurant","Korean barbecue restaurant","35 Kreta Ayer Rd, Singapore 089000","Chinatown","35 Kreta Ayer Rd","Singapore","089000",,"SG","https://dondaebaksg.business.site/","+65 6226 1727","+6562261727","1.2808258","103.8422212","7RJR+8V Singapore"
"Daam Doom Dish Kohinoor Restaurant","Indian restaurant","9 Hoe Chiang Rd, Singapore 089314","Tanjong Pagar","9 Hoe Chiang Rd","Singapore","089314",,"SG",,"+65 6022 1933","+6560221933","1.2739768","103.8425185","7RFV+H2 Singapore"
"Suzuki Restaurant","Restaurant","83 Neil Rd, #01-09 Mondrian Hotel, Singapore 089813","Chinatown","83 Neil Rd, #01-09 Mondrian Hotel","Singapore","089813",,"SG","https://www.suzukiomakase.com/","+65 9755 7899","+6597557899","1.2789787","103.8419283","7RHR+HQ Singapore"
"Enak Enak Restaurant (Simpang Bedok)","Halal restaurant","340 Bedok Rd, Singapore 469520","Bedok","340 Bedok Rd","Singapore","469520",,"SG","http://www.enakenakrestaurant.com/","+65 6246 1211","+6562461211","1.3313924","103.9478584","8WJX+H4 Singapore"
"Hawa Restaurant","Restaurant","801 Tampines Ave 4, #01-279, Singapore 520801","Tampines","801 Tampines Ave 4, #01-279","Singapore","520801",,"SG",,"+65 6015 0288","+6560150288","1.3469582","103.9380515","8WWQ+Q6 Singapore"
"Luke's Lobster Singapore (Jewel Changi)","Seafood restaurant","78 Airport Boulevard #01, K209, Singapore 819666","Changi","78 Airport Boulevard #01, K209","Singapore","819666",,"SG","http://www.lukeslobster.sg/","+65 6241 5765","+6562415765","1.3603912","103.989642","9X6Q+5V Singapore"
"Mohamed Food Restaurant","Restaurant","18 Raffles Quay, Singapore 048582","Central Area","18 Raffles Quay","Singapore","048582",,"SG",,,,"1.2802986","103.8504332","7VJ2+45 Singapore"
"Noyah La Maison","Nyonya restaurant","65 Airport Boulevard, Changi Airport, B2-40/40A Terminal 3 (North, Singapore 819663","Changi","65 Airport Boulevard, Changi Airport, B2-40/40A Terminal 3 (North","Singapore","819663",,"SG","https://www.noyahlamaison.com/","+65 9647 0311","+6596470311","1.3555805","103.9861962","9X4P+6F Singapore"
"KFC Jewel","Fast food restaurant","78 Airport Boulevard B2 - 275, #277 Singapore Changi Airport, Singapore 819666","Changi","78 Airport Boulevard B2 - 275, #277 Singapore Changi Airport","Singapore","819666",,"SG","https://www.kfc.com.sg/","+65 6241 8575","+6562418575","1.3604704","103.989592","9X6Q+5R Singapore"
"Eight Treasures Vegetarian Restaurant","Vegetarian restaurant","282A South Bridge Road, Sago Ln, Singapore 058831","Chinatown","282A South Bridge Road, Sago Ln","Singapore","058831",,"SG","https://www.facebook.com/EightTreasuresVegetarian","+65 6534 7727","+6565347727","1.2815386","103.8447177","7RJV+JV Singapore"
"Azur","Restaurant","75 Airport Blvd, Crowne Plaza Changi Airport Hotel, Terminal 3 Singapore Changi Airport, Singapore 819664","Changi","75 Airport Blvd, Crowne Plaza Changi Airport Hotel, Terminal 3 Singapore Changi Airport","Singapore","819664",,"SG",,"+65 6823 5354","+6568235354","1.35857","103.988101","9X5Q+C6 Singapore"
"Tonkatsu by Ma Maison @ Jewel","Tonkatsu restaurant","78 Airport Blvd., #02 - 211, Singapore 819666","Changi","78 Airport Blvd., #02 - 211","Singapore","819666",,"SG","http://ma-maison.sg/restaurant/jewel/index.html","+65 6242 9322","+6562429322","1.3596381","103.9901181","9X5R+V2 Singapore"
"Sakura Family Restaurant","Halal restaurant","3 Simei Street 6, #03-05, Eastpoint Mall, 3 Simei Street 6, #03-05, Singapore 528833","Tampines","3 Simei Street 6, #03-05, Eastpoint Mall, 3 Simei Street 6, #03-05","Singapore","528833",,"SG",,"+65 6388 7414","+6563887414","1.3423802","103.953164","8XR3+X7 Singapore"
"Le Shrimp Ramen @ T3 Public Changi Airport","Ramen restaurant","65 Airport Blvd., #B2-49 Terminal 3, Public Area, Singapore 819663","Changi","65 Airport Blvd., #B2-49 Terminal 3, Public Area","Singapore","819663",,"SG","https://www.paradisegp.com/le-shrimp-ramen/",,,"1.3559931","103.9862754","9X4P+9G Singapore"
"Jin Hock Seafood Restaurant","Seafood restaurant","844 Tampines Street 82, #01-131, Singapore 520844","Tampines","844 Tampines Street 82, #01-131","Singapore","520844",,"SG","http://jinhockseafood.oddle.me/","+65 6787 4255","+6567874255","1.3522657","103.93664","9W2P+WM Singapore"
"Tempura Makino (Jewel Changi Airport)","Tempura restaurant","78 Airport Boulevard, #01-223 Jewel, Singapore Changi Airport, Singapore 819666","Changi","78 Airport Boulevard, #01-223 Jewel, Singapore Changi Airport","Singapore","819666",,"SG","https://tempuramakino.com.sg/","+65 6285 7488","+6562857488","1.3598023","103.9895389","9X5Q+WR Singapore"
"New Hawa Restaurant","Restaurant","462 Tampines Street 44, Singapore 520462","Tampines","462 Tampines Street 44","Singapore","520462",,"SG",,"+65 8923 1328","+6589231328","1.358962","103.9549708","9X53+HX Singapore"
"Izumi Japanese Restaurant","Japanese restaurant","59 New Upper Changi Rd, #01-1240, Singapore 461059","Bedok","59 New Upper Changi Rd, #01-1240","Singapore","461059",,"SG","https://www.facebook.com/Izumijapanesefishmarketsingapore/","+65 8189 1848","+6581891848","1.3236717","103.9408779","8WFR+F9 Singapore"
"A2B Indian Veg. Restaurant","Restaurant","Singapore","Southern Islands",,,,,"SG",,,,"1.2550891","103.8218271","7R4C+2P Singapore"
"Swee Choon Tim Sum Restaurant","Dim sum restaurant","60 Airport Blvd., #01-07, Terminal 2 Singapore Changi Airport, Singapore 819643","Changi","60 Airport Blvd., #01-07, Terminal 2 Singapore Changi Airport","Singapore","819643",,"SG","http://www.sweechoon.com/",,,"1.3542805","103.9886467","9X3Q+PF Singapore"
"Thaiquet Southern Thai Restaurant","Thai restaurant","430 Upper Changi Rd, #01-05 East Village, Singapore 487048","Bedok","430 Upper Changi Rd, #01-05 East Village","Singapore","487048",,"SG","https://www.instagram.com/thaiquet","+65 8718 8666","+6587188666","1.3318971","103.9467003","8WJW+QM Singapore"
"Hokkaido Sushi","Sushi restaurant","81 Anson Rd, level 9 m Hotel Singapore, Singapore 079908","Tanjong Pagar","81 Anson Rd, level 9 m Hotel Singapore","Singapore","079908",,"SG","http://www.hokkaidosushi.com.sg/","+65 6221 3075","+6562213075","1.273767","103.8450399","7RFW+G2 Singapore"
"예약 YeYak Korean Restaurant","Korean restaurant","7 Keppel Road PSA Tanjong Pagar Complex, #01-18, Singapore 089053","Bukit Merah","7 Keppel Road PSA Tanjong Pagar Complex, #01-18","Singapore","089053",,"SG","https://www.yeyak.com.sg/?utm_source=google&utm_medium=wix_google_business_profile&utm_campaign=3717503695881860086","+65 8828 7770","+6588287770","1.2720835","103.8421291","7RCR+RV Singapore"
"Kailash Parbat Restaurant","Vegetarian restaurant","1 Changi Business Park Cres, #01-10/12/13 Plaza 8, Singapore 486066","Tampines","1 Changi Business Park Cres, #01-10/12/13 Plaza 8","Singapore","486066",,"SG",,"+65 6636 5545","+6566365545","1.3330865","103.9659768","8XM8+69 Singapore"
"Tangerine","Restaurant","8 Sentosa Gateway, Singapore 098269","Southern Islands","8 Sentosa Gateway","Singapore","098269",,"SG","https://www.rwsentosa.com/en/restaurants/signature-restaurants/tangerine","+65 6577 6688","+6565776688","1.2588124","103.8161991","7R58+GF Singapore"
"Gigi Fish Soup Family Restaurant","Family restaurant","Tanjong Pagar Plz, #02-46, Singapore 082001","Tanjong Pagar","Tanjong Pagar Plz, #02-46","Singapore","082001",,"SG",,,,"1.2753472","103.842994","7RGV+45 Singapore"
"Deen Restaurant Indian Muslim Food","Indian restaurant","7 Everton Park, Block 7, Singapore 080007","Tanjong Pagar","7 Everton Park, Block 7","Singapore","080007",,"SG",,,,"1.2769999","103.8389426","7RGQ+QH Singapore"
"Family Flavor Restaurant","Chinese restaurant","Blk 59 New Upper Changi Rd, #01-1282, Singapore 461059","Bedok","Blk 59 New Upper Changi Rd, #01-1282","Singapore","461059",,"SG",,"+65 6246 7118","+6562467118","1.3246864","103.9404206","8WFR+V5 Singapore"
"Dal In Restaurant","Korean restaurant","17 Boon Tat St, Singapore 069618","Chinatown","17 Boon Tat St","Singapore","069618",,"SG",,"+65 6225 1006","+6562251006","1.2813619","103.84833","7RJX+G8 Singapore"
"Bachmann Japanese Restaurant Vivocity","Restaurant","1 HarbourFront Walk, Vivocity, Singapore 098585","Bukit Merah","1 HarbourFront Walk, Vivocity","Singapore","098585",,"SG",,,,"1.2633585","103.8234466","7R7F+89 Singapore"
"Canton Paradise Noodle & Congee House @ T3 Public","Porridge restaurant","65 Airport Blvd., #B2-49, Singapore 819663","Changi","65 Airport Blvd., #B2-49","Singapore","819663",,"SG","https://www.paradisegp.com/brand-canton-paradise/",,,"1.3575763","103.9874421","9X5P+2X Singapore"
"Paik's Bibim @ Vivo City","Korean restaurant","1 Harbourfront Walk, #02-125, Singapore 098585","Bukit Merah","1 Harbourfront Walk, #02-125","Singapore","098585",,"SG","http://www.facebook.com/paiks.bibimsg/","+65 6377 0696","+6563770696","1.2634765","103.8224849","7R7C+9X Singapore"
"Amarathai Restaurant Tanjong Pagar","Restaurant","4D Lim Teck Kim Rd, Singapore 088935","Tanjong Pagar","4D Lim Teck Kim Rd","Singapore","088935",,"SG",,,,"1.2736452","103.8427068","7RFV+F3 Singapore"
"SOS Bar Restaurant","Bar","6 Marina Blvd, #01-18/19 The Sail at Marina Bay, Singapore 018985","Central Area","6 Marina Blvd, #01-18/19 The Sail at Marina Bay","Singapore","018985",,"SG","https://www.sosbarsg.com/","+65 9489 5742","+6594895742","1.2805865","103.8527915","7VJ3+64 Singapore"
"NAEUM Restaurant","Restaurant","161 Telok Ayer St, Singapore 068615","Chinatown","161 Telok Ayer St","Singapore","068615",,"SG","http://www.naeum.sg/","+65 8830 5016","+6588305016","1.2803318","103.8475438","7RJX+42 Singapore"
"Numb Restaurant 川麻记","Restaurant","5 Straits View, West Tower, #01-12 Marina One, Singapore 018935","Central Area","5 Straits View, West Tower, #01-12 Marina One","Singapore","018935",,"SG","https://www.numbrestaurant.com/?utm_source=google&utm_medium=wix_google_business_profile&utm_campaign=16277146813624859339","+65 9460 1960","+6594601960","1.277033","103.8523999","7VG2+RX Singapore"
"Majestic Restaurant","Chinese restaurant","5 Straits View, #04-01 Marina One East Tower, Singapore 018935","Central Area","5 Straits View, #04-01 Marina One East Tower","Singapore","018935",,"SG","http://www.restaurantmajestic.com/","+65 6250 1988","+6562501988","1.2779663","103.8528486","7VH3+54 Singapore"
"Tambi Restaurant","Restaurant","47 Amoy St, Singapore 069873","Chinatown","47 Amoy St","Singapore","069873",,"SG","http://www.tambi.sg/","+65 9838 8401","+6598388401","1.2803939","103.8469458","7RJW+5Q Singapore"
"Marché Mövenpick VivoCity","Restaurant","1 HarbourFront Walk, #03 - 14 VivoCity, Singapore 098585","Bukit Merah","1 HarbourFront Walk, #03 - 14 VivoCity","Singapore","098585",,"SG","https://www.marche-movenpick.sg/en/our-locations/vivocity","+65 6376 8226","+6563768226","1.2644513","103.8213732","7R7C+QG Singapore"
"Annalakshmi Restaurant","Indian restaurant","6A Shenton Wy, #01-03 Downtown Gallery, Singapore 068815","Central Area","6A Shenton Wy, #01-03 Downtown Gallery","Singapore","068815",,"SG","http://www.annalakshmi.sg/","+65 6339 9993","+6563399993","1.2767053","103.8482052","7RGX+M7 Singapore"
"Kim's Family Food Korean Restaurant","Korean restaurant","177 Telok Ayer St, Singapore 068625","Chinatown","177 Telok Ayer St","Singapore","068625",,"SG",,"+65 6221 0401","+6562210401","1.2799523","103.8473329","7RHW+XW Singapore"
"Sodam Korean Restaurant","Korean barbecue restaurant","48 Tg Pagar Rd, Singapore 088469","Chinatown","48 Tg Pagar Rd","Singapore","088469",,"SG","https://social.quandoo.com/en/groups/Sodam%20Korean%20Restaurant%20%EC%86%8C%EB%8B%B4","+65 8363 6476","+6583636476","1.2792622","103.8437507","7RHV+PG Singapore"
"Foliage Restaurant","Asian restaurant","11 Kee Seng St, #01-03, Singapore 089218","Tanjong Pagar","11 Kee Seng St, #01-03","Singapore","089218",,"SG","http://foliage.sg/",,,"1.2750074","103.8421186","7RGR+2R Singapore"
"Black Society 黑社会","Cantonese restaurant","1 HarbourFront Walk, #02-156/157, Singapore 098585","Bukit Merah","1 HarbourFront Walk, #02-156/157","Singapore","098585",,"SG","http://blacksociety.com.sg/","+65 6376 9740","+6563769740","1.2634875","103.821134","7R7C+9F Singapore"
"Restaurant Chaleur","Restaurant","77 Neil Rd, Singapore 088903","Chinatown","77 Neil Rd","Singapore","088903",,"SG","https://restaurantchaleur.com/","+65 8508 3390","+6585083390","1.27922","103.842153","7RHR+MV Singapore"
"Mouth Restaurant - 地茂馆","Cantonese restaurant","38 Maxwell Rd, #01-01/02 Airview Building, Air View Building, Singapore 069116","Chinatown","38 Maxwell Rd, #01-01/02 Airview Building, Air View Building","Singapore","069116",,"SG","https://mouth.com.sg/","+65 6534 4233","+6565344233","1.2790836","103.8451038","7RHW+J2 Singapore"
"Miska Cafe","Mediterranean restaurant","31 Ocean Way, #01-07, Singapore 098375","Southern Islands","31 Ocean Way, #01-07","Singapore","098375",,"SG","http://www.miskacafe.com/","+65 6339 0903","+6563390903","1.2472309","103.8422985","6RWR+VW Singapore"
"Hana-hana Japanese Restaurant","Japanese restaurant","1 Tras Link, #01-17 Orchid Hotel Singapore, Singapore 078867","Chinatown","1 Tras Link, #01-17 Orchid Hotel Singapore","Singapore","078867",,"SG","https://tableagent.com/singapore/hana-hana-japanese-restaurant/","+65 6444 7753","+6564447753","1.2768788","103.8438187","7RGV+QG Singapore"
"Akbar 24 Hours Restaurant","Indian Muslim restaurant","2 Lim Teck Kim Rd, Singapore 088933","Tanjong Pagar","2 Lim Teck Kim Rd","Singapore","088933",,"SG","https://akbar-24-hours-restaurant.business.site/","+65 6324 2559","+6563242559","1.2735897","103.8426745","7RFV+C3 Singapore"
"Kia Hiang","Chinese restaurant","10 Anson Rd, #02-29 International Plaza, Singapore 079903","Tanjong Pagar","10 Anson Rd, #02-29 International Plaza","Singapore","079903",,"SG","http://www.kiahiang.com.sg/","+65 6220 7169","+6562207169","1.2756998","103.8458098","7RGW+78 Singapore"
"DANIU TEOCHEW SEAFOOD RESTAURANT","Seafood restaurant","61 Kampong Bahru Rd, Singapore 169368","Bukit Merah","61 Kampong Bahru Rd","Singapore","169368",,"SG","https://www.instagram.com/daniuteochewseafood/?hl=en","+65 6677 6725","+6566776725","1.2765699","103.835969","7RGP+J9 Singapore"
"No Menu Restaurant","Italian restaurant","23 Boon Tat St, Singapore 069621","Chinatown","23 Boon Tat St","Singapore","069621",,"SG","http://www.osvaldo.sg/","+65 6224 0091","+6562240091","1.2812893","103.8485025","7RJX+GC Singapore"
"MIZ Japanese Restaurant","Japanese restaurant","17 Kampong Bahru Rd, Singapore 169347","Bukit Merah","17 Kampong Bahru Rd","Singapore","169347",,"SG","https://miz-japanese-restaurant.business.site/","+65 6225 5761","+6562255761","1.2772129","103.8366514","7RGP+VM Singapore"
"Shen Li Restaurant","Hawker stall","137 Tampines St. 11, #01-15 Round Market & Food Centre, Singapore 521137","Tampines","137 Tampines St. 11, #01-15 Round Market & Food Centre","Singapore","521137",,"SG",,"+65 9450 9314","+6594509314","1.3457685","103.9443735","8WWV+8P Singapore"
"ManNa Korean Restaurant","Korean restaurant","5 Changi Business Park Central 1, #01-39/40 Changi City Point, Singapore 486038","Tampines","5 Changi Business Park Central 1, #01-39/40 Changi City Point","Singapore","486038",,"SG","http://www.mannakorea.com/","+65 6970 8505","+6569708505","1.3339502","103.962808","8XM7+H4 Singapore"
"Sous Noodle Restaurant Pte Ltd","Restaurant","1 Changi Business Park Cres, Singapore 486025","Tampines","1 Changi Business Park Cres","Singapore","486025",,"SG",,"+65 6789 4066","+6567894066","1.3334698","103.9655432","8XM8+96 Singapore"
"Zén","Restaurant","41 Bukit Pasoh Rd, Singapore 089855","Tanjong Pagar","41 Bukit Pasoh Rd","Singapore","089855",,"SG","http://www.restaurantzen.com/","+65 6534 8880","+6565348880","1.2794687","103.8403607","7RHR+Q4 Singapore"
"Bliss Garden - 福满楼","Chinese restaurant","1 Expo Dr, #02-01, Singapore 486150","Tampines","1 Expo Dr, #02-01","Singapore","486150",,"SG",,"+65 6789 1313","+6567891313","1.3336634","103.9577189","8XM5+F3 Singapore"
"Coucou Authentic Swiss Restaurant and Bar","Swiss restaurant","9 Craig Rd, Singapore 089669","Chinatown","9 Craig Rd","Singapore","089669",,"SG","http://coucou.sg/","+65 6226 0060","+6562260060","1.2776438","103.842759","7RHV+34 Singapore"
"Yi Jia Seafood Village Restaurant","Restaurant","515 Bedok North Ave 2, Singapore 460515","Bedok","515 Bedok North Ave 2","Singapore","460515",,"SG","https://m.facebook.com/pages/category/Restaurant/%E5%8B%BF%E6%B4%9B%E5%84%84%E5%AE%B6%E6%9D%91%E6%B5%B7%E9%B2%9C-Bedok-Yi-Jia-Village-1044797772377889/","+65 6909 8189","+6569098189","1.3314028","103.9300653","8WJJ+H2 Singapore"
"Dalcomhan Bam Korean Restaurant East Village","Korean restaurant","430 Upper Changi Rd, #01-66 East Village, Singapore 487048","Bedok","430 Upper Changi Rd, #01-66 East Village","Singapore","487048",,"SG","https://smartweb-ecms.tabsquare.com/scan/a1837c55-edaa-4f48-a125-9a7ee33bdc88","+65 6214 0886","+6562140886","1.3319849","103.9461517","8WJW+QF Singapore"
"Al-Sahira Restaurant","Restaurant","26 Bedok S Rd, Singapore 462026","Bedok","26 Bedok S Rd","Singapore","462026",,"SG",,"+65 9124 2006","+6591242006","1.3235658","103.9341499","8WFM+CM Singapore"
"Ridwan And Family Restaurant","Restaurant","1 Changi Village Rd, Singapore 500001","Changi","1 Changi Village Rd","Singapore","500001",,"SG",,,,"1.387946","103.9876211","9XQQ+52 Singapore"
"KNS RESTAURANT","Indian restaurant","1110 E Coast Park Service Rd, #01-03/04, Singapore 449880","Bedok","1110 E Coast Park Service Rd, #01-03/04","Singapore","449880",,"SG",,"+65 6974 8303","+6569748303","1.3043958","103.9241908","8W3F+QM Singapore"
"Burger & Lobster Jewel Changi Airport","Restaurant","78 Airport Blvd., #05 - 203, Singapore 819666","Changi","78 Airport Blvd., #05 - 203","Singapore","819666",,"SG","https://www.burgerandlobster.com/locations/singapore/jewel-changi-airport/?utm_source=google&utm_medium=local&utm_campaign=gmblisting","+65 6971 6126","+6569716126","1.3604451","103.9900567","9X6R+52 Singapore"
"Teahouse By Soup Restaurant @ Century Square","Chinese restaurant","2 Tampines Central 5, #01-20 Century Square, Singapore 529509","Tampines","2 Tampines Central 5, #01-20 Century Square","Singapore","529509",,"SG","http://www.souprestaurant.com.sg/","+65 6260 0030","+6562600030","1.3520939","103.9435653","9W2V+RC Singapore"
"小浦田餐馆 | Xiao Pu Tien Restaurant","Chinese restaurant","138 Tampines St. 11, #01-124, Singapore 521138","Tampines","138 Tampines St. 11, #01-124","Singapore","521138",,"SG",,"+65 9370 0092","+6593700092","1.3454615","103.9456244","8WWW+56 Singapore"
"U Taste Restaurant","Restaurant","BLK 513 Tampines Central 1, #01-170, Singapore 520513","Tampines","BLK 513 Tampines Central 1, #01-170","Singapore","520513",,"SG",,,,"1.3537776","103.9443341","9W3V+GP Singapore"
"BACHMANN JAPANESE RESTAURANT Changi Terminal 1","Restaurant","80 Airport Blvd., Singapore 819642","Changi","80 Airport Blvd.","Singapore","819642",,"SG",,,,"1.3618777","103.9904247","9X6R+Q5 Singapore"
"Sheik Jalani Restaurant","Restaurant","527 Bedok North Street 3, Singapore 460527","Bedok","527 Bedok North Street 3","Singapore","460527",,"SG",,,,"1.3338593","103.9285784","8WMH+GC Singapore"
"Jin Wee Restaurant","Chinese restaurant","928 E Coast Rd, Singapore 459117","Bedok","928 E Coast Rd","Singapore","459117",,"SG",,"+65 9852 7066","+6598527066","1.3124373","103.9250066","8W6G+X2 Singapore"
"Yun Nans 云海肴 (Jewel)","Chinese restaurant","78 Airport Blvd., #02 - 217, Singapore 819666","Changi","78 Airport Blvd., #02 - 217","Singapore","819666",,"SG","http://order.yunnans.sg/","+65 6908 3677","+6569083677","1.3598043","103.9894081","9X5Q+WQ Singapore"
"New Rezki Restaurant.pte.ltd","Coffee shop","203 Bedok North Street 1, Singapore 460203","Bedok","203 Bedok North Street 1","Singapore","460203",,"SG","https://www.foodpanda.sg/restaurant/v8sm/new-rezki-restaurant","+65 6573 6837","+6565736837","1.3256433","103.9290071","8WGH+7J Singapore"
"金隆海鲜楼 Jing Long Seafood Restaurant @ BEDOK","Seafood restaurant","412 Bedok North Ave 2, #01-152, Singapore 460412","Bedok","412 Bedok North Ave 2, #01-152","Singapore","460412",,"SG","http://www.jinglongseafood.com.sg/","+65 6442 9398","+6564429398","1.3298436","103.9309225","8WHJ+W9 Singapore"
"Poulet Bijou - Jewel Changi Airport","Restaurant","78 Airport Road, Jewel 01 - 227 Singapore Changi Airport, Singapore 819666","Changi","78 Airport Road, Jewel 01 - 227 Singapore Changi Airport","Singapore","819666",,"SG","https://www.poulet.com.sg/","+65 6243 7820","+6562437820","1.3598954","103.9899367","9X5Q+XX Singapore"
"Alsalam Restaurant","Indian Muslim restaurant","801 Tampines Ave 4, Singapore 520801","Tampines","801 Tampines Ave 4","Singapore","520801",,"SG","https://www.foodpanda.sg/restaurant/x4ke/alsalam-restaurant","+65 6789 9680","+6567899680","1.3467606","103.9380649","8WWQ+P6 Singapore"
"Bikanervala - Indian Sweets and Vegetarian Restaurant in Changi Airport, Terminal 3, Singapore","Family restaurant","Singapore Changi Airport Terminal 3 hall to level 4, Level 4 Public access Viewing area Take lift or escalator from Department, Singapore 819663","Changi","Singapore Changi Airport Terminal 3 hall to level 4, Level 4 Public access Viewing area Take lift or escalator from Department","Singapore","819663",,"SG","https://bikanervala.sg/","+65 6584 2473","+6565842473","1.3559704","103.985719","9X4P+97 Singapore"
"Yangzhou Fried Rice Restaurant 扬州炒饭饭店","Chinese restaurant","430 Upper Changi Rd, #01-11, Singapore 487048","Bedok","430 Upper Changi Rd, #01-11","Singapore","487048",,"SG","https://www.facebook.com/YZFriedrice","+65 9106 1723","+6591061723","1.33196","103.9464447","8WJW+QH Singapore"
"Violet Oon @ Jewel","Nyonya restaurant","78 Airport Blvd., #01 - 205 / 206, Singapore 819666","Changi","78 Airport Blvd., #01 - 205 / 206","Singapore","819666",,"SG","https://violetoon.com/","+65 9834 9935","+6598349935","1.3605312","103.9897657","9X6Q+6W Singapore"
"KNS Restaurant","Indian restaurant","89 Bedok North Street 4, #01-111, Singapore 460089","Bedok","89 Bedok North Street 4, #01-111","Singapore","460089",,"SG","https://knsrestaurant.com/","+65 6445 1619","+6564451619","1.3329829","103.9381512","8WMQ+57 Singapore"
"Hot Tomato","Western restaurant","78 Airport Blvd., #04 - 229, Singapore 819666","Changi","78 Airport Blvd., #04 - 229","Singapore","819666",,"SG","https://www.hottomato.com.sg/","+65 6214 9352","+6562149352","1.3605539","103.9895539","9X6Q+6R Singapore"
"Top Seafood Restaurant","Chinese restaurant","128 Bedok North Street 2, Block 128, Singapore 460128","Bedok","128 Bedok North Street 2, Block 128","Singapore","460128",,"SG","https://topseafood.oddle.me/en_SG/","+65 8112 2521","+6581122521","1.3278177","103.9392119","8WHQ+4M Singapore"
"Shake Shack Jewel Changi","Hamburger restaurant","78 Airport Blvd., #02 - 256, Singapore 819666","Changi","78 Airport Blvd., #02 - 256","Singapore","819666",,"SG","https://www.shakeshack.com.sg/",,,"1.3604639","103.990076","9X6R+52 Singapore"
"Afghanistan Family Restaurant","Halal restaurant","201E Tampines St 23, Singapore 527201","Tampines","201E Tampines St 23","Singapore","527201",,"SG","https://www.facebook.com/296745123739506/","+65 9829 4907","+6598294907","1.3535555","103.9539729","9X33+CH Singapore"
"Tanuki Raw @ Jewel Changi Airport","Restaurant","78 Airport Boulevard 05-202 Jewel, Singapore Changi Airport, Singapore 819666","Changi","78 Airport Boulevard 05-202 Jewel, Singapore Changi Airport","Singapore","819666",,"SG","http://tanukiraw.com/","+65 8590 4900","+6585904900","1.3603912","103.989642","9X6Q+5V Singapore"
"Kok Sen Restaurant","Singaporean restaurant","Keong Saik Rd., 4, Singapore 089110","Chinatown","Keong Saik Rd., 4","Singapore","089110",,"SG","https://koksen.oddle.me/en_SG/","+65 6223 2005","+6562232005","1.2794333","103.8416097","7RHR+QJ Singapore"
"White Restaurant (Tampines Mall)","Chinese restaurant","4 Tampines Central 5, #B1-K17 Tampines Mall, Singapore 529510","Tampines","4 Tampines Central 5, #B1-K17 Tampines Mall","Singapore","529510",,"SG","https://whiterestaurant.com.sg/","+65 6908 1023","+6569081023","1.3524936","103.9447179","9W2V+XV Singapore"
"1929 @ Keong Saik Restaurant & Bar","Restaurant","50 Keong Saik Rd., Hotel 1929, Singapore 089154","Chinatown","50 Keong Saik Rd., Hotel 1929","Singapore","089154",,"SG","https://1929keongsaik.business.site/?utm_source=gmb&utm_medium=referral","+65 6226 7929","+6562267929","1.2807919","103.8418042","7RJR+8P Singapore"
"Le Faubourg","Restaurant","2 Gunner Lane #01-02 Mess Hall Block 17, opp The Barracks Hotel, Singapore 099567","Southern Islands","2 Gunner Lane #01-02 Mess Hall Block 17, opp The Barracks Hotel","Singapore","099567",,"SG","https://le-faubourg-sentosa.com/","+65 6677 7128","+6566777128","1.2526575","103.8208749","7R3C+38 Singapore"
"Indian Tandoor Restaurant","Restaurant","#01-65 430 Upper Changi Rd, Singapore 487048","Bedok","#01-65 430 Upper Changi Rd","Singapore","487048",,"SG","http://indiantandoor.com.sg/","+65 9105 2565","+6591052565","1.3320183","103.9461061","8WJW+RC Singapore"
"New Mahamoodiya Restaurant","Indian restaurant","335 Bedok Rd, Singapore 469510","Bedok","335 Bedok Rd","Singapore","469510",,"SG","https://newmahamoodiya.com/","+65 6243 2086","+6562432086","1.3311377","103.9475055","8WJX+F2 Singapore"
"Labyrinth Restaurant","Singaporean restaurant","Raffles Ave., #02 - 23, Singapore 039802","Central Area","Raffles Ave., #02 - 23","Singapore","039802",,"SG","https://www.restaurantlabyrinth.com/","+65 6223 4098","+6562234098","1.2897489","103.8562976","7VQ4+VG Singapore"
"Crown Prince Restaurant (Aranda Country Club)","Seafood restaurant","60 Pasir Ris Dr 3, #01-01, Singapore 519497","Pasir Ris","60 Pasir Ris Dr 3, #01-01","Singapore","519497",,"SG",,"+65 8801 8111","+6588018111","1.3772994","103.9537378","9XG3+WF Singapore"
"Sakunthala's Restaurant - Changi Outlet","Indian restaurant","8 Changi Business Park Ave 1, #01-53 ESR Biz Park, Singapore 486018","Tampines","8 Changi Business Park Ave 1, #01-53 ESR Biz Park","Singapore","486018",,"SG","https://www.sakunthalas.com/","+65 6538 3134","+6565383134","1.3350751","103.9641532","8XP7+2M Singapore"
"Plate Restaurant","Restaurant","1 Gopeng St, Singapore 078862","Tanjong Pagar","1 Gopeng St","Singapore","078862",,"SG","http://carltoncity.sg/dining/plate","+65 6632 8922","+6566328922","1.2761056","103.8435576","7RGV+CC Singapore"
"Etna Italian Restaurant (East Coast)","Italian restaurant","110 Upper E Coast Rd, Singapore 455298","Bedok","110 Upper E Coast Rd","Singapore","455298",,"SG","http://www.etnaitalianrestaurant.com/","+65 6444 9530","+6564449530","1.3132206","103.9293525","8W7H+7P Singapore"
"Alsalam Restaurant","Halal restaurant","472 Tampines Street 44, #01-49, Singapore 520472","Tampines","472 Tampines Street 44, #01-49","Singapore","520472",,"SG",,"+65 6783 8073","+6567838073","1.3600744","103.9536754","9X63+2F Singapore"
"Rhubarb","French restaurant","3 Duxton Hill, Singapore 089589","Chinatown","3 Duxton Hill","Singapore","089589",,"SG","http://www.rhubarb.sg/","+65 8127 5001","+6581275001","1.2793726","103.8430536","7RHV+P6 Singapore"
"EN Live Seafood Restaurant","Restaurant","7 Keppel Rd, #01-01, Singapore 089053","Bukit Merah","7 Keppel Rd, #01-01","Singapore","089053",,"SG","https://www.facebook.com/enliveseafood/",,,"1.271418","103.842329","7RCR+HW Singapore"
"Silver Shell Cafe","Restaurant","101 Siloso Rd, Singapore 098970","Southern Islands","101 Siloso Rd","Singapore","098970",,"SG","http://www.shangri-la.com/singapore/rasasentosaresort/dining/restaurants/dine-on-3-silver-shell-cafe/","+65 6371 1966","+6563711966","1.2574494","103.8100783","7R46+X2 Singapore"
"Bluemist Restaurant","Cafe","Blk 7 Tanjong Pagar Plz, #01-103, Singapore 081007","Chinatown","Blk 7 Tanjong Pagar Plz, #01-103","Singapore","081007",,"SG","https://www.bluemist.sg/","+65 6220 1820","+6562201820","1.2769734","103.8432784","7RGV+Q8 Singapore"
"Element Restaurant Amara Singapore","Restaurant","165 Tg Pagar Rd, Level One Amara Singapore, Singapore 088539","Tanjong Pagar","165 Tg Pagar Rd, Level One Amara Singapore","Singapore","088539",,"SG","https://singapore.amarahotels.com/dining/element","+65 6879 2626","+6568792626","1.2749177","103.8437106","7RFV+XF Singapore"
"Sol & Ora","Restaurant","The Outpost Hotel, 10 Artillery Ave, #07-01 Sentosa Island, Singapore 099951","Southern Islands","The Outpost Hotel, 10 Artillery Ave, #07-01 Sentosa Island","Singapore","099951",,"SG","https://www.solandora.sg/","+65 8879 8765","+6588798765","1.251754","103.8197205","7R29+PV Singapore"
"Mazzo Restaurant & Bar — Italian Pizza & Chargrilled Meats | Wines & Cocktails","Italian restaurant","56 Club St, Singapore 069432","Chinatown","56 Club St","Singapore","069432",,"SG","https://www.mazzosingapore.com/","+65 8133 7588","+6581337588","1.282069","103.8457786","7RJW+R8 Singapore"
"The Spot - Singapore","Restaurant","5 Straits View, #01-26/27 Marina One East Tower, Singapore 018935","Central Area","5 Straits View, #01-26/27 Marina One East Tower","Singapore","018935",,"SG","http://thespot.sg/","+65 6284 2637","+6562842637","1.2780388","103.8531501","7VH3+67 Singapore"
"MERCI MARCEL","French restaurant","7-9 Club St, Singapore 069403","Chinatown","7-9 Club St","Singapore","069403",,"SG","http://mercimarcelgroup.com/","+65 6438 3913","+6564383913","1.2826433","103.8471483","7RMW+3V Singapore"
"Teppei Japanese Restaurant","Japanese restaurant","1 Tras Link, #01-18 Orchid Hotel Singapore, Singapore 078867","Chinatown","1 Tras Link, #01-18 Orchid Hotel Singapore","Singapore","078867",,"SG",,"+65 8831 5185","+6588315185","1.276722","103.8439479","7RGV+MH Singapore"
"Le Jardin Restaurant","European restaurant","5 Cox Terrace, Level 2 Fort Canning Arts Centre, Singapore 179620","Central Area","5 Cox Terrace, Level 2 Fort Canning Arts Centre","Singapore","179620",,"SG","http://www.lejardin.com.sg/","+65 8870 9977","+6588709977","1.2947615","103.8469286","7RVW+WQ Singapore"
"Pizza Hut Restaurant - Macpherson Road","Pizza restaurant","163 MacPherson Rd, Singapore 348532","Toa Payoh","163 MacPherson Rd","Singapore","348532",,"SG","https://www.pizzahut.com.sg/","+65 6235 3535","+6562353535","1.3297417","103.8737965","8VHF+VG Singapore"
"The Bay Restaurant","Fast food restaurant","8 Sentosa Gateway, Sentosa Island, Singapore 098269","Southern Islands","8 Sentosa Gateway, Sentosa Island","Singapore","098269",,"SG","http://www.rwsentosa.com/language/en-US/Homepage/Restaurants/Others/TheBayRestaurant",,,"1.2579102","103.8174067","7R58+5X Singapore"
"Thanying Restaurant","Thai restaurant","165 Tanjong Pagar Road #02-00 Amara Hotel, Singapore 088539","Tanjong Pagar","165 Tanjong Pagar Road #02-00 Amara Hotel","Singapore","088539",,"SG","https://www.thanyingrestaurants.com/","+65 6222 4688","+6562224688","1.2752281","103.8435872","7RGV+3C Singapore"
"Bottle tree cafe restaurant by sembawang eating house seafood restaurant @ Singapore Discovery Centre","Asian restaurant","510 Upper Jurong Rd, Singapore 638365","Jurong West","510 Upper Jurong Rd","Singapore","638365",,"SG",,"+65 6423 9861","+6564239861","1.332714","103.678929","8MMH+3H Singapore"
"Lotus Vegetarian Restaurant","Vegetarian restaurant","103 Irrawaddy Rd, #02-07 Royal Square@Novena, Singapore 329566","Novena","103 Irrawaddy Rd, #02-07 Royal Square@Novena","Singapore","329566",,"SG","http://www.lotusvegetarian.sg/","+65 8668 0090","+6586680090","1.320337","103.843237","8RCV+47 Singapore"
"Pangat North Indian Restaurant","Restaurant","1 Fusionopolis Way, Koufu, B2 #02 (PANGAT - MR5, Singapore 138632","Queenstown","1 Fusionopolis Way, Koufu, B2 #02 (PANGAT - MR5","Singapore","138632",,"SG",,"+65 8811 1141","+6588111141","1.2998458","103.7877637","7QXQ+W4 Singapore"
"Gyu-Kaku Japanese BBQ","Yakiniku restaurant","238 Thomson Rd, #02 - 46, Singapore 307683","Novena","238 Thomson Rd, #02 - 46","Singapore","307683",,"SG","http://www.gyu-kaku.com.sg/","+65 6252 4001","+6562524001","1.32009","103.8437568","8RCV+2G Singapore"
"Swensen's @ Clementi Mall","American restaurant","3155 Commonwealth Ave W, #05-31/32/33, Singapore 129588","Clementi","3155 Commonwealth Ave W, #05-31/32/33","Singapore","129588",,"SG","http://www.swensens.com.sg/singapore","+65 6659 2151","+6566592151","1.3155308","103.764614","8Q87+6R Singapore"
"Kian Seng Seafood Restaurant","Seafood restaurant","4013 Ang Mo Kio Industrial Park 1, #01-450, Singapore 569629","Ang Mo Kio","4013 Ang Mo Kio Industrial Park 1, #01-450","Singapore","569629",,"SG","http://www.kiansengseafood.com.sg/","+65 6458 2552","+6564582552","1.3586072","103.8548278","9V53+CW Singapore"
"Soup Restaurant 三盅两件 - NEX","Restaurant","23 Serangoon Central, #02 - 15 / 16 NEX, Singapore 556083","Serangoon","23 Serangoon Central, #02 - 15 / 16 NEX","Singapore","556083",,"SG","http://www.souprestaurant.com.sg/","+65 6634 2822","+6566342822","1.3508273","103.8726938","9V2F+83 Singapore"
"Man Zhu Steamboat Restaurant","Chinese restaurant","350 Jurong East Ave 1, #01-1231 Singapore Singapore Region, Singapore 600350","Jurong East","350 Jurong East Ave 1, #01-1231 Singapore Singapore Region","Singapore","600350",,"SG","https://emenu-global.sandypos.com/?rid=6681&tid=-1&ver=1","+65 6425 6185","+6564256185","1.3440092","103.7312675","8PVJ+JG Singapore"
"Pillars Restaurant & Catering Pte Ltd","Caterer","35 Opal Cres, Singapore 328425","Kallang","35 Opal Cres","Singapore","328425",,"SG",,"+65 6296 8422","+6562968422","1.3276446","103.866404","8VH8+3H Singapore"
"Gyu-Kaku Japanese BBQ","Yakiniku restaurant","1 Vista Exchange Green, #02-17 The Star Vista, Singapore 138617","Queenstown","1 Vista Exchange Green, #02-17 The Star Vista","Singapore","138617",,"SG","http://www.gyu-kaku.com.sg/","+65 6735 4001","+6567354001","1.3069375","103.7885449","8Q4Q+QC Singapore"
"Ajiya Okonomiyaki Restaurant","Okonomiyaki restaurant","104 Jln Jurong Kechil, Singapore 598603","Bukit Timah","104 Jln Jurong Kechil","Singapore","598603",,"SG","http://www.facebook.com/ajiyasg","+65 6463 3461","+6564633461","1.3409149","103.7724501","8QRC+9X Singapore"
"Siam Square Mookata - Best Mookata Restaurant in Singapore","Thai restaurant","155 Bukit Batok Street 11, Singapore 650155","Bukit Batok","155 Bukit Batok Street 11","Singapore","650155",,"SG","https://siamsquaremookata.com.sg/","+65 8119 6664","+6581196664","1.348023","103.743534","8PXV+6C Singapore"
"Maji Curry Square 2","Restaurant","10 Sinaran Dr, #02-07, Singapore 307506","Novena","10 Sinaran Dr, #02-07","Singapore","307506",,"SG","http://majicurry.com/","+65 8494 4898","+6584944898","1.3209681","103.84397","8RCV+9H Singapore"
"Ban Heng Restaurant","Chinese restaurant","22 Boon Keng Rd, #01-21, Singapore 330022","Kallang","22 Boon Keng Rd, #01-21","Singapore","330022",,"SG","http://www.banheng.com.sg/","+65 6291 0407","+6562910407","1.3183928","103.8612476","8V96+9F Singapore"
"146 Dim Sum Handmade Bao","Dim sum restaurant","146 Potong Pasir Ave 1, #01-127 PP881 Foodhouse, Singapore 350146","Toa Payoh","146 Potong Pasir Ave 1, #01-127 PP881 Foodhouse","Singapore","350146",,"SG",,,,"1.3319805","103.8671157","8VJ8+QR Singapore"
"IKEA Jurong Restaurant","Swedish restaurant","50 Jurong Gateway Rd, #04-20/21/22, Singapore 608549","Jurong East","50 Jurong Gateway Rd, #04-20/21/22","Singapore","608549",,"SG","https://www.ikea.com/sg/en/stores/restaurant/","+65 6786 6868","+6567866868","1.3337765","103.7436699","8PMV+GF Singapore"
"Nara","Japanese restaurant","167 Thomson Rd, Singapore 307619","Novena","167 Thomson Rd","Singapore","307619",,"SG","http://www.narajapanese.sg/","+65 6256 6568","+6562566568","1.3180442","103.8434183","8R9V+69 Singapore"
"Mother Earth Vegetarian Restaurant 大地之素","Restaurant","511 Upper Jurong Rd, #01-04 E inside main lobby of d'Arena, Singapore 638366","Jurong West","511 Upper Jurong Rd, #01-04 E inside main lobby of d'Arena","Singapore","638366",,"SG","https://motherearthjurong.getz.co/","+65 8644 3168","+6586443168","1.329549","103.6826171","8MHM+R2 Singapore"
"Yuan Xing Chaozhou Restaurant","Chinese restaurant","34 Whampoa West, #01-01, Singapore 330034","Kallang","34 Whampoa West, #01-01","Singapore","330034",,"SG",,"+65 6298 3179","+6562983179","1.3199839","103.8644251","8V97+XQ Singapore"
"Fountain Microbrewery & Restaurant","Brewpub","21 Jurong Town Hall Rd, Level 2 Snow City Singapore, Singapore 609433","Jurong East","21 Jurong Town Hall Rd, Level 2 Snow City Singapore","Singapore","609433",,"SG","https://fountain.com.sg/?utm_source=google&utm_medium=organic&utm_campaign=gmb-website&utm_content=website_button","+65 8121 5101","+6581215101","1.3352233","103.7353064","8PPP+34 Singapore"
"Iskina Cebu Restaurant","Filipino restaurant","73A Ayer Rajah Crescent, #01-27, Singapore 139957","Queenstown","73A Ayer Rajah Crescent, #01-27","Singapore","139957",,"SG",,"+65 9230 8181","+6592308181","1.2975045","103.7872378","7QXP+2V Singapore"
"Hansang Korean Family Restaurant","Korean restaurant","10 Sinaran Dr, #03-33 Square 2, Singapore 307506","Novena","10 Sinaran Dr, #03-33 Square 2","Singapore","307506",,"SG",,"+65 6397 6752","+6563976752","1.3208703","103.8441058","8RCV+8J Singapore"
"Gim Seng Heng Seafood Restaurant","Seafood restaurant","Block 36 Sin Ming Dr, #01-371, Singapore 575710","Bishan","Block 36 Sin Ming Dr, #01-371","Singapore","575710",,"SG","https://gim-seng-heng-seafood.business.site/","+65 6778 9891","+6567789891","1.358747","103.837157","9R5P+FV Singapore"
"Al-kareem Restaurant","Halal restaurant","23, #02 Penjuru Walk, #80&81 Cassia at Penjuru, Singapore 608537","Jurong East","23, #02 Penjuru Walk, #80&81 Cassia at Penjuru","Singapore","608537",,"SG",,"+65 8257 6210","+6582576210","1.3179311","103.7319921","8P9J+5Q Singapore"
"Malay Food Stall At Guan Kim Restaurant","Restaurant","47 Tanglin Halt Rd, Block 47, Singapore 141047","Queenstown","47 Tanglin Halt Rd, Block 47","Singapore","141047",,"SG",,,,"1.3006195","103.7981277","8Q2X+67 Singapore"
"Old Lai Huat Seafood Restaurant","Seafood restaurant","223 Rangoon Rd, Singapore 218460","Kallang","223 Rangoon Rd","Singapore","218460",,"SG",,,,"1.3178364","103.8522435","8V92+4V Singapore"
"Mukjja Korean Chinese Restaurant","Restaurant","275 Thomson Rd, #01-07, Singapore 307645","Novena","275 Thomson Rd, #01-07","Singapore","307645",,"SG",,"+65 6259 7479","+6562597479","1.3214915","103.8415908","8RCR+HJ Singapore"
"Chang Korean Charcoal BBQ Restaurant","Korean barbecue restaurant","71 Loewen Rd, #01-01, Singapore 248847","Tanglin","71 Loewen Rd, #01-01","Singapore","248847",,"SG","http://changbbq.com.sg/","+65 6473 9005","+6564739005","1.3019405","103.8116485","8R26+QM Singapore"
"Lai Kee Dim Sum (Toa Payoh)","Dim sum restaurant","126 Lor 1 Toa Payoh, Block 126, Singapore 310126","Toa Payoh","126 Lor 1 Toa Payoh, Block 126","Singapore","310126",,"SG","https://laikeedimsum.com/","+65 8731 3488","+6587313488","1.3382356","103.8450094","8RQW+72 Singapore"
"McDonald's HDB Hub","Fast food restaurant","490 Lor 6 Toa Payoh, #01-11 HDB Hub, Singapore 310490","Toa Payoh","490 Lor 6 Toa Payoh, #01-11 HDB Hub","Singapore","310490",,"SG","https://www.mcdonalds.com.sg/","+65 6777 3777","+6567773777","1.3325896","103.8481317","8RMX+27 Singapore"
"Yee Cheong Yuen Noodle Restaurant Pte Ltd","Market","600 Lor 4 Toa Payoh, Singapore 319515","Toa Payoh","600 Lor 4 Toa Payoh","Singapore","319515",,"SG",,"+65 6258 0040","+6562580040","1.3340456","103.8509913","8VM2+J9 Singapore"
"Brotzeit German Beer Bar and Restaurant - VivoCity","German restaurant","1 HarbourFront Walk, #01-149 VivoCity, Singapore 098585","Bukit Merah","1 HarbourFront Walk, #01-149 VivoCity","Singapore","098585",,"SG","http://www.brotzeit.co/?utm_source=google&utm_medium=organic&utm_campaign=gmb","+65 6272 8815","+6562728815","1.2634018","103.8220077","7R7C+9R Singapore"
"Picotin Brewhaus - Rochester","Brewpub","35 Rochester Dr, Singapore 138639","Queenstown","35 Rochester Dr","Singapore","138639",,"SG","https://www.brewhaus.sg/","+65 6877 1191","+6568771191","1.3057995","103.787724","8Q4Q+83 Singapore"
"Siam Square Mookata - Best Mookata Restaurant in Singapore","Thai restaurant","600 Lor 4 Toa Payoh, #01-06/07/09/10, Singapore 319515","Toa Payoh","600 Lor 4 Toa Payoh, #01-06/07/09/10","Singapore","319515",,"SG","https://siamsquaremookata.com.sg/","+65 8119 6664","+6581196664","1.3340215","103.8510598","8VM2+JC Singapore"
"Rasa Istimewa @ Pasir Ris","Restaurant","201 Pasir Ris Rd, Singapore 519147","Pasir Ris","201 Pasir Ris Rd","Singapore","519147",,"SG","https://www.rasaistimewa.sg/","+65 6386 9339","+6563869339","1.3821322","103.9478907","9WJX+V5 Singapore"
"Anjappar Restaurant @ T1 Public","Halal restaurant","80 Airport Boulevard 03-20, Terminal 1 Public Area, Singapore 819642","Changi","80 Airport Boulevard 03-20, Terminal 1 Public Area","Singapore","819642",,"SG","http://anjappar.com.sg/","+65 6278 5545","+6562785545","1.3619903","103.9903707","9X6R+Q4 Singapore"
"GO Noodle House Changi Airport T2","Chinese noodle restaurant","60 Airport Blvd., #03-24/25-01 Viewing Mall South, Terminal 2, Singapore 819643","Changi","60 Airport Blvd., #03-24/25-01 Viewing Mall South, Terminal 2","Singapore","819643",,"SG","https://www.gonoodlehouse.com.sg/","+65 6600 3323","+6566003323","1.3545523","103.9888244","9X3Q+RG Singapore"
"Shi Fu Restaurant Discotheques Pte Ltd","Restaurant","1 Pasir Ris Cl, Singapore 519599","Pasir Ris","1 Pasir Ris Cl","Singapore","519599",,"SG",,"+65 6581 4666","+6565814666","1.3761167","103.9555509","9XG4+C6 Singapore"
"Kaveri Vegetarian Cuisine","South Indian restaurant","60 Airport Blvd., Singapore 819643","Changi","60 Airport Blvd.","Singapore","819643",,"SG",,,,"1.3550971","103.9890242","9X4Q+2J Singapore"
"Different Taste Cafe & Restaurant","Family restaurant","111 Frankel Ave, Singapore 458229","Bedok","111 Frankel Ave","Singapore","458229",,"SG","https://m.facebook.com/differenttasterestaurant/?ref=bookmarks","+65 6241 6518","+6562416518","1.3142974","103.9194291","8W79+PQ Singapore"
"Quentin's the Eurasian Restaurant","Restaurant","139 Ceylon Rd, Level 1 Eurasian Heritage Gallery, Singapore 429744","Geylang","139 Ceylon Rd, Level 1 Eurasian Heritage Gallery","Singapore","429744",,"SG","http://www.quentins.com.sg/","+65 9008 3804","+6590083804","1.3100053","103.8993095","8V6X+2P Singapore"
"Cosmo Bar & Restaurant @ Capri Changi City","Restaurant","3 Changi Business Park Central 1, Lobby Restaurant, Singapore 486037","Tampines","3 Changi Business Park Central 1, Lobby Restaurant","Singapore","486037",,"SG","http://www.cosmodining.com.sg/","+65 6933 9878","+6569339878","1.3340404","103.9640063","8XM7+JJ Singapore"
"Stella Seaside Lounge","Lounge","11 Changi Coast Walk, Singapore 499740","Tampines","11 Changi Coast Walk","Singapore","499740",,"SG","http://www.stella.com.sg/","+65 6214 9168","+6562149168","1.3160615","103.9774041","8X8G+CX Singapore"
"Tapas Club","Spanish restaurant","78 Airport Blvd., #03 - 220 / 221 / 222, Singapore 819666","Changi","78 Airport Blvd., #03 - 220 / 221 / 222","Singapore","819666",,"SG","https://www.tapasclub.com/reservation","+65 9155 0906","+6591550906","1.3601073","103.9893079","9X6Q+2P Singapore"
"Sankranti Restaurant","Andhra restaurant","1 Changi Business Park Cres, #01-14/15, Singapore 486025","Tampines","1 Changi Business Park Cres, #01-14/15","Singapore","486025",,"SG","http://www.sankrantihotels.com/","+65 6784 8498","+6567848498","1.3334907","103.9655606","8XM8+96 Singapore"
"Chin Lee Restaurant","Chinese restaurant","115 Bedok North Rd, #01-285, Singapore 460115","Bedok","115 Bedok North Rd, #01-285","Singapore","460115",,"SG","http://chinlee.com.sg/#page","+65 6449 5454","+6564495454","1.3316142","103.9373255","8WJP+JW Singapore"
"Buey Tahan See-Food Restaurant @ DTE","Halal restaurant","1 Pasir Ris Cl, #04-101 E!Hub, Singapore 519599","Pasir Ris","1 Pasir Ris Cl, #04-101 E!Hub","Singapore","519599",,"SG","http://www.bueytahan.sg/","+65 8815 2024","+6588152024","1.376964","103.9546896","9XG3+QV Singapore"
"Ding Heng Restaurant","Chinese restaurant","963C Upper Changi Rd N, #01-11 Komo Shoppes, Singapore 506790","Pasir Ris","963C Upper Changi Rd N, #01-11 Komo Shoppes","Singapore","506790",,"SG",,"+65 9030 3323","+6590303323","1.3604699","103.9701712","9X6C+53 Singapore"
"Le Aranda Restaurant","Restaurant","60 Pasir Ris Dr 3, Singapore 519497","Pasir Ris","60 Pasir Ris Dr 3","Singapore","519497",,"SG",,,,"1.3760672","103.9534622","9XG3+C9 Singapore"
"Crystal Jade La Mian Xiao Long Bao","Chinese restaurant","80 Airport Boulevard, Changi Airport T1 #03-54 Departure, Level 3 Transit Lounge East, Singapore 819642","Changi","80 Airport Boulevard, Changi Airport T1 #03-54 Departure, Level 3 Transit Lounge East","Singapore","819642",,"SG","http://www.crystaljade.com/","+65 6542 3158","+6565423158","1.3617845","103.9913487","9X6R+PG Singapore"
"Hong Kong Street Family Restaurant Bedok 香港街","Chinese restaurant","430 Upper Changi Rd, #01-67, Singapore 487048","Bedok","430 Upper Changi Rd, #01-67","Singapore","487048",,"SG",,"+65 6245 3881","+6562453881","1.3320173","103.9462022","8WJW+RF Singapore"
"Nandhana's restaurant Eastpoint Simei","Restaurant","Simei Street 1, Singapore","Tampines","Simei Street 1",,,,"SG",,,,"1.3424837","103.9530659","8XR3+X6 Singapore"
"Banjara restaurant","Restaurant","6 Changi Business Park Ave 1 North Tower. Food ALLEY, #01-32 ESR, UE BizHub East, Singapore 486017","Tampines","6 Changi Business Park Ave 1 North Tower. Food ALLEY, #01-32 ESR, UE BizHub East","Singapore","486017",,"SG","http://www.banjara.com.sg/","+65 6214 0402","+6562140402","1.3350589","103.9638392","8XP7+2G Singapore"
"AL Mubin Restaurant 24hr","Restaurant","Changi Village Rd, #1, Singapore 500001","Changi","Changi Village Rd, #1","Singapore","500001",,"SG",,"+65 6904 0145","+6569040145","1.3882181","103.9876318","9XQQ+73 Singapore"
"terra Tokyo Italian","Italian restaurant","54 Tras St, Singapore 078993","Chinatown","54 Tras St","Singapore","078993",,"SG","http://www.terraseita.com/","+65 9751 2145","+6597512145","1.2779828","103.8441779","7RHV+5M Singapore"
"Long Phụng Vietnamese Restaurant","Restaurant","Singapore","Southern Islands",,,,,"SG",,,,"1.2539091","103.8238562","7R3F+HG Singapore"
"Restaurant JAG","Restaurant","41 Robertson Quay, #02-02 STPI Creative Workshop and Gallery, Singapore 238236","Central Area","41 Robertson Quay, #02-02 STPI Creative Workshop and Gallery","Singapore","238236",,"SG","https://www.restaurantjag.com/","+65 6871 8973","+6568718973","1.2911018","103.8402617","7RRR+C4 Singapore"
"Bochinche","Argentinian restaurant","27 Club St, Singapore 069413","Chinatown","27 Club St","Singapore","069413",,"SG","http://www.bochinche.com.sg/","+65 6235 4990","+6562354990","1.2824263","103.846543","7RJW+XJ Singapore"
"Fleur De Sel Le Restaurant","French restaurant","64 Tras St, Singapore 079003","Chinatown","64 Tras St","Singapore","079003",,"SG","http://www.fleurdesel.com.sg/","+65 6222 6861","+6562226861","1.2777778","103.8441667","7RHV+4M Singapore"
"一品居中餐馆 Yi Pin Ju Chinese Restaurant","Chinese restaurant","6 Lim Teck Kim Rd, Singapore 088936","Tanjong Pagar","6 Lim Teck Kim Rd","Singapore","088936",,"SG","https://yi-pin-ju-chinese-restaurant.business.site/?m=true","+65 8835 5376","+6588355376","1.2735989","103.8425935","7RFV+C2 Singapore"
"Restaurant Ibid","Asian fusion restaurant","18 N Canal Rd, Singapore 048830","Central Area","18 N Canal Rd","Singapore","048830",,"SG","https://www.restaurantibid.com/","+65 9151 8698","+6591518698","1.2864337","103.8483365","7RPX+H8 Singapore"
"Restaurant Fiz","Fine dining restaurant","21 Tg Pagar Rd, #01-01/02 Next to the Fairfield Methodist Church, Singapore 088444","Chinatown","21 Tg Pagar Rd, #01-01/02 Next to the Fairfield Methodist Church","Singapore","088444",,"SG","http://www.restaurantfiz.sg/","+65 9679 8021","+6596798021","1.2796868","103.8440099","7RHV+VJ Singapore"
"White Restaurant (VivoCity)","Chinese restaurant","1 HarbourFront Walk, #02-121/122 VivoCity, Singapore 098585","Bukit Merah","1 HarbourFront Walk, #02-121/122 VivoCity","Singapore","098585",,"SG","https://whiterestaurant.com.sg/","+65 6592 0726","+6565920726","1.2635017","103.8227849","7R7F+C4 Singapore"
"Etna Italian Restaurant (Duxton)","Italian restaurant","49/50 Duxton Rd, Singapore 089513","Tanjong Pagar","49/50 Duxton Rd","Singapore","089513",,"SG","http://www.etnaitalianrestaurant.com/","+65 6220 5513","+6562205513","1.2783225","103.8433345","7RHV+88 Singapore"
"KWEE ZEEN","Restaurant","2 Bukit Manis Rd, Sentosa, Singapore 099891","Southern Islands","2 Bukit Manis Rd, Sentosa","Singapore","099891",,"SG","https://restaurantsandbars.accor.com/fr/restaurant/9474_R002?utm_source=google+Maps&utm_medium=seo+maps&utm_campaign=seo+maps&y_source=1_MzkxMDAxMTMtNzE1LWxvY2F0aW9uLndlYnNpdGU%3D","+65 6708 8366","+6567088366","1.2452322","103.827427","6RWG+3X Singapore"
"Pura Brasa Singapore","Spanish restaurant","5 Wallich St, #01-16, Singapore 078883","Chinatown","5 Wallich St, #01-16","Singapore","078883",,"SG","https://www.purabrasa.com/singapore/","+65 6386 9678","+6563869678","1.2766695","103.8462753","7RGW+MG Singapore"
"Syun","Japanese restaurant","8 Sentosa Gateway, Ave8, Singapore 098269","Southern Islands","8 Sentosa Gateway, Ave8","Singapore","098269",,"SG","https://www.rwsentosa.com/en/restaurants/signature-restaurants/syun","+65 6577 6867","+6565776867","1.2556034","103.8198628","7R49+6W Singapore"
"Noodle Place Restaurant","Fusion restaurant","201 Keppel Rd, Singapore 099419","Bukit Merah","201 Keppel Rd","Singapore","099419",,"SG",,"+65 6733 3171","+6567333171","1.265116","103.825666","7R8G+27 Singapore"
"Al Zara Restaurant","Indian Muslim restaurant","104 Jurong E St 13, Singapore 600104","Jurong East","104 Jurong E St 13","Singapore","600104",,"SG",,,,"1.3366371","103.7376509","8PPQ+M3 Singapore"
"Yue Private Dining 悦私宴","Chinese restaurant","1 Gunner Ln, Sentosa, Singapore 099562","Southern Islands","1 Gunner Ln, Sentosa","Singapore","099562",,"SG","http://www.hiddenjoy.com.sg/","+65 8628 6818","+6586286818","1.2523457","103.8218133","7R2C+WP Singapore"
"Sona's Grill Restaurant","North Indian restaurant","12 Gopeng St, #01- 82/83 Icon Village, Singapore 078877","Tanjong Pagar","12 Gopeng St, #01- 82/83 Icon Village","Singapore","078877",,"SG","https://www.sonasgrill.com/","+65 9152 0504","+6591520504","1.2753013","103.8443917","7RGV+4Q Singapore"
"Gravy Restaurant and Bar","Indian restaurant","1 Hoe Chiang Rd, Singapore 089310","Tanjong Pagar","1 Hoe Chiang Rd","Singapore","089310",,"SG","https://www.gravy.sg/","+65 9101 5824","+6591015824","1.2740302","103.8426192","7RFV+J2 Singapore"
"Jang San Korean Restaurant 장산왕족발","Restaurant","1 W Coast Dr, #01-107, Singapore 128020","Clementi","1 W Coast Dr, #01-107","Singapore","128020",,"SG","http://jangsankoreanrestaurant.oddle.me/","+65 8679 4622","+6586794622","1.3171058","103.7571912","8Q84+RV Singapore"
"Chindamani Indian Restaurant Pte Ltd","Indian restaurant","1 Wholesale Centre, #02-11, Singapore 110001","Queenstown","1 Wholesale Centre, #02-11","Singapore","110001",,"SG",,,,"1.2854803","103.7790321","7QPH+5J Singapore"
"Sakunthala's Restaurant - SAFRA Mount Faber","Indian restaurant","2 Telok Blangah Way #01-07 SAFRA, Mount Faber, Singapore 098803","Bukit Merah","2 Telok Blangah Way #01-07 SAFRA, Mount Faber","Singapore","098803",,"SG","https://www.sakunthalas.com/","+65 6261 0314","+6562610314","1.2771481","103.8175278","7RG9+V2 Singapore"
"Chang Lai Ju Seafood BBQ Restaurant","Seafood restaurant","90 Boon Place, Savoy Theatre, Singapore 649884","Jurong West","90 Boon Place, Savoy Theatre","Singapore","649884",,"SG",,"+65 8387 3971","+6583873971","1.3477349","103.711589","8PX6+3J Singapore"
"KNS Restaurant","Indian restaurant","491 Jurong West Ave 1, #01-149 Jurongville@Avenue 1, Singapore 640491","Jurong West","491 Jurong West Ave 1, #01-149 Jurongville@Avenue 1","Singapore","640491",,"SG","https://knsrestaurant.com/","+65 6816 8944","+6568168944","1.3493106","103.7260064","8PXG+PC Singapore"
"The Butcher's Wife","Gluten-free restaurant","19 Yong Siak St, Singapore 168650","Tiong Bahru","19 Yong Siak St","Singapore","168650",,"SG",,"+65 6221 9307","+6562219307","1.2827407","103.8301992","7RMJ+33 Singapore"
"Charlie's Restaurant & Bar (Boat Quay)","Restaurant","32 Boat Quay, Singapore 049821","Central Area","32 Boat Quay","Singapore","049821",,"SG","http://www.charlies.com.sg/","+65 6533 5880","+6565335880","1.2862228","103.8498206","7RPX+FW Singapore"
"Yi Jia Le Wah Chye Seafood Restaurant","Seafood restaurant","546 Jurong West Street 42, Block 546 Block 546, Singapore 640546","Jurong West","546 Jurong West Street 42, Block 546 Block 546","Singapore","640546",,"SG","https://eatbook.sg/jurong-zi-char/","+65 9662 3055","+6596623055","1.3528707","103.7155482","9P38+46 Singapore"
"AHTTI Korean Restaurant","Korean restaurant","2 Venture Dr, #02-43 Vision Exchange, Singapore 608526","Jurong East","2 Venture Dr, #02-43 Vision Exchange","Singapore","608526",,"SG","https://www.instagram.com/ahtti_kr/","+65 6803 9341","+6568039341","1.3300443","103.7446492","8PJV+2V Singapore"
"Bountiful Restaurant","Restaurant","Singapore 100108","Bukit Merah",,"Singapore","100108",,"SG",,"+65 6270 3323","+6562703323","1.2812937","103.8100334","7RJ6+G2 Singapore"
"You Le Tian Seafood Restaurant","Seafood restaurant","498 Jurong West Street 41, Singapore 640498","Jurong West","498 Jurong West Street 41","Singapore","640498",,"SG",,"+65 6564 6589","+6565646589","1.3483795","103.7245017","8PXF+9R Singapore"
"ANJU","Korean restaurant","62 Tras St, Singapore 079001","Chinatown","62 Tras St","Singapore","079001",,"SG","http://anju.com.sg/","+65 6612 1172","+6566121172","1.2778061","103.8442373","7RHV+4M Singapore"
"Ever Dragon Family Restaurant","Family restaurant","24 Bendemeer Rd, #01 541, Singapore 330024","Kallang","24 Bendemeer Rd, #01 541","Singapore","330024",,"SG",,"+65 6295 1929","+6562951929","1.3186613","103.8622377","8V96+FV Singapore"
"KNS Restaurant","Indian Muslim restaurant","346 Jurong East Street 31, #01-73 Yuhua Place, Singapore 600346","Jurong East","346 Jurong East Street 31, #01-73 Yuhua Place","Singapore","600346",,"SG","https://knsrestaurant.com/","+65 8234 5543","+6582345543","1.3454763","103.7306681","8PWJ+57 Singapore"
"Da Luca Italian Restaurant","Italian restaurant","1 Goldhill Plaza, #01-19/21, Singapore 308899","Novena","1 Goldhill Plaza, #01-19/21","Singapore","308899",,"SG",,"+65 6258 4846","+6562584846","1.3180982","103.8426847","8R9V+63 Singapore"
"Himawari Japanese Restaurant","Authentic Japanese restaurant","991B Alexandra Rd, #01-08/09, Singapore 119970","Bukit Merah","991B Alexandra Rd, #01-08/09","Singapore","119970",,"SG","http://www.himawari.com.sg/","+65 6272 1110","+6562721110","1.2738884","103.8033299","7RF3+H8 Singapore"
"Wrap City - North Indian Vegetarian Restaurant","Vegetarian restaurant","2 Venture Dr, #02-31 Vision Exchange, Singapore 608526","Jurong East","2 Venture Dr, #02-31 Vision Exchange","Singapore","608526",,"SG","https://wrapcity.com.sg/","+65 6980 6648","+6569806648","1.3300614","103.7449496","8PJV+2X Singapore"
"KFC","Fast food restaurant","301 Upper Thomson Rd, #02-27/28/29 Thomson Plaza, Singapore 574408","Bishan","301 Upper Thomson Rd, #02-27/28/29 Thomson Plaza","Singapore","574408",,"SG","https://www.kfc.com.sg/","+65 6456 9816","+6564569816","1.354538","103.8313048","9R3J+RG Singapore"
"Cui Xiang Yuan Restaurant 翠香园餐馆","Chinese restaurant","BLK.61 Telok Blangah Heights, #01-121, Singapore 100061","Bukit Merah","BLK.61 Telok Blangah Heights, #01-121","Singapore","100061",,"SG",,,,"1.2755888","103.8125047","7RG7+62 Singapore"
"Pixy Restaurant & Bar","Restaurant","16 Mohamed Sultan Rd, Singapore 238965","Central Area","16 Mohamed Sultan Rd","Singapore","238965",,"SG","https://www.pixycuisine.com/","+65 9171 7682","+6591717682","1.293631","103.8414711","7RVR+FH Singapore"
"Sushi Take-Out","Sushi takeaway","490 Lor 6 Toa Payoh, #01-22 HDB Hub, Singapore 310490","Toa Payoh","490 Lor 6 Toa Payoh, #01-22 HDB Hub","Singapore","310490",,"SG","http://www.sushiexpress.com.sg/menu/sushitakeout","+65 6592 7404","+6565927404","1.3325736","103.8484186","8RMX+29 Singapore"
"NAYANA Kpop Cafe & Restaurant@Poiz, Central Singapore, nice late supper Korean food, indoor pet friendly, vegetarian options","Korean restaurant","51 Upper Serangoon Rd, #01-28 Poiz Center, Singapore 347697","Toa Payoh","51 Upper Serangoon Rd, #01-28 Poiz Center","Singapore","347697",,"SG","http://www.yuppylicious.com/","+65 6281 0339","+6562810339","1.3318825","103.8683014","8VJ9+Q8 Singapore"
"Miyabi Japanese Restaurant","Restaurant","1 Plymouth Ave, Level 2 Raffles Town Club, Singapore 297753","Novena","1 Plymouth Ave, Level 2 Raffles Town Club","Singapore","297753",,"SG","https://www.rafflestownclub.com.sg/miyabi-japanese-restaurant","+65 6357 3335","+6563573335","1.3219317","103.8245858","8RCF+QR Singapore"
"McDonald's Toa Payoh SAFRA","Hamburger restaurant","293 Lorong 6 Toa Payoh #01-02, SAFRA, Club. Singapore, Singapore 319387","Toa Payoh","293 Lorong 6 Toa Payoh #01-02, SAFRA, Club. Singapore","Singapore","319387",,"SG","https://www.mcdonalds.com.sg/","+65 6777 3777","+6567773777","1.3308789","103.854495","8VJ3+9Q Singapore"
"McDonald's Toa Payoh Central","Hamburger restaurant","600 Lor 4 Toa Payoh, #01-02, Singapore 319515","600@Toa Payoh","600 Lor 4 Toa Payoh, #01-02","Singapore","319515",,"SG","https://www.mcdonalds.com.sg/","+65 6777 3777","+6567773777","1.3340561","103.8509709","8VM2+J9 Singapore"
"Sin Ming Roti Prata Faisal & Aziz Curry Muslim Food","Indian Muslim restaurant","24 Sin Ming Rd, #01-51, Singapore 570024","Bishan","24 Sin Ming Rd, #01-51","Singapore","570024",,"SG","https://m.facebook.com/pages/Sin-Ming-Roti-Prata/1596758203751915","+65 6453 3893","+6564533893","1.3553371","103.8363514","9R4P+4G Singapore"
"Al Borgo Italian Restaurant","Italian restaurant","383 Bukit Timah Rd, #01-02, Singapore 259727","Tanglin","383 Bukit Timah Rd, #01-02","Singapore","259727",,"SG","http://www.alborgo.asia/","+65 9772 1680","+6597721680","1.319502","103.8275459","8R9H+R2 Singapore"
"Ariff's Restaurant","Indian restaurant","253 Serangoon Central Dr, S 550254","Serangoon","253 Serangoon Central Dr","S","550254",,"SG",,,,"1.3536647","103.871005","9V3C+FC Singapore"
"Al Fatthah Food Expo Restaurant","Restaurant","177 Toa Payoh Central, #01-102, Singapore 310177","Toa Payoh","177 Toa Payoh Central, #01-102","Singapore","310177",,"SG",,,,"1.3338853","103.8487182","8RMX+HF Singapore"
"The Café & Terrace Restaurant","Fusion restaurant","1 Plymouth Ave, Level 2 Raffles Town Club, Singapore 297753","Novena","1 Plymouth Ave, Level 2 Raffles Town Club","Singapore","297753",,"SG","https://www.rafflestownclub.com.sg/cafe-terrace","+65 6357 3332","+6563573332","1.3217087","103.8253106","8RCG+M4 Singapore"
"Ameeda Indian Muslim Food","Indian Muslim restaurant","203A Toa Payoh N, Block 203, Singapore 311203","Toa Payoh","203A Toa Payoh N, Block 203","Singapore","311203",,"SG",,,,"1.3420685","103.8491162","8RRX+RJ Singapore"
"Cheese Story Mookata Buffet","Thai restaurant","31 Ah Hood Rd, #01-07, Singapore 329979","Novena","31 Ah Hood Rd, #01-07","Singapore","329979",,"SG","https://m.facebook.com/CheeseStoryMookata/?locale2=zh_CN","+65 8678 7876","+6586787876","1.3288708","103.848864","8RHX+GG Singapore"
"Nam Kee Chicken Rice Restaurant","Chicken restaurant","201 Upper Thomson Rd, Singapore 574343","Bishan","201 Upper Thomson Rd","Singapore","574343",,"SG","https://namkeechickenricerestaurant.oddle.me/en_SG","+65 9637 9168","+6596379168","1.3519271","103.8352298","9R2P+Q3 Singapore"
"BerryGood Restaurant","Restaurant","47 Lor 6 Toa Payoh, #01-140 Block 47, Singapore 310047","Toa Payoh","47 Lor 6 Toa Payoh, #01-140 Block 47","Singapore","310047",,"SG","https://berrygood.sg/",,,"1.33692","103.854051","8VP3+QJ Singapore"
"Otou-San Hokkaido Donburi","Japanese restaurant","20 Ah Hood Rd, #01-12 Zhongshan Mall, Singapore 329984","Novena","20 Ah Hood Rd, #01-12 Zhongshan Mall","Singapore","329984",,"SG","https://order.otousan.com.sg/","+65 9768 8330","+6597688330","1.3270618","103.8464431","8RGW+RH Singapore"
"Al Hadheerah Restaurant (HDB Hub)","Halal restaurant","480 Lor 6 Toa Payoh, #B1- 01, Singapore 310480","Toa Payoh","480 Lor 6 Toa Payoh, #B1- 01","Singapore","310480",,"SG",,"+65 8552 2899","+6585522899","1.332286","103.8483712","8RJX+W8 Singapore"
"A-Roy Thai Restaurant","Thai restaurant","Singapore, Thomson Rd, 238号Novena Square#03-61/64 邮政编码: 307683","Novena","Thomson Rd, 238号Novena Square#03-61/64","Velocity","307683",,"SG","http://www.aroythai.com.sg/","+65 6338 3880","+6563383880","1.3199572","103.8439076","8R9V+XH Singapore"
"Fireside","Restaurant","31 Ocean Way, #01 - 15, Singapore 098375","Southern Islands","31 Ocean Way, #01 - 15","Singapore","098375",,"SG","/url?q=https://www.fireside.sg/&opi=79508299&sa=U&ved=0ahUKEwj00sWEneKEAxUxSTABHZHTD6MQ61gIGigQ&usg=AOvVaw0dF57DqXEWLIDU2K_x4RPk","+65 8181 6200","+6581816200","1.2466488","103.8421639","6RWR+MV Singapore"
"Osia Steak and Seafood Grill","Modern Australian restaurant","8 Sentosa Gateway Ave8, #02-140 & 141, Singapore 098269","Southern Islands","8 Sentosa Gateway Ave8, #02-140 & 141","Singapore","098269",,"SG","/url?q=https://www.rwsentosa.com/en/restaurants/signature-restaurants/osia-steak-and-seafood-grill&opi=79508299&sa=U&ved=0ahUKEwjl8ayCneKEAxWgRjABHZubBz8Q61gIGCgO&usg=AOvVaw3YUatFUxO0s_zFso7BM35Q","+65 6577 6560","+6565776560","1.2556523","103.8198928","7R49+7X Singapore"
"Rock Bar Burger & Steakhouse","Family restaurant","31 Ocean Way, #01 - 06, Singapore 098375","Southern Islands","31 Ocean Way, #01 - 06","Singapore","098375",,"SG","/url?q=https://www.rockbarburgersteakhouse.sg/&opi=79508299&sa=U&ved=0ahUKEwi89dKJneKEAxV5RzABHUyCDDYQ61gIGigQ&usg=AOvVaw0ag9sDQsciIARAndQOsot9","+65 6694 0994","+6566940994","1.2474301","103.8422111","6RWR+XV Singapore"
"WOK°15 Kitchen","Restaurant","#01-01 11 Cove Drive, Sentosa Cove, Singapore 098497","Southern Islands","#01-01 11 Cove Drive, Sentosa Cove","Singapore","098497",,"SG","/url?q=https://one15marina.com/dining/wok-15-kitchen/&opi=79508299&sa=U&ved=0ahUKEwiq0N6HneKEAxVjRDABHWh2BnMQ61gIGCgO&usg=AOvVaw2ApAevewXlmSqSW0kO6Tlc","+65 6305 6998","+6563056998","1.2458306","103.8398907","6RWQ+8X Singapore"
"Blue Lotus Singapore (Chinese Eating House)","Chinese restaurant","31 Ocean Way, #01 - 13 Quayside Isle, Singapore 098375","Southern Islands","31 Ocean Way, #01 - 13 Quayside Isle","Singapore","098375",,"SG","/url?q=http://www.bluelotus.com.sg/&opi=79508299&sa=U&ved=0ahUKEwj5rLuLneKEAxU7gIQIHZs3A3cQ61gIHSgS&usg=AOvVaw2lhvN46ygi3foi2DRRdpzG","+65 9781 1663","+6597811663","1.246831","103.8421169","6RWR+PR Singapore"
"the kitchen table","Restaurant","21 Ocean Way, Sentosa, Singapore 098374","Southern Islands","21 Ocean Way, Sentosa","Singapore","098374",,"SG","/url?q=https://www.thekitchentable.sg/&opi=79508299&sa=U&ved=0ahUKEwiF3-uXneKEAxWzSDABHTfLCqcQ61gIGigQ&usg=AOvVaw3GSD_DEqS34-XU7EddAixj","+65 6808 7268","+6568087268","1.2462291","103.8418629","6RWR+FP Singapore"
"Buddy Hoagies Steak & Grill Restaurant (Bedok)","Western restaurant","11 Bedok North Street 1, #01-27 Heartbeat @ Bedok, Singapore 469662","Bedok","11 Bedok North Street 1, #01-27 Heartbeat @ Bedok","Singapore","469662",,"SG","/url?q=http://www.buddyhoagies.com.sg/&opi=79508299&sa=U&ved=0ahUKEwi2t6CdneKEAxUhk4QIHVD3DXgQ61gIHSgS&usg=AOvVaw0UXu4-Os_UDNrYnLiqb0HK","+65 6282 8850","+6562828850","1.3265956","103.9317131","8WGJ+JM Singapore"
"SKIRT Restaurant","Steak house","21 Ocean Way, Singapore 098374","Southern Islands","21 Ocean Way","Singapore","098374",,"SG","/url?q=https://www.skirt.sg/&opi=79508299&sa=U&ved=0ahUKEwjqxKudneKEAxU3ibAFHQqBCbAQ61gIGSgO&usg=AOvVaw2DkwLECnlnV1P6SzajjZPb","+65 6808 7278","+6568087278","1.2461984","103.8423677","6RWR+FW Singapore"
"Quayside Isle","Restaurant","31 Ocean Way, Singapore 098375","Southern Islands","31 Ocean Way","Singapore","098375",,"SG","/url?q=http://www.quaysideisle.com/&opi=79508299&sa=U&ved=0ahUKEwiU3bedneKEAxVhTjABHcBOAdYQ61gIGCgO&usg=AOvVaw38IINFH3Se65h2CL_Uktyu","+65 6887 3502","+6568873502","1.2476808","103.8420723","6RXR+3R Singapore"
"Two Chefs Bar","Restaurant","31 Ocean Way, # 01 - 11 Quayside Isle, Singapore 098375","Southern Islands","31 Ocean Way, # 01 - 11 Quayside Isle","Singapore","098375",,"SG","/url?q=http://www.twochefsbar.com.sg/contact-us&opi=79508299&sa=U&ved=0ahUKEwiv376dneKEAxW5RjABHVVvDSMQ61gIHCgS&usg=AOvVaw0k_7bTbIqM0Y4tCoxiGc8J","+65 6268 8633","+6562688633","1.246958","103.8421961","6RWR+QV Singapore"
"TAG Restaurant & Bar","Restaurant","1 Expo Dr, #01-32, Singapore 486150","Tampines","1 Expo Dr, #01-32","Singapore","486150",,"SG","/url?q=http://tagrestaurantandbar.com/&opi=79508299&sa=U&ved=0ahUKEwjlv8idneKEAxUNsoQIHUX9BrUQ61gIGigQ&usg=AOvVaw3_QNE_5fRozmewGSKWkf-a","+65 8111 8846","+6581118846","1.3335851","103.9588795","8XM5+CH Singapore"
"THE CLIFF","Italian restaurant","2 Bukit Manis Rd, Sentosa, Singapore 099891","Southern Islands","2 Bukit Manis Rd, Sentosa","Singapore","099891",,"SG","/url?q=https://restaurantsandbars.accor.com/fr/restaurant/9474_R004%3Futm_source%3Dgoogle%2BMaps%26utm_medium%3Dseo%2Bmaps%26utm_campaign%3Dseo%2Bmaps%26y_source%3D1_MzkxMDAxMTQtNzE1LWxvY2F0aW9uLndlYnNpdGU%253D&opi=79508299&sa=U&ved=0ahUKEwifhNedneKEAxXqv4kEHfbOBs8Q61gIHCgQ&usg=AOvVaw1H3ZqZH7Vr4s3JUHRnLtF9","+65 6708 8360","+6567088360","1.2457724","103.8267834","6RWG+8P Singapore"
"Saffrons @ 201D","Halal restaurant","201D Tampines St. 21, #01-1163, Singapore 524201","Tampines","201D Tampines St. 21, #01-1163","Singapore","524201",,"SG","/url?q=http://www.saffrons.com.sg/&opi=79508299&sa=U&ved=0ahUKEwj1v-6dneKEAxVOjokEHe_8AWIQ61gIHCgQ&usg=AOvVaw00F8vRaRukQNpVHy0Fm6lA","+65 9272 6361","+6592726361","1.3521765","103.953656","9X23+VF Singapore"
"Gin Khao Bistro","Thai restaurant","31 Ocean Way, #01-12 Quayside Isle, Singapore 098375","Southern Islands","31 Ocean Way, #01-12 Quayside Isle","Singapore","098375",,"SG","/url?q=http://www.ginkhao.com.sg/&opi=79508299&sa=U&ved=0ahUKEwjf3dSdneKEAxWDjYkEHeBiA7AQ61gIHCgS&usg=AOvVaw1yplJrkc0ALQ7jhx1VQFU2","+65 6570 2208","+6565702208","1.2468982","103.8421771","6RWR+QV Singapore"
"Cassia","Chinese restaurant","1 The Knolls, Sentosa Island, Singapore 098297","Southern Islands","1 The Knolls, Sentosa Island","Singapore","098297",,"SG","/url?q=https://www.capellahotels.com/en/capella-singapore/dining/cassia%3Futm_source%3Dlocal%26utm_campaign%3Dgmb%26utm_medium%3Dorganic&opi=79508299&sa=U&ved=0ahUKEwio4fGdneKEAxVYlIkEHTSBAhwQ61gIGigQ&usg=AOvVaw3NMlA8ke-XIuKBYj6T_FXq","+65 6591 5045","+6565915045","1.2494479","103.82444","6RXF+QQ Singapore"
"Fiamma","Italian restaurant","1 The Knolls, Singapore 098297","Southern Islands","1 The Knolls","Singapore","098297",,"SG","https://capellahotels.com/en/capella-singapore/dining/fiamma","+65 6591 5046","+6565915046","1.2492482","103.8244513","6RXF+MQ Singapore"
"Dil'B Restaurant","Restaurant","1 Changi Village Rd, #01-2026, Singapore 500001","Changi","1 Changi Village Rd, #01-2026","Singapore","500001",,"SG","/url?q=https://m.facebook.com/dilbrestaurant/&opi=79508299&sa=U&ved=0ahUKEwiJ16aineKEAxUITTABHeI6BzAQ61gIGygQ&usg=AOvVaw3i9PFCJikyzZZVtktlWV2c","+65 6543 3508","+6565433508","1.3885559","103.9876144","9XQQ+C2 Singapore"
"Angu Vilas Vegetarian Restaurant","Vegetarian restaurant","JURONG GATEWAY ROAD Jurong East Bus Interchange #01-09, Singapore 608513","Jurong East","JURONG GATEWAY ROAD Jurong East Bus Interchange #01-09","Singapore","608513",,"SG",,,,"1.3317336","103.7411977","8PJR+MF Singapore"
"AL AFINA RESTAURANT","Restaurant","501 A Changi Coast Rd, #01 01, Singapore 499974","Changi","501 A Changi Coast Rd, #01 01","Singapore","499974",,"SG",,"+65 9146 2849","+6591462849","1.3717618","104.0043048","92C3+PP Singapore"
"Tekong Seafood Restaurant","Seafood restaurant","6 Changi Village Rd, Singapore 509907","Changi","6 Changi Village Rd","Singapore","509907",,"SG","/url?q=http://tekongseafood.com/&opi=79508299&sa=U&ved=0ahUKEwil9tCvneKEAxXfvokEHbhUBnMQ61gIGCgO&usg=AOvVaw2ts63q_sxD9Isfzy8JwTDH","+65 6542 8923","+6565428923","1.3899702","103.9888703","9XQQ+XG Singapore"
"White Restaurant (Jewel)","Chinese restaurant","78 Airport Blvd., #B1-245/246, Singapore 819666","Changi","78 Airport Blvd., #B1-245/246","Singapore","819666",,"SG","/url?q=https://whiterestaurant.com.sg/&opi=79508299&sa=U&ved=0ahUKEwjJh-yvneKEAxWZQjABHXvGArgQ61gIGygQ&usg=AOvVaw3jlCBN_2jKsDH3RnmLBG0n","+65 6904 2202","+6569042202","1.3603279","103.9895173","9X6Q+4R Singapore"
"Garden View Restaurant","Chinese restaurant","25 Changi Coast Rd, Singapore 499803","Tampines","25 Changi Coast Rd","Singapore","499803",,"SG","/url?q=http://www.tmcc.org.sg/fb-outlets/&opi=79508299&sa=U&ved=0ahUKEwjvy56wneKEAxWBfTABHQEeAgQQ61gIGCgO&usg=AOvVaw2YQSHNSqFaPcEQwdSOmKtq","+65 6545 2891","+6565452891","1.3292506","103.9796745","8XHH+PV Singapore"
"Porta Porta Italian Restaurant","Italian restaurant","No. 32 Jln Pari Burong, Singapore 488698","Bedok","No. 32 Jln Pari Burong","Singapore","488698",,"SG","/url?q=http://portaportaitalianrestaurant.com.sg/&opi=79508299&sa=U&ved=0ahUKEwiqv9GvneKEAxX6kIkEHQ7cDeEQ61gIGigO&usg=AOvVaw1GA2dBk9uzv7pPi8NeqxCc","+65 6545 3108","+6565453108","1.3337758","103.9489059","8WMX+GH Singapore"
"Aashiq Restaurant","Indian Muslim restaurant","326 Jurong East Street 31, Singapore 600326","Jurong East","326 Jurong East Street 31","Singapore","600326",,"SG","/url?q=https://www.facebook.com/pages/Aashiq-Restaurant-Pte-Ltd/220112818183722&opi=79508299&sa=U&ved=0ahUKEwj4ota4neKEAxVPEmIAHepRC_cQ61gIGCgO&usg=AOvVaw3xdcwsyIG85evHwxqNIxNg","+65 9885 9917","+6598859917","1.3489432","103.729595","8PXH+HR Singapore"
"Sankranti Restaurant","Indian restaurant","Level3, 78 Airport Blvd., #03-229 03-229, Singapore 819666","Changi","Level3, 78 Airport Blvd., #03-229 03-229","Singapore","819666",,"SG","/url?q=http://www.sankrantihotels.com/&opi=79508299&sa=U&ved=0ahUKEwiXqJavneKEAxWmrokEHVPMA3YQ61gIHCgS&usg=AOvVaw1fFrSkNUt3ESq181NHf09z","+65 6376 4252","+6563764252","1.3598217","103.9900239","9X5R+W2 Singapore"
"TONITO Latin American Kitchen @ Jewel","Latin American restaurant","78 Airport Blvd., #02 - 248, Singapore 819666","Changi","78 Airport Blvd., #02 - 248","Singapore","819666",,"SG","/url?q=http://tonito.sg/&opi=79508299&sa=U&ved=0ahUKEwjLjs2vneKEAxWkmYkEHWnzAJ4Q61gIGigQ&usg=AOvVaw32RKul4AfFz_v5dzupJUfr","+65 6904 3975","+6569043975","1.3597805","103.9898647","9X5Q+WW Singapore"
"Melben Seafood Restaurant - Depot Lane","Seafood restaurant","118 Depot Ln, Singapore 109754","Bukit Merah","118 Depot Ln","Singapore","109754",,"SG","http://www.melbenseafood.sg/","+65 9810 7063","+6598107063","1.2816199","103.812796","7RJ7+J4 Singapore"
"Pearl Garden Restaurant","Chinese restaurant","333 Boon Lay Wy, #3A-02 SAFRA Jurong, Singapore 649848","Jurong West","333 Boon Lay Wy, #3A-02 SAFRA Jurong","Singapore","649848",,"SG","/url?q=https://www.qianxi.com.sg/pearlgardenrestaurant&opi=79508299&sa=U&ved=0ahUKEwj5oYK0neKEAxVuvokEHWOIA5IQ61gIHCgS&usg=AOvVaw3lLCwOySiY15R2M_sm7_BD","+65 6316 9595","+6563169595","1.3349001","103.7062661","8PM4+XG Singapore"
"Din Tai Fung","Taiwanese restaurant","63 Jurong West Central 3, Singapore 648331","Jurong West","63 Jurong West Central 3","Singapore","648331",,"SG","/url?q=http://www.dintaifung.com.sg/&opi=79508299&sa=U&ved=0ahUKEwjDpvGyneKEAxUJCnkGHez8AEYQ61gIGSgO&usg=AOvVaw0IkVqHhO2BNJUgS-2BmD7_","+65 6861 1811","+6568611811","1.3390568","103.7057767","8PQ4+J8 Singapore"
"Dungeon by IL Fiore","Restaurant","30 Raffles Pl, #01-16/17 CIMB Plaza, Singapore 048622","Central Area","30 Raffles Pl, #01-16/17 CIMB Plaza","Singapore","048622",,"SG","https://www.facebook.com/IL-Fiore-Restaurant-Bar-100557263381342/","+65 6223 3551","+6562233551","1.2841089","103.852015","7VM2+JR Singapore"
"Hoodadak Korean Restaurant 후다닥 한국 음식점","Korean restaurant","1 Fusionopolis Pl, #01-10 Galaxis, Singapore 138522","Queenstown","1 Fusionopolis Pl, #01-10 Galaxis","Singapore","138522",,"SG","https://m.facebook.com/pages/Hoodadak-Korean-Fusion-Dining-Room-at-Fusionopolis/959580834119544","+65 6320 3477","+6563203477","1.2995285","103.7882033","7QXQ+R7 Singapore"
"Man Tak Kei Restaurant 文德记美味小炒","Chinese restaurant","Singapore, Bukit Merah Central, 161号, 宝利咖啡店, #01-3749 邮政编码: 150161","Bukit Merah","Bukit Merah Central, 161号, 宝利咖啡店, #01-3749","Singapore","150161",,"SG",,"+65 8027 9179","+6580279179","1.283332","103.8156882","7RM8+87 Singapore"
"Anjappar Chettinad Restaurant","Indian restaurant","321 Clementi Ave 3, Singapore 129905","Clementi","321 Clementi Ave 3","Singapore","129905",,"SG","http://anjappar.com.sg/","+65 6970 5545","+6569705545","1.3119161","103.7651527","8Q68+Q3 Singapore"
"Ayza’s Restaurant","Halal restaurant","508 Jurong West Street 52, Singapore 640508","Jurong West","508 Jurong West Street 52","Singapore","640508",,"SG","http://ayzasrestaurantpteltd.com/","+65 6756 4963","+6567564963","1.3487191","103.7187866","8PX9+FG Singapore"
"TINTO Spanish Restaurant Sg","Spanish restaurant","10 Dempsey Rd, #01-21, Singapore 247700","Tanglin","10 Dempsey Rd, #01-21","Singapore","247700",,"SG","https://tinto.sg/","+65 9729 5002","+6597295002","1.3033447","103.8104234","8R36+85 Singapore"
"OPIO Kitchen & Bar","Western restaurant","991B Alexandra Rd, Singapore 119970","Bukit Merah","991B Alexandra Rd","Singapore","119970",,"SG","https://www.bluelotus.com.sg/opio-kitchen-bar","+65 9171 1390","+6591711390","1.2738095","103.8033931","7RF3+G9 Singapore"
"Beng Hiang Restaurant","Chinese restaurant","135 Jurong Gateway Rd, #02-337, Singapore 600135","Jurong East","135 Jurong Gateway Rd, #02-337","Singapore","600135",,"SG","https://www.benghiang.com/","+65 6221 6695","+6562216695","1.3338882","103.7404073","8PMR+H5 Singapore"
"Al Afrida Restaurant","Indian Muslim restaurant","66 Yung Kuang Rd, #01-89/91, Singapore 610065","Jurong West","66 Yung Kuang Rd, #01-89/91","Singapore","610065",,"SG",,"+65 9087 9207","+6590879207","1.3320819","103.7229246","8PJF+R5 Singapore"
"White Restaurant (IMM)","Chinese restaurant","2 Jurong East Street 21, #02-24 IMM Building, Singapore 609601","Jurong East","2 Jurong East Street 21, #02-24 IMM Building","Singapore","609601",,"SG","https://whiterestaurant.com.sg/","+65 6264 2002","+6562642002","1.3354005","103.7464978","8PPW+5H Singapore"
"Al-Azhar Restaurant","Indian Muslim restaurant","11 Cheong Chin Nam Rd, Singapore 599736","Bukit Timah","11 Cheong Chin Nam Rd","Singapore","599736",,"SG","https://www.al-azhar.com/","+65 6466 5052","+6564665052","1.3429208","103.7751758","8QVG+53 Singapore"
"Restaurant Chamolean","Brunch restaurant","590 Balestier Rd, Singapore 329900","Novena","590 Balestier Rd","Singapore","329900",,"SG",,,,"1.3266683","103.8428506","8RGV+M4 Singapore"
"Soup Restaurant @ Holland Village","Cantonese restaurant","118 Holland Ave, #01-02 Raffles Medical, Singapore 278997","Holland Village","118 Holland Ave, #01-02 Raffles Medical","Singapore","278997",,"SG","http://www.souprestaurant.com.sg/","+65 6352 6606","+6563526606","1.3105313","103.7961337","8Q6W+6F Singapore"
"Suki-Suki Hotpot @ SAFRA Toa Payoh","Hot pot restaurant","293 Lor 6 Toa Payoh, #01-04, Singapore 319387","Toa Payoh","293 Lor 6 Toa Payoh, #01-04","Singapore","319387",,"SG","http://www.suki-sukithai.com.sg/","+65 3125 2769","+6531252769","1.3305088","103.8547586","8VJ3+6W Singapore"
"ABC MAJU RESTAURANT","Indian Muslim restaurant","230 Balestier Rd, Singapore 329692","Novena","230 Balestier Rd","Singapore","329692",,"SG","https://food.grab.com/sg/en/restaurant/abc-maju-restaurant-pte-ltd-balestier-road-delivery/4-C2BCGBKZRBCVWE","+65 6898 1786","+6568981786","1.3215139","103.8530571","8VC3+J6 Singapore"
"Hong Kong Street Restaurant (Novena)","Family restaurant","273 Thomson Rd, #01-01, Singapore 307644","Novena","273 Thomson Rd, #01-01","Singapore","307644",,"SG","https://hkstreetrestaurant.com.sg/","+65 6252 3132","+6562523132","1.3203791","103.8420799","8RCR+5R Singapore"
"Swensen's @ Junction 8","American restaurant","9 Bishan Pl, #01-39 Junction 8, Singapore 579837","Bishan","9 Bishan Pl, #01-39 Junction 8","Singapore","579837",,"SG","http://www.swensens.com.sg/","+65 6252 6229","+6562526229","1.3509666","103.8486057","9R2X+9C Singapore"
"126 Dim Sum Wen Dao Shi 揾到食 @ Boon Keng","Dim sum restaurant","1086 Serangoon Rd, #1086, Singapore 328187","Kallang","1086 Serangoon Rd, #1086","Singapore","328187",,"SG","http://126.com.sg/","+65 6297 5032","+6562975032","1.3236682","103.8649248","8VF7+FX Singapore"
"Ser Seng Herbs (Turtle) Restaurant","Singaporean restaurant","39 Tai Thong Cres, Singapore 347863","Toa Payoh","39 Tai Thong Cres","Singapore","347863",,"SG","https://sersengturtlesoup.com/","+65 6287 6341","+6562876341","1.3285916","103.8699059","8VH9+CX Singapore"
"Global Restaurant & Catering Pte Ltd Bangladeshi Food","Restaurant","33 Opal Cres, Singapore 328424","Kallang","33 Opal Cres","Singapore","328424",,"SG",,,,"1.3276526","103.8664007","8VH8+3H Singapore"
"Kizuna","Cafe","148 Potong Pasir Ave 1, #01-37, Singapore 350148","Toa Payoh","148 Potong Pasir Ave 1, #01-37","Singapore","350148",,"SG","https://www.instagram.com/kizunasg/","+65 8921 3124","+6589213124","1.3326102","103.8676747","8VM9+23 Singapore"
"21 On Rajah","Mediterranean restaurant","1 Jln Rajah, Aloft Singapore East Wing, Singapore 329133","Novena","1 Jln Rajah, Aloft Singapore East Wing","Singapore","329133",,"SG","http://www.21onrajah.com/","+65 6808 6847","+6568086847","1.3270478","103.847462","8RGW+RX Singapore"
"McDonald's Bishan Junction 8","Fast food restaurant","9 Bishan Pl, #01-20 Junction 8, Singapore 579837","Bishan","9 Bishan Pl, #01-20 Junction 8","Singapore","579837",,"SG","https://www.mcdonalds.com.sg/","+65 6777 3777","+6567773777","1.3502609","103.8484718","9R2X+49 Singapore"
"Siam Square Mookata - Best Mookata Restaurant in Singapore","Thai restaurant","232 Upper Thomson Rd, Singapore 574363","Bishan","232 Upper Thomson Rd","Singapore","574363",,"SG","https://siamsquaremookata.com.sg/","+65 8119 6664","+6581196664","1.3530486","103.8350584","9R3P+62 Singapore"
"McDonald's Toa Payoh Lorong","Hamburger restaurant","Blk 109 Lor 1 Toa Payoh, #01-318, Singapore 310109","Toa Payoh","Blk 109 Lor 1 Toa Payoh, #01-318","Singapore","310109",,"SG","https://www.mcdonalds.com.sg/","+65 6777 3777","+6567773777","1.3412056","103.8463972","8RRW+FH Singapore"
"Ariff's Restaurant","Indian restaurant","71 Kallang Bahru, Singapore 330071","Kallang","71 Kallang Bahru","Singapore","330071",,"SG",,"+65 6297 1024","+6562971024","1.3207925","103.8703127","8VCC+84 Singapore"
"Jin Huan Seafood Restaurant","Restaurant","220 Upper Thomson Rd, Singapore 574352","Bishan","220 Upper Thomson Rd","Singapore","574352",,"SG",,"+65 6554 0363","+6565540363","1.3529122","103.8353478","9R3P+54 Singapore"
"Lai Wah Restaurant","Cantonese restaurant","44 Bendemeer Rd, #01-1436, Singapore 330044","Kallang","44 Bendemeer Rd, #01-1436","Singapore","330044",,"SG","http://www.laiwahrestaurant.com/","+65 6294 9922","+6562949922","1.3218041","103.8664067","8VC8+PH Singapore"
"KFC Junction 8","Fast food restaurant","9 Bishan Pl, #01-21 Junction 8, Singapore 579837","Bishan","9 Bishan Pl, #01-21 Junction 8","Singapore","579837",,"SG","https://www.kfc.com.sg/Location/Search","+65 6353 6360","+6563536360","1.3503451","103.8484944","9R2X+49 Singapore"
"川羊记马里士他店 Chuan Yang Ji Balestier Outlet","Chinese restaurant","432 Balestier Rd, #01-434 Public Mansion, Singapore 329813","Novena","432 Balestier Rd, #01-434 Public Mansion","Singapore","329813",,"SG","http://www.chuanyangji.com/","+65 6358 4188","+6563584188","1.3263017","103.8487202","8RGX+GF Singapore"
"Yoshinoya - Junction 8","Gyudon restaurant","9 Bishan Pl, #01-49, Singapore 579837","Bishan","9 Bishan Pl, #01-49","Singapore","579837",,"SG","http://yoshinoya.com.sg/","+65 6272 1866","+6562721866","1.3510265","103.848631","9R2X+CF Singapore"
"Good Bites","Cafe","5 Bishan St 14, #03-01, Singapore 579783","Bishan","5 Bishan St 14, #03-01","Singapore","579783",,"SG","https://www.goodbites.com.sg/","+65 6970 0233","+6569700233","1.3555789","103.8513296","9V42+6G Singapore"
"Al Sahira Restaurant","Restaurant","Serangoon Ave 2, Block 301, Singapore 550301","Serangoon","Serangoon Ave 2, Block 301","Singapore","550301",,"SG",,"+65 6015 0492","+6560150492","1.3533594","103.867671","9V39+83 Singapore"
"Zeenath Islamic Restaurant","Restaurant","271 Balestier Rd, Singapore 329722","Novena","271 Balestier Rd","Singapore","329722",,"SG",,,,"1.3224653","103.8526411","8VC3+X3 Singapore"
"Tsukada Nojo - Thomson Plaza","Restaurant","301 Upper Thomson Rd, #03-50 Thomson Plaza, Singapore 574408","Bishan","301 Upper Thomson Rd, #03-50 Thomson Plaza","Singapore","574408",,"SG","https://www.tsukadanojosg.com/","+65 6261 4952","+6562614952","1.3548908","103.8304626","9R3J+X5 Singapore"
"Restaurant Euphoria","Restaurant","76 Tras St, Singapore 079015","Chinatown","76 Tras St","Singapore","079015",,"SG","https://restaurant-euphoria.com/",,,"1.2774708","103.8441306","7RGV+XM Singapore"
"Genki Sushi Junction 8","Conveyor belt sushi restaurant","9 Bishan Pl, #01-22/30 Junction 8, Singapore 579837","Bishan","9 Bishan Pl, #01-22/30 Junction 8","Singapore","579837",,"SG","http://www.genkisushi.com.sg/","+65 6816 2151","+6568162151","1.35042","103.8484979","9R2X+59 Singapore"
"Zi Yean Restaurant","Cantonese restaurant","56 Lengkok Bahru, #01-443, Singapore 150056","Bukit Merah","56 Lengkok Bahru, #01-443","Singapore","150056",,"SG","https://ziyean.oddle.me/","+65 6474 0911","+6564740911","1.2879413","103.8143642","7RQ7+5P Singapore"
"IKEA Alexandra Restaurant","Swedish restaurant","317 Alexandra Rd, Level 1, Singapore 159965","Bukit Merah","317 Alexandra Rd, Level 1","Singapore","159965",,"SG","https://www.ikea.com/sg/en/store/alexandra/","+65 6786 6868","+6567866868","1.2883325","103.8058663","7RQ4+88 Singapore"
"Kelly Jie Seafood (TPY Mellben Seafood) 龍海鲜螃蟹王","Seafood restaurant","211 Lor 8 Toa Payoh, #01-11/15 Block 211, Singapore 310211","Toa Payoh","211 Lor 8 Toa Payoh, #01-11/15 Block 211","Singapore","310211",,"SG","http://www.kellyjie.sg/","+65 6353 3120","+6563533120","1.340401","103.853753","8VR3+5G Singapore"
"Jubilee Garden Restaurant","Chinese restaurant","293 Lor 6 Toa Payoh, #03-01 SAFRA, Singapore 319387","Toa Payoh","293 Lor 6 Toa Payoh, #03-01 SAFRA","Singapore","319387",,"SG","https://www.qianxi.com.sg/jubileegardenrestaurant","+65 6250 4477","+6562504477","1.3301113","103.8544961","8VJ3+2Q Singapore"
"Cha Cha Cha Mexican Restaurant","Mexican restaurant","32 Lor Mambong, Singapore 277690","Bukit Timah","32 Lor Mambong","Singapore","277690",,"SG",,"+65 6462 1650","+6564621650","1.3117599","103.7946859","8Q6V+PV Singapore"
"Summer Yakitori","Japanese restaurant","1 Jln Rajah, #01-01 ZhongShan Park, Singapore 329133","Novena","1 Jln Rajah, #01-01 ZhongShan Park","Singapore","329133",,"SG","https://summer-yakitori.business.site/?m=true","+65 6970 6877","+6569706877","1.3267395","103.8473933","8RGW+MX Singapore"
"HoHo Korean Restaurant","Korean restaurant","106 Clementi Street 12, #01-58/60, Singapore 120106","Clementi","106 Clementi Street 12, #01-58/60","Singapore","120106",,"SG","https://www.facebook.com/pages/HoHo-Korean-Restaurant/978072995645006","+65 6250 3908","+6562503908","1.3218188","103.77005","8QCC+P2 Singapore"
"Samy's Curry Restaurant","Indian restaurant","25 Dempsey Rd, Singapore 249670","Tanglin","25 Dempsey Rd","Singapore","249670",,"SG","http://www.samyscurry.com/","+65 6472 2080","+6564722080","1.3061228","103.8117619","8R46+CP Singapore"
"Pham Quyen Vietnamese Cuisine @ Pasir Panjang Rd","Halal restaurant","440 Pasir Panjang Rd, Singapore 118782","Queenstown","440 Pasir Panjang Rd","Singapore","118782",,"SG","https://pqonline.app/","+65 6904 8773","+6569048773","1.2924096","103.7683459","7QR9+X8 Singapore"
"Whampoa Keng Fish Head Steamboat @ Balestier","Restaurant","556 Balestier Rd, Singapore 329872","Whampoa","556 Balestier Rd","Singapore","329872",,"SG","http://whampoakeng.getz.co/","+65 6356 7371","+6563567371","1.32674","103.844955","8RGV+MX Singapore"
"Jai Thai Restaurant","Thai restaurant","7 Clover Wy, Singapore 579080","Bishan","7 Clover Wy","Singapore","579080",,"SG",,"+65 6258 0228","+6562580228","1.3501667","103.8431015","9R2V+36 Singapore"
"Arkadas Cafe & Restaurant","Turkish restaurant","1 Fusionopolis Vw, #01-02, Eclipse 138577","Queenstown","1 Fusionopolis Vw, #01-02","Eclipse","138577",,"SG","https://www.arkadas.sg/","+65 6467 5053","+6564675053","1.2998502","103.7897602","7QXQ+WW Singapore"
"Ajisen Ramen","Ramen restaurant","9 Bishan Pl, #B1-19 Junction 8, Singapore 579837","Bishan","9 Bishan Pl, #B1-19 Junction 8","Singapore","579837",,"SG","https://www.ajisen.com.sg/","+65 6255 6642","+6562556642","1.3508917","103.8484864","9R2X+99 Singapore"
"Brotzeit German Beer Bar and Restaurant - WestGate","German restaurant","3 Gateway Dr, #01-04, Singapore 608532","Jurong East","3 Gateway Dr, #01-04","Singapore","608532",,"SG","http://www.brotzeit.co/?utm_source=google&utm_medium=organic&utm_campaign=gmb","+65 6465 9874","+6564659874","1.3336757","103.7425569","8PMV+F2 Singapore"
"Zenryoku Izakaya (Japanese Drinking Bar)","Izakaya restaurant","183 Upper Thomson Rd, #01-04, Singapore 574429","Bishan","183 Upper Thomson Rd, #01-04","Singapore","574429",,"SG","http://www.zenryoku.sg/","+65 6517 9262","+6565179262","1.3510118","103.8355651","9R2P+C6 Singapore"
"Hajime Tonkatsu & Ramen (Thomson Plaza)","Japanese restaurant","301 Upper Thomson Rd, #01-110 Thomson Plaza, Singapore 574408","Bishan","301 Upper Thomson Rd, #01-110 Thomson Plaza","Singapore","574408",,"SG","http://www.hajime.com.sg/","+65 6261 5602","+6562615602","1.354839","103.8309273","9R3J+W9 Singapore"
"Yoshiya","Japanese restaurant","Balestier Rd, #02-13/14 Shaw Plaza, Singapore 329783","Novena","Balestier Rd, #02-13/14 Shaw Plaza","Singapore","329783",,"SG",,"+65 6539 9219","+6565399219","1.3248982","103.8513593","8VF2+XG Singapore"
"Anandham Chettinad Restaurant","Restaurant","152 Bukit Batok Street 11, #01-264, Singapore 650152","Bukit Batok","152 Bukit Batok Street 11, #01-264","Singapore","650152",,"SG",,"+65 6904 0100","+6569040100","1.3483489","103.7442538","8PXV+8P Singapore"
"Aisa Restaurant Indian food","Restaurant","415 Pandan Gardens, Singapore 600415","Jurong East","415 Pandan Gardens","Singapore","600415",,"SG",,,,"1.3208444","103.7480311","8PCX+86 Singapore"
"Watami Japanese Dining - Junction 8","Japanese restaurant","9 Bishan Place, #01-33 Junction 8 Shopping Centre, Singapore 579837","Bishan","9 Bishan Place, #01-33 Junction 8 Shopping Centre","Singapore","579837",,"SG","http://www.watami.com.sg/","+65 6258 3577","+6562583577","1.3503885","103.8482596","9R2X+58 Singapore"
"ZAINAP RESTAURANT(THE BABA CAFE HOUSE)","Asian restaurant","Bukit Merah Lane 1, Block 126, Singapore 150126","Bukit Merah","Bukit Merah Lane 1, Block 126","Singapore","150126",,"SG",,,,"1.2851886","103.8029324","7RP3+35 Singapore"
"Raj Restaurant","Indian restaurant","20 Biopolis Way, #01-03 Centros, Block 138668","Queenstown","20 Biopolis Way, #01-03 Centros","Block","138668",,"SG","https://raj-biopolis.oddle.me/","+65 8779 8702","+6587798702","1.3037145","103.7917693","8Q3R+FP Singapore"
"Original Sin Restaurant","Mediterranean restaurant","01-62 Jln Merah Saga, Chip Bee Gardens, Blk 43, Singapore 278115","Bukit Timah","01-62 Jln Merah Saga, Chip Bee Gardens, Blk 43","Singapore","278115",,"SG","http://www.originalsin.com.sg/","+65 6475 5605","+6564755605","1.3112437","103.7965326","8Q6W+FJ Singapore"
"SAYBONS","Western restaurant","9 Bishan Pl, #02-43, Singapore 579837","Bishan","9 Bishan Pl, #02-43","Singapore","579837",,"SG","http://www.saybons.com/","+65 6258 3138","+6562583138","1.3509265","103.8484533","9R2X+99 Singapore"
"Quentin’s Bar and Restaurant","Asian fusion restaurant","099567Singapore, SentosaSG 2 Gunner lane, #01-08, blk 14 Mess Hall","Southern Islands","SentosaSG 2 Gunner lane, #01-08, blk 14 Mess Hall","Singapore","099567",,"SG","https://www.quentins.com.sg/","+65 8817 6742","+6588176742","1.2532469","103.820743","7R3C+77 Singapore"
"Chin Huat Live Seafood","Seafood restaurant","105 Clementi Street 12, Sunset Wy, #01-30, Singapore 120105","Clementi","105 Clementi Street 12, Sunset Wy, #01-30","Singapore","120105",,"SG","https://www.chinhuatliveseafood.com/","+65 6775 7348","+6567757348","1.3222771","103.7695981","8QC9+WR Singapore"
"Ontama Don","Japanese restaurant","360 Balestier Rd, #01-23 Shaw Plaza, Singapore 329783","Novena","360 Balestier Rd, #01-23 Shaw Plaza","Singapore","329783",,"SG","https://www.ontamadon.sg/","+65 6970 3118","+6569703118","1.3247656","103.8512631","8VF2+WG Singapore"
"Burger King Shaw Plaza","Fast food restaurant","360 Balestier Road, Twin Heights, #01-17/18/19/20 Shaw Plaza, Singapore 329783","Novena","360 Balestier Road, Twin Heights, #01-17/18/19/20 Shaw Plaza","Singapore","329783",,"SG","https://www.burgerking.com.sg/","+65 6610 0689","+6566100689","1.3252605","103.8510507","8VG2+4C Singapore"
"Iro Iro Japanese Restaurant","Japanese restaurant","151 Lor Chuan, #01-01, Singapore 556741","Serangoon","151 Lor Chuan, #01-01","Singapore","556741",,"SG","https://iroirojr.wixsite.com/main","+65 9888 8756","+6598888756","1.35162","103.8618922","9V26+JQ Singapore"
"Naowarat Thai Cuisine","Restaurant","530 Balestier Rd, #01-06 Monville Mansion, Singapore 329857","Novena","530 Balestier Rd, #01-06 Monville Mansion","Singapore","329857",,"SG",,"+65 6909 3600","+6569093600","1.327345","103.8455657","8RGW+W6 Singapore"
"Jiang 蔣先生 Cantonese Asian Tapas","Asian restaurant","456 Balestier Rd, #01-04 next to SPC gas station, Singapore 329832","Novena","456 Balestier Rd, #01-04 next to SPC gas station","Singapore","329832",,"SG","https://www.jiangcantonesetapas.com/","+65 6518 4728","+6565184728","1.3265382","103.8482762","8RGX+J8 Singapore"
"Hyderabad Bawarchi Authentic North Indian Restaurant","Restaurant","978 Toa Payoh N, #02-01, Singapore 319001","Toa Payoh","978 Toa Payoh N, #02-01","Singapore","319001",,"SG",,"+65 9019 7903","+6590197903","1.3431485","103.8511968","8VV2+7F Singapore"
"Al Rabeca Restaurant 24 Hrs","Indian restaurant","16 Kim Keat Rd, Singapore 328840","Novena","16 Kim Keat Rd","Singapore","328840",,"SG",,"+65 9895 9493","+6598959493","1.3240837","103.8528358","8VF3+J4 Singapore"
"BOON KENG NEW TASTE 文庆新食代 @ Serangoon Road","Chinese restaurant","1003 Serangoon Rd, Singapore 328166","Kallang","1003 Serangoon Rd","Singapore","328166",,"SG","https://boon-keng-new-taste.business.site/?utm_source=gmb&utm_medium=referral","+65 6962 8896","+6569628896","1.3226141","103.8637382","8VF7+2F Singapore"
"Nummun Thai Kitchen","Thai restaurant","200 Upper Thomson Rd #01-03, Thomson Imperial Court, Singapore 574424","Bishan","200 Upper Thomson Rd #01-03, Thomson Imperial Court","Singapore","574424",,"SG","https://www.facebook.com/nummunthaikitchen","+65 8886 8699","+6588868699","1.351986","103.835908","9R2P+Q9 Singapore"
"YC Dining & Bar | Western Restaurant Bar","Western restaurant","2 Venture Dr, #01-45 Vision Exchange, Singapore 608526","Jurong East","2 Venture Dr, #01-45 Vision Exchange","Singapore","608526",,"SG","https://www.ycdiningandbar.info/","+65 6980 5432","+6569805432","1.330109","103.744756","8PJV+2W Singapore"
"Burke's Restaurant And Cafe","Restaurant","9 Bishan Pl, Junction 8 Shopping Centre, Singapore 579837, Singapore 579837","Bishan","9 Bishan Pl, Junction 8 Shopping Centre, Singapore 579837","Singapore","579837",,"SG",,"+65 6258 6620","+6562586620","1.349971","103.848794","8RXX+XG Singapore"
"DonBaasha 24hrs Restaurant","Indian Muslim restaurant","3 St George's Rd, Singapore 320003","Kallang","3 St George's Rd","Singapore","320003",,"SG",,"+65 8709 9333","+6587099333","1.3226547","103.8612266","8VF6+3F Singapore"
"Restaurant focal","Singaporean restaurant","7 Portsdown Rd, Singapore 139298","Queenstown","7 Portsdown Rd","Singapore","139298",,"SG","http://restaurantfocal.sg/","+65 8181 0102","+6581810102","1.2936127","103.7960826","7QVW+CC Singapore"
"Pin Hsiang Family Restaurant","Chinese restaurant","87 Whampoa Dr, #01-889, Singapore","Novena","87 Whampoa Dr, #01-889",,,,"SG",,"+65 6256 1193","+6562561193","1.3232489","103.8557586","8VF4+78 Singapore"
"TANI Bistro & Bar | Authentic and Traditional Indian Restaurant | Affordable Indian Food","Indian restaurant","20 Ah Hood Rd, #01-19 Zhongshan Mall, Singapore 329984","Novena","20 Ah Hood Rd, #01-19 Zhongshan Mall","Singapore","329984",,"SG","http://www.tanibistro.com/","+65 6592 0098","+6565920098","1.3275126","103.8467291","8RHW+2M Singapore"
"Boon Tong Kee Restaurant","Chinese restaurant","Balestier Rd, #399 401 & 403, Singapore 329801","Novena","Balestier Rd, #399 401 & 403","Singapore","329801",,"SG","http://boontongkee.com.sg/","+65 6254 3937","+6562543937","1.3255172","103.8495448","8RGX+6R Singapore"
"Phoenix Indian Restaurant","Indian restaurant","KidsSTOP 21, Jurong Town Hall Rd, Omni theatre building, Singapore 609433","Jurong East","KidsSTOP 21, Jurong Town Hall Rd, Omni theatre building","Singapore","609433",,"SG","https://www.phoenixindianrestaurant.net/","+65 6468 1044","+6564681044","1.334501","103.735502","8PMP+R6 Singapore"
"Che Kitchen by 车老板","Chinese restaurant","1008A Toa Payoh N, Singapore 318998","Toa Payoh","1008A Toa Payoh N","Singapore","318998",,"SG","https://reserve.oddle.me/cafenewasia","+65 6513 9032","+6565139032","1.3432965","103.8464632","8RVW+8H Singapore"
"Hoy Yong Seafood Restaurant","Restaurant","352 Clementi Ave 2, #01-153 Block 352, Singapore 120352","Clementi","352 Clementi Ave 2, #01-153 Block 352","Singapore","120352",,"SG",,,,"1.314699","103.7711137","8Q7C+VC Singapore"
"YANG MING SEAFOOD Bishan Branch","Seafood restaurant","150 Bishan St.11, Singapore 570150","Bishan","150 Bishan St.11","Singapore","570150",,"SG",,"+65 8028 9940","+6580289940","1.3445507","103.8556173","8VV4+R6 Singapore"
"HUI Restaurant","Chinese restaurant","10b Rochester Park, Singapore 139259","Queenstown","10b Rochester Park","Singapore","139259",,"SG","http://www.hui.restaurant/","+65 6530 3977","+6565303977","1.3068674","103.7869094","8Q4P+PQ Singapore"
"Candlenut","Nyonya restaurant","17a Dempsey Rd, Singapore 249676","Tanglin","17a Dempsey Rd","Singapore","249676",,"SG","https://comodempsey.sg/restaurant/candlenut","+65 1800 304 2288","+6518003042288","1.3058022","103.810095","8R46+82 Singapore"
"Al Barakath Restaurant","Indian restaurant","39 Teban Gardens Rd, #01-332/333, Singapore 600039","Jurong East","39 Teban Gardens Rd, #01-332/333","Singapore","600039",,"SG",,"+65 6561 5358","+6565615358","1.3214597","103.742717","8PCV+H3 Singapore"
"Cavemen Restaurant & Bar","Restaurant","1 Jln Dusun, #01-08, Singapore 329363","Novena","1 Jln Dusun, #01-08","Singapore","329363",,"SG","https://cavemen.com.sg/","+65 6250 1168","+6562501168","1.3267548","103.8438262","8RGV+PG Singapore"
"Al Medina Restaurant","Indian Muslim restaurant","95 Lor 4 Toa Payoh, #01-48, Singapore 310095","Toa Payoh","95 Lor 4 Toa Payoh, #01-48","Singapore","310095",,"SG",,,,"1.3393092","103.8490371","8RQX+PJ Singapore"
"Niqqi's The Cheese Prata Shop","Restaurant","16 Clementi Rd, Singapore 129745","Queenstown","16 Clementi Rd","Singapore","129745",,"SG",,"+65 8222 9822","+6582229822","1.2928572","103.7685899","7QV9+4C Singapore"
"Soup Restaurant 三盅两件 @ Clementi Mall","Cantonese restaurant","3155 Commonwealth Ave W, #03 - 62, Singapore 129588","Clementi","3155 Commonwealth Ave W, #03 - 62","Singapore","129588",,"SG","http://www.souprestaurant.com.sg/","+65 6659 3688","+6566593688","1.3151","103.7647806","8Q87+2W Singapore"
"Mata Thai","Thai restaurant","508, #01-390 Bishan St.11, Singapore 570508","Bishan","508, #01-390 Bishan St.11","Singapore","570508",,"SG","https://m.facebook.com/pages/Mata-Thai/191448740873625","+65 9339 3082","+6593393082","1.3487765","103.8492686","8RXX+GP Singapore"
"Namaste Curry House","North Indian restaurant","263 Upper Thomson Rd, Singapore 574390","Bishan","263 Upper Thomson Rd","Singapore","574390",,"SG","http://namastecurryhouse.com/","+65 9351 3302","+6593513302","1.3535294","103.833353","9R3M+C8 Singapore"
"Sichuan Tianfu Restaurant 天府川菜 (Clementi)","Restaurant","3151 Commonwealth Ave W, #01-17/18 Grantral Mall @ Clementi, Singapore 129581","Clementi","3151 Commonwealth Ave W, #01-17/18 Grantral Mall @ Clementi","Singapore","129581",,"SG","http://www.tianfu.com.sg/","+65 6777 1866","+6567771866","1.3142853","103.7650862","8Q78+P2 Singapore"
"Hong Kong Street Restaurant - Clementi West st 2","Restaurant","722 Clementi West Street 2, #01-150, Singapore 120722","Clementi","722 Clementi West Street 2, #01-150","Singapore","120722",,"SG",,,,"1.3027453","103.7635239","8Q37+3C Singapore"
"Swee Hin Restaurant","Restaurant","116 Commonwealth Cres, #01-129, Singapore 140116","Queenstown","116 Commonwealth Cres, #01-129","Singapore","140116",,"SG",,,,"1.3071827","103.8000906","8R42+V2 Singapore"
"Tora Hachi Japanese Grill & Restaurant","Japanese restaurant","29 Lor Mambong, Singapore 277687","Bukit Timah","29 Lor Mambong","Singapore","277687",,"SG","https://tora-hachi-japanese-restaurant.business.site/?utm_source=gmb&utm_medium=referral","+65 9067 3489","+6590673489","1.3115832","103.7945891","8Q6V+JR Singapore"
"Under Der Linden Restaurant","Restaurant","5B Portsdown Rd, #01-02, Singapore 139311","Queenstown","5B Portsdown Rd, #01-02","Singapore","139311",,"SG","https://underderlinden.com.sg/","+65 9838 2977","+6598382977","1.2943592","103.7959978","7QVW+P9 Singapore"
"Hakata Japanese Restaurant@NeWest","Restaurant","1 W Coast Dr, #01-93/70 NEWest, Singapore 128020","Clementi","1 W Coast Dr, #01-93/70 NEWest","Singapore","128020",,"SG","http://www.hakatarestaurant.com/catering/","+65 6265 3680","+6562653680","1.3165221","103.7576526","8Q85+J3 Singapore"
"Al Jemi Restaurant","Indian restaurant","1007 Serangoon Rd, Singapore 328168","Kallang","1007 Serangoon Rd","Singapore","328168",,"SG",,"+65 6203 1334","+6562031334","1.322692","103.8638616","8VF7+3G Singapore"
"Signature Restaurant & Bar - Best Briyani and Grill chicken","Indian restaurant","2 Venture Dr, #02-47 Vision Exchange, Singapore 608526","Jurong East","2 Venture Dr, #02-47 Vision Exchange","Singapore","608526",,"SG","http://www.signaturelounge.sg/","+65 8756 8383","+6587568383","1.3303721","103.7442673","8PJV+4P Singapore"
"Fayidha Restaurant","Indian Muslim restaurant","26 Kim Keat Rd, Singapore 328807","Novena","26 Kim Keat Rd","Singapore","328807",,"SG",,"+65 6259 7560","+6562597560","1.3242947","103.8530675","8VF3+P6 Singapore"
"Chong Qing Grilled Fish Upper Thomson","Chinese restaurant","205 Upper Thomson Rd, Singapore 574345","Bishan","205 Upper Thomson Rd","Singapore","574345",,"SG","http://www.cqgf.com.sg/islandwide-delivery","+65 6278 8809","+6562788809","1.351963","103.83517","9R2P+Q3 Singapore"
"Jack's Place Toa Payoh","Western restaurant","430 Lor 6 Toa Payoh, #01-01A OrangeTee, Singapore 319402","Toa Payoh","430 Lor 6 Toa Payoh, #01-01A OrangeTee","Singapore","319402",,"SG","https://www.jacksplace.com.sg/","+65 6252 6311","+6562526311","1.3313077","103.8493871","8RJX+GQ Singapore"
"GRUB Junction 8","Western restaurant","9 Bishan Pl, #01-38 Junction 8, Singapore 579837","Bishan","9 Bishan Pl, #01-38 Junction 8","Singapore","579837",,"SG","https://grub.com.sg/","+65 8891 9298","+6588919298","1.3509065","103.8485797","9R2X+9C Singapore"
"Yi Jia Village Seafood Restaurant","Seafood restaurant","20 Lor 7 Toa Payoh, #01-758, Singapore 310020","Toa Payoh","20 Lor 7 Toa Payoh, #01-758","Singapore","310020",,"SG",,"+65 6250 6537","+6562506537","1.3350423","103.8567994","8VP4+2P Singapore"
"Hock Kee Seafood Restaurant","Restaurant","260 Kim Keat Ave, #01-01, Singapore 310260","Toa Payoh","260 Kim Keat Ave, #01-01","Singapore","310260",,"SG",,,,"1.3321532","103.8574385","8VJ4+VX Singapore"
"The Roti Prata House","Indian Muslim restaurant","246 Upper Thomson Rd, #246 M 246, Singapore 574370","Bishan","246 Upper Thomson Rd, #246 M 246","Singapore","574370",,"SG","https://www.facebook.com/pages/The-Roti-Prata-House/143214395726095","+65 6459 5260","+6564595260","1.3538519","103.8342736","9R3M+GP Singapore"
"Hong Sheng Restaurant - Claypot Fish Head","Restaurant","203 Toa Payoh N, Singapore 310203","Toa Payoh","203 Toa Payoh N","Singapore","310203",,"SG",,,,"1.3420493","103.8487709","8RRX+RG Singapore"
"Fatboy's the Burger Bar","Hamburger restaurant","187 Upper Thomson Rd, Singapore 574335","Bishan","187 Upper Thomson Rd","Singapore","574335",,"SG","http://www.fatboys.sg/","+65 6252 8780","+6562528780","1.3515683","103.8353692","9R2P+J4 Singapore"
"Saveur Thai Restaurant","Restaurant","151 Lorong Chuan, NTP+ #01-09, Singapore 556741","Serangoon","151 Lorong Chuan, NTP+ #01-09","Singapore","556741",,"SG","https://www.saveurthai.sg/","+65 6241 6014","+6562416014","1.3512405","103.8616048","9V26+FJ Singapore"
"WOLAA Kitchen & Bar","Asian fusion restaurant","387 Balestier Rd, Singapore 329795","Novena","387 Balestier Rd","Singapore","329795",,"SG",,"+65 6312 3376","+6563123376","1.3252791","103.8499564","8RGX+4X Singapore"
"83 Seafood Restaurant","Restaurant","Block 66 Lor 4 Toa Payoh, Singapore 310066","Toa Payoh","Block 66 Lor 4 Toa Payoh","Singapore","310066",,"SG",,"+65 8358 4282","+6583584282","1.3350275","103.8519774","8VP2+2Q Singapore"
"ARIZE Bistro by Axsolute","Western restaurant","293 Lor 6 Toa Payoh, #03-03, Singapore 319387","Toa Payoh","293 Lor 6 Toa Payoh, #03-03","Singapore","319387",,"SG","https://www.facebook.com/AxsoluteBistro/","+65 8847 1453","+6588471453","1.3302726","103.854705","8VJ3+4V Singapore"
"Wanglee Seafood Restaurant","Restaurant","94 Lor 4 Toa Payoh, Singapore 310094","Toa Payoh","94 Lor 4 Toa Payoh","Singapore","310094",,"SG","http://fb.me/Wangleebrothers","+65 8711 5600","+6587115600","1.3389227","103.8495469","8RQX+HR Singapore"
"PocoLoco","Italian restaurant","215f Upper Thomson Rd, Singapore 574349","Bishan","215f Upper Thomson Rd","Singapore","574349",,"SG",,"+65 8866 4646","+6588664646","1.3523794","103.8349379","9R2M+XX Singapore"
"Tims Restaurant & Cafe","Western restaurant","95 Lor 4 Toa Payoh, #01-52, Singapore 310095","Toa Payoh","95 Lor 4 Toa Payoh, #01-52","Singapore","310095",,"SG",,"+65 6250 5246","+6562505246","1.3391892","103.849029","8RQX+MJ Singapore"
"Trattoria da Mimmo Restaurant and Pizzeria","Italian restaurant","3 Clover Wy, Singapore 579078","Bishan","3 Clover Wy","Singapore","579078",,"SG","http://www.trattoriadamimmo.com.sg/","+65 9088 2659","+6590882659","1.3504035","103.8430891","9R2V+56 Singapore"
"Faber Valley Pub & Restaurant","Restaurant","114 Faber Dr, Singapore 129426","Clementi","114 Faber Dr","Singapore","129426",,"SG","https://www.facebook.com/FaberValley/","+65 6778 7101","+6567787101","1.3203129","103.7563516","8QC4+4G Singapore"
"Sapore Italian Restaurant","Italian restaurant","1 Create Wy, #01-11, Singapore 138602","Queenstown","1 Create Wy, #01-11","Singapore","138602",,"SG","https://www.sapore.com.sg/","+65 6262 0287","+6562620287","1.3042989","103.7739138","8Q3F+PH Singapore"
"Island Penang Kitchen","Southeast Asian restaurant","721 Clementi West Street 2, #01-126, Singapore 120721","Clementi","721 Clementi West Street 2, #01-126","Singapore","120721",,"SG","https://www.facebook.com/Island-Penang-Kitchen-648592468507507/","+65 6873 0163","+6568730163","1.3025584","103.764474","8Q37+2Q Singapore"
"The Restaurant @ SPGG","Restaurant","1010 Dover Rd, Singapore 139658","Queenstown","1010 Dover Rd","Singapore","139658",,"SG",,"+65 6796 9988","+6567969988","1.3096279","103.7744979","8Q5F+VQ Singapore"
"Taverna Greka Greek-Italian Restaurant (previous Gary's)","Italian restaurant","41 Rochester Dr, Singapore 138582","Queenstown","41 Rochester Dr","Singapore","138582",,"SG","https://tavernagreeka.com/","+65 8513 3144","+6585133144","1.3060604","103.7876901","8Q4Q+C3 Singapore"
"Lazy Lizard - NEWest","Restaurant","1 West Coast Drive #01-85 & #01-86, NEWest, Singapore 128020","Clementi","1 West Coast Drive #01-85 & #01-86, NEWest","Singapore","128020",,"SG","https://lazylizard.com.sg/","+65 6254 7326","+6562547326","1.3164178","103.7577178","8Q85+H3 Singapore"
"Rong Liang Restaurant Pte Ltd 榮亮閣","Cantonese restaurant","Block 725 Clementi West Street 2 #01-190/192, (S)120725, Singapore 120725","Clementi","Block 725 Clementi West Street 2 #01-190/192, (S)120725","Singapore","120725",,"SG","https://rong-liang-restaurant.business.site/?utm_source=gmb&utm_medium=referral","+65 9821 0906","+6598210906","1.303813","103.7636313","8Q37+GF Singapore"
"Dario Pizza & More","Pizza restaurant","6 Clementi Rd, Singapore 129741","Queenstown","6 Clementi Rd","Singapore","129741",,"SG","http://www.dariopizzaandmore.com/","+65 9446 0253","+6594460253","1.2924497","103.7683135","7QR9+X8 Singapore"
"Hong Kong Kitchen","Chinese restaurant","24 Clementi Rd, Singapore 129753","Queenstown","24 Clementi Rd","Singapore","129753",,"SG","https://xgxc.meuu.online/home","+65 6779 7889","+6567797889","1.2930409","103.7687545","7QV9+6G Singapore"
"roots@onenorth restaurant","Western restaurant","3 Fusionopolis Pl Workloft, Unit, #01 - 50 Galaxis, Singapore 138523","Queenstown","3 Fusionopolis Pl Workloft, Unit, #01 - 50 Galaxis","Singapore","138523",,"SG","http://www.facebook.com/rootsonenorth","+65 8040 5140","+6580405140","1.2996794","103.78726","7QXP+VW Singapore"
"Pietrasanta The Italian Restaurant","Italian restaurant","1 Fusionopolis Wy, #01-08 Connexis, Singapore 138632","Queenstown","1 Fusionopolis Wy, #01-08 Connexis","Singapore","138632",,"SG","http://www.ristorante-pietrasanta.com/","+65 9863 9253","+6598639253","1.2986242","103.7879068","7QXQ+C5 Singapore"
"Rangooli Restaurant","Indian restaurant","Blk 721 Clementi West Street 2, #01-138/140, Singapore 120721","Clementi","Blk 721 Clementi West Street 2, #01-138/140","Singapore","120721",,"SG","http://www.rangoolirestaurant.com/","+65 6777 6413","+6567776413","1.3023263","103.7642234","8Q27+WM Singapore"
"Al Amaan Restaurant","Indian Muslim restaurant","12 Clementi Rd, Singapore 129742","Queenstown","12 Clementi Rd","Singapore","129742",,"SG","http://www.alamaanrestaurant.com/","+65 6774 0637","+6567740637","1.2927526","103.7684987","7QV9+49 Singapore"
"The Wharf","Restaurant","52 W Coast Ferry Rd, RSYC Yacht Club, Singapore 126887","Queenstown","52 W Coast Ferry Rd, RSYC Yacht Club","Singapore","126887",,"SG",,"+65 6768 9351","+6567689351","1.2927481","103.7627338","7QV7+33 Singapore"
"Nana Original Thai Food Clementi","Thai restaurant","18 Clementi Rd, Singapore 129747","Queenstown","18 Clementi Rd","Singapore","129747",,"SG","http://nana.thai.restaurant/","+65 8861 4209","+6588614209","1.2929144","103.7686345","7QV9+5F Singapore"
"Formosa Delights","Chinese restaurant","20 Clementi Rd, Singapore 129749","Queenstown","20 Clementi Rd","Singapore","129749",,"SG","http://www.formosadelights.com/","+65 6778 7398","+6567787398","1.2929497","103.7686889","7QV9+5F Singapore"
"Anyplace Family Restaurant Pte Ltd","Restaurant","2 Jurong East Street 21, Singapore 609601","Jurong East","2 Jurong East Street 21","Singapore","609601",,"SG",,"+65 6565 6340","+6565656340","1.334938","103.746872","8PMW+XP Singapore"
"桑林川粤海鲜饭店 Canto-Sichuan Seafood Restaurant","Restaurant","132 Jurong Gateway Rd, #01-273, Singapore 600132","Jurong East","132 Jurong Gateway Rd, #01-273","Singapore","600132",,"SG",,"+65 6561 8658","+6565618658","1.3342485","103.739666","8PMQ+MV Singapore"
"Yee Cheong Yuen Noodle Restaurant Pte Ltd","Fusion restaurant","2 Jurong East Street 21, #03-99, Imm Building, Singapore 609601","Jurong East","2 Jurong East Street 21, #03-99, Imm Building","Singapore","609601",,"SG",,"+65 6561 1663","+6565611663","1.334938","103.746872","8PMW+XP Singapore"
"81 Restaurant","Restaurant","406 Jurong West Street 42, Singapore 640406","Jurong West","406 Jurong West Street 42","Singapore","640406",,"SG","http://www.facebook.com/81seafood","+65 8191 1000","+6581911000","1.354291","103.7227626","9P3F+P4 Singapore"
"NKS Restaurant Indian Muslim Food","Restaurant","762 Jurong West Street 75, Singapore 640762","Jurong West","762 Jurong West Street 75","Singapore","640762",,"SG",,,,"1.3486424","103.697846","8MXX+F4 Singapore"
"Siam Square Mookata - Best Mookata Restaurant in Singapore","Barbecue restaurant","134 Jurong Gateway Rd, Singapore 600134","Jurong East","134 Jurong Gateway Rd","Singapore","600134",,"SG","https://siamsquaremookata.com.sg/","+65 8119 6664","+6581196664","1.3341897","103.7388698","8PMQ+MG Singapore"
"Tayyiba Briyani Restaurant @ Nexus One North","Indian restaurant","1 Fusionopolis Link, #01-03 Nexus @one-north, Singapore 138542","Queenstown","1 Fusionopolis Link, #01-03 Nexus @one-north","Singapore","138542",,"SG","https://www.tayyibabiryani.sg/","+65 6993 9648","+6569939648","1.2989605","103.7897541","7QXQ+HW Singapore"
"Woorinara Korean Restaurant","Korean restaurant","19 Lor Kilat, #01-02, Singapore 598120","Bukit Timah","19 Lor Kilat, #01-02","Singapore","598120",,"SG","http://woorinara.sg/","+65 6464 9282","+6564649282","1.340941","103.7737213","8QRF+9F Singapore"
"Alif Restaurant","Indian Muslim restaurant","374 Bukit Batok Street 31, #01-204, Singapore 650374","Bukit Batok","374 Bukit Batok Street 31, #01-204","Singapore","650374",,"SG",,,,"1.3576781","103.7506913","9Q52+37 Singapore"
"Potluck by The Soup Restaurant","Restaurant","IMM #01-101A, 2 Jurong East Street 21, Singapore 609601","Jurong East","IMM #01-101A, 2 Jurong East Street 21","Singapore","609601",,"SG","https://www.facebook.com/potlucksingapore","+65 6899 6636","+6568996636","1.3343648","103.7464532","8PMW+PH Singapore"
"Siam Square Mookata - Best Mookata Restaurant in Singapore","Thai restaurant","221 Boon Lay Pl, Boon Lay Shopping Centre, Singapore 640221","Jurong West","221 Boon Lay Pl, Boon Lay Shopping Centre","Singapore","640221",,"SG","https://siamsquaremookata.com.sg/","+65 8119 6664","+6581196664","1.3458486","103.7124831","8PW6+8X Singapore"
"Pink Candy Korean Restaurant","Korean restaurant","144 Upper Bukit Timah Rd #04-60 Beauty World Centre, Singapore 588177","Bukit Timah","144 Upper Bukit Timah Rd #04-60 Beauty World Centre","Singapore","588177",,"SG","https://pinkcandysg.com/","+65 9170 2365","+6591702365","1.342311","103.7763425","8QRG+WG Singapore"
"Swensen's @ West Mall","Restaurant","1 Bukit Batok Central Link 02-05 West Mall, Singapore 658713","Bukit Batok","1 Bukit Batok Central Link 02-05 West Mall","Singapore","658713",,"SG","http://www.swensens.com.sg/","+65 6898 9281","+6568989281","1.3500983","103.7493183","9P2X+2P Singapore"
"KJM Curry House","Restaurant","217A Jurong East Street 21, Singapore 601217","Jurong East","217A Jurong East Street 21","Singapore","601217",,"SG",,"+65 9142 6420","+6591426420","1.3403258","103.7384574","8PRQ+49 Singapore"
"Ananda's TAJ Restaurant","Restaurant","Blk 19A #01, 60 Nanyang Cres, #02 North Hill Gym, Singapore 636957","Western Water Catchment","Blk 19A #01, 60 Nanyang Cres, #02 North Hill Gym","Singapore","636957",,"SG",,"+65 8436 1111","+6584361111","1.3542972","103.6876925","9M3Q+P3 Singapore"
"Ariff's Restaurant Authentic indian And Muslim Cuisine","Indian restaurant","274 Bukit Batok East Ave 5, Singapore","Bukit Batok","274 Bukit Batok East Ave 5",,,,"SG",,"+65 8248 9248","+6582489248","1.3478202","103.7578451","8QX5+44 Singapore"
"The Sapling Restaurant","Fusion restaurant","21 Bukit Batok Street 22, Shatec, Singapore 659589","Bukit Batok","21 Bukit Batok Street 22, Shatec","Singapore","659589",,"SG","https://thesapling.shatec.sg/","+65 6415 3553","+6564153553","1.3437536","103.7501307","8QV2+G3 Singapore"
"The House Steam Boat Restaurant","Restaurant","50 Nanyang Dr, Singapore 639798","Western Water Catchment","50 Nanyang Dr","Singapore","639798",,"SG","https://www.burpple.com/food-connection","+65 8821 3302","+6588213302","1.3470221","103.680656","8MWJ+R7 Singapore"
"Suka Ramai Mama Power","Restaurant","1 Bedok Rd, Singapore 469572","Bedok","1 Bedok Rd","Singapore","469572",,"SG","https://suka-ramai-mama-power.business.site/?utm_source=gmb&utm_medium=referral","+65 9425 2537","+6594252537","1.3203457","103.9555208","8XC4+46 Singapore"
"Crust Bistro","Indian restaurant","74 Bayshore Rd, #01-33 Costa Del Sol, Singapore 469989","Bedok","74 Bayshore Rd, #01-33 Costa Del Sol","Singapore","469989",,"SG",,"+65 9054 4117","+6590544117","1.3113179","103.9396954","8W6Q+GV Singapore"
"Hock Seng Choon Fishball Kway Teow Mee (#01-50)","Hawker stall","16 Bedok S Rd, #01-50, Singapore 460016","Bedok","16 Bedok S Rd, #01-50","Singapore","460016",,"SG","https://the.fat.guide/singapore/eat/hock-seng-choon-fish-ball-kway-teow-mee/","+65 9789 6160","+6597896160","1.3203564","103.9351672","8WCP+43 Singapore"
"Hill Street Fried Kway Teow","Hawker stall","16 Bedok S Rd, #01-41, Singapore 460016","Bedok","16 Bedok S Rd, #01-41","Singapore","460016",,"SG",,,,"1.3204391","103.9353699","8WCP+54 Singapore"
"Bam! Restaurant","Restaurant","38 Tras St, Singapore 078977","Chinatown","38 Tras St","Singapore","078977",,"SG","http://www.bam.sg/","+65 6226 0500","+6562260500","1.278406","103.8442916","7RHV+9P Singapore"
"Ba Shu Sichuan Restaurant","Sichuan restaurant","219 Bedok Central, #01-122, Singapore 460219","Bedok","219 Bedok Central, #01-122","Singapore","460219",,"SG","http://bashusichuan.sg/","+65 6384 0115","+6563840115","1.3252511","103.9328134","8WGM+44 Singapore"
"Neon Pigeon","Japanese restaurant","36 Carpenter St, #01-01, Singapore 059915","Central Area","36 Carpenter St, #01-01","Singapore","059915",,"SG","https://www.neonpigeonsg.com/","+65 3129 7551","+6531297551","1.2880169","103.8477094","7RQX+63 Singapore"
"LAVO Italian Restaurant And Rooftop Bar","Italian restaurant","10 Bayfront Ave, Tower 1, Level 57, Singapore 018956","Central Area","10 Bayfront Ave, Tower 1, Level 57","Singapore","018956",,"SG","https://lavosingapore.com/","+65 6688 8591","+6566888591","1.2826231","103.8600999","7VM6+22 Singapore"
"Fu Lin Men Chinese Restaurant (National Service Resort & Country Club)","Chinese restaurant","10 Changi Coast Walk, Level 1 National Service Resort & Country Club, Singapore 499739","Tampines","10 Changi Coast Walk, Level 1 National Service Resort & Country Club","Singapore","499739",,"SG","https://www.fulinmen.com.sg/fu-lin-men-nsrcc","+65 6592 4680","+6565924680","1.3185752","103.9739734","8X9F+CH Singapore"
"Pepper Lunch - Bedok Mall","Japanese restaurant","311 New Upper Changi Rd, #01-05/06/07/08, Singapore 467360","Bedok","311 New Upper Changi Rd, #01-05/06/07/08","Singapore","467360",,"SG","http://www.pepperlunch.com.sg/",,,"1.3243336","103.929703","8WFH+PV Singapore"
"Blu Kouzina Siglap","Greek restaurant","907 E Coast Rd, #01-01, Singapore 459107","Bedok","907 E Coast Rd, #01-01","Singapore","459107",,"SG","https://blukouzina.com/siglap/","+65 9710 8303","+6597108303","1.3127669","103.924493","8W7F+4Q Singapore"
"城记海鲜 Cheng Ji Seafood Restaurant","Seafood restaurant","891 E Coast Rd, Singapore 459094","Bedok","891 E Coast Rd","Singapore","459094",,"SG","https://social.quandoo.com/en/groups/Cheng%20Ji%20Seafood%20Restaurant%20%E5%9F%8E%E8%AE%B0%E6%B5%B7%E9%B2%9C","+65 9694 1818","+6596941818","1.3127347","103.9240304","8W7F+3J Singapore"
"Mendon Bedok Mall","Japanese restaurant","311 New Upper Changi Rd, #B2-27, Singapore 467360","Bedok","311 New Upper Changi Rd, #B2-27","Singapore","467360",,"SG",,,,"1.3245479","103.929448","8WFH+RQ Singapore"
"Masalaa Bar","Modern Indian restaurant","723 E Coast Rd, Singapore 459071","Bedok","723 E Coast Rd","Singapore","459071",,"SG","http://www.masalaabar.com/","+65 6282 4648","+6562824648","1.3122359","103.922917","8W6F+V5 Singapore"
"Adimann Seafood & Satay Specialist","Satay restaurant","1220 ECP, Singapore 468960","Bedok","1220 ECP","Singapore","468960",,"SG",,,,"1.3067672","103.9347712","8W4M+PW Singapore"
"Springleaf Prata Place - Jln Tua Kong","Indian restaurant","57B Jln Tua Kong, Singapore 457253","Bedok","57B Jln Tua Kong","Singapore","457253",,"SG","https://spplace.com/","+65 6636 2935","+6566362935","1.3160376","103.9254645","8W8G+C5 Singapore"
"Xin Jian Dong Restaurant Pte Ltd","Fusion restaurant","219 Bedok Central, #01-140A, Singapore 460219","Bedok","219 Bedok Central, #01-140A","Singapore","460219",,"SG",,"+65 6441 2298","+6564412298","1.3247041","103.9329847","8WFM+V5 Singapore"
"Block 16 Bedok South Market & Food Centre","Hawker center","16 Bedok S Rd, Singapore 460016","Bedok","16 Bedok S Rd","Singapore","460016",,"SG","https://www.nea.gov.sg/our-services/hawker-management/overview","+65 6225 5632","+6562255632","1.3204181","103.9354884","8WCP+55 Singapore"
"Satay Solo","Hawker stall","1 Bedok Rd, Singapore 469572","Bedok","1 Bedok Rd","Singapore","469572",,"SG","https://sataysolo.pickngosg.com/","+65 9711 0116","+6597110116","1.3204356","103.9556151","8XC4+56 Singapore"
"Khan Saab Restaurant","Indian restaurant","55 Chai Chee Dr, Singapore 460055","Bedok","55 Chai Chee Dr","Singapore","460055",,"SG",,"+65 6244 4430","+6562444430","1.3270906","103.9187045","8WG9+RF Singapore"
"Paik's Bibim @ Bedok Mall","Korean restaurant","311 New Upper Changi Rd, #01-95, Singapore 467360","Bedok","311 New Upper Changi Rd, #01-95","Singapore","467360",,"SG","http://www.facebook.com/paiks.bibimsg/","+65 6844 9628","+6568449628","1.3247633","103.9293326","8WFH+WP Singapore"
"Pizza Hut Bedok Mall","Pizza restaurant","311 New Upper Changi Rd, #B2 - 05 / 34 Bedok Mall, Singapore 467360","Bedok","311 New Upper Changi Rd, #B2 - 05 / 34 Bedok Mall","Singapore","467360",,"SG","http://www.pizzahut.com.sg/?y_source=1_MjAzNDUzMzMtNzE1LWxvY2F0aW9uLndlYnNpdGU%3D","+65 6235 3535","+6562353535","1.3249442","103.9298176","8WFH+XW Singapore"
"Ashes Burnnit","Hawker stall","69 Bedok South Ave 3, Springleaf Eating House by Coffee Buddy's, Singapore 460069","Bedok","69 Bedok South Ave 3, Springleaf Eating House by Coffee Buddy's","Singapore","460069",,"SG","http://www.ashessg.com/",,,"1.3193589","103.9435005","8W9V+PC Singapore"
"Spize @ Bedok","Halal restaurant","338 Bedok Rd, Bedok Shopping Complex, Singapore 469516","Bedok","338 Bedok Rd, Bedok Shopping Complex","Singapore","469516",,"SG","https://smartweb-ecms.tabsquare.com/scan/b8bc5160-ce84-48da-b119-6eb6f2832616","+65 6337 7493","+6563377493","1.3313374","103.9479106","8WJX+G5 Singapore"
"The Nest","Restaurant","11 Laguna Golf Green, Singapore 488047","Tampines","11 Laguna Golf Green","Singapore","488047",,"SG","https://www.dusitthanilagunasingapore.com/dining/thenest","+65 6321 6792","+6563216792","1.3239747","103.9638053","8XF7+HG Singapore"
"Lenu","Chinese noodle restaurant","311 New Upper Changi Rd, B2-32, Singapore 467360","Bedok","311 New Upper Changi Rd, B2-32","Singapore","467360",,"SG","https://www.paradisegp.com/brand-lenu-chef-wais-noodle-bar/",,,"1.3246231","103.9298026","8WFH+RW Singapore"
"An-nur shentonway famous restaurant","Restaurant","36 Chai Chee Ave, Block 36, Singapore 461036","Bedok","36 Chai Chee Ave, Block 36","Singapore","461036",,"SG",,"+65 8742 0797","+6587420797","1.3256641","103.9254728","8WGG+75 Singapore"
"Legends Bar","Restaurant","11 Laguna Golf Green, Singapore 488047","Tampines","11 Laguna Golf Green","Singapore","488047",,"SG","https://www.dusitthanilagunasingapore.com/dining/legendsbar",,,"1.3238801","103.96316","8XF7+H7 Singapore"
"Song Kee Fried Oyster","Hawker stall","#01-15 East Coast Lagoon Food Village, 1220 ECP, Singapore 468960","Bedok","#01-15 East Coast Lagoon Food Village, 1220 ECP","Singapore","468960",,"SG",,,,"1.3069729","103.9350505","8W4P+Q2 Singapore"
"Biryani Concepts @ Siglap","Restaurant","27 Upper E Coast Rd, Crescendo Building, Singapore 455211","Bedok","27 Upper E Coast Rd, Crescendo Building","Singapore","455211",,"SG","https://social.quandoo.com/en/groups/Biryani%20Concepts","+65 8208 8842","+6582088842","1.3130881","103.9263173","8W7G+6G Singapore"
"MOS Burger","Fast food restaurant","311 New Upper Changi Rd, #B2-29 Bedok Mall, Singapore 467360","Bedok","311 New Upper Changi Rd, #B2-29 Bedok Mall","Singapore","467360",,"SG","http://www.mosburger.com.sg/","+65 6844 9571","+6568449571","1.324562","103.9296009","8WFH+RR Singapore"
"Black Pearl Steakhouse","Restaurant","85 Upper E Coast Rd, Singapore 455222","Bedok","85 Upper E Coast Rd","Singapore","455222",,"SG","http://www.blackpearlsteakhouse.com/","+65 6448 1732","+6564481732","1.3133","103.9278176","8W7H+84 Singapore"
"Stuff'd","Salad shop","New Upper Changi Rd, B2-22 Bedok Mall, 311, Singapore 467360","Bedok","New Upper Changi Rd, B2-22 Bedok Mall, 311","Singapore","467360",,"SG","http://stuffed.com.sg/",,,"1.3243549","103.9291758","8WFH+PM Singapore"
"Canton Paradise","Cantonese restaurant","311 New Upper Changi Road Bedok Mall, B2-11, Singapore 467360","Bedok","311 New Upper Changi Road Bedok Mall, B2-11","Singapore","467360",,"SG","https://www.paradisegp.com/brand-canton-paradise/","+65 6844 9244","+6568449244","1.324592","103.9292631","8WFH+RP Singapore"
"Saffrons @ Swan Lake","Indian Muslim restaurant","23 Swan Lake Ave, Opera Estate, Singapore 455715","Bedok","23 Swan Lake Ave, Opera Estate","Singapore","455715",,"SG","http://www.saffrons.com.sg/","+65 6449 5267","+6564495267","1.3215209","103.9239907","8WCF+JH Singapore"
"Sin Ho (Block 16 Bedok South)","Chinese restaurant","11 Bedok S Rd, Singapore","Bedok","11 Bedok S Rd",,,,"SG",,,,"1.3204067","103.9353635","8WCP+54 Singapore"
"Ding Gua Gua Fried Rice","Hawker stall","69 Bedok South Ave 3, #01-498, Singapore 460069","Bedok","69 Bedok South Ave 3, #01-498","Singapore","460069",,"SG",,,,"1.3194068","103.9436335","8W9V+QF Singapore"
"Soi 11 ( Thai Bistro Bar)","Restaurant","924 E Coast Rd, Singapore 459115","Bedok","924 E Coast Rd","Singapore","459115",,"SG",,"+65 8523 9494","+6585239494","1.3124286","103.9249595","8W6F+XX Singapore"
"Hot Tomato Bistro","Western restaurant","311 New Upper Changi Rd, #B1-37/38, Singapore 467360","Bedok","311 New Upper Changi Rd, #B1-37/38","Singapore","467360",,"SG","http://www.hottomato.com.sg/","+65 6844 9328","+6568449328","1.324583","103.9296573","8WFH+RV Singapore"
"Tasty Court Pte Ltd","Chinese restaurant","1 Figaro St, Singapore 458322","Bedok","1 Figaro St","Singapore","458322",,"SG","https://www.facebook.com/people/TASTY-COURT-PTE-LTD/100057489757992/","+65 6538 3533","+6565383533","1.3157076","103.9258709","8W8G+78 Singapore"
"Lai Huat Signatures","Fish and seafood restaurant","17 Upper E Coast Rd, Singapore 455208","Bedok","17 Upper E Coast Rd","Singapore","455208",,"SG","https://laihuatbuffet.com/","+65 6448 9077","+6564489077","1.31295","103.9259609","8W7G+59 Singapore"
"Choon Hiang","Hawker stall","#01-46 East Coast Lagoon Food Village, 1220 ECP, Singapore 440000","Bedok","#01-46 East Coast Lagoon Food Village, 1220 ECP","Singapore","440000",,"SG","https://www.sgfoodonfoot.com/2016/08/choon-hiang-east-coast-lagoon-food.html",,,"1.3069408","103.9346666","8W4M+QV Singapore"
"Pasta Fresca Da Salvatore (Siglap)","Italian restaurant","9 Upper E Coast Rd, #01-01, Singapore 455203","Bedok","9 Upper E Coast Rd, #01-01","Singapore","455203",,"SG","https://www.pastafresca.com/outlet/pasta-fresca-east-coast/","+65 6241 5560","+6562415560","1.3129404","103.9256205","8W7G+56 Singapore"
"Srisun Prata","Hawker stall","168 Bedok South Ave 3, #01-471, Singapore 460168","Bedok","168 Bedok South Ave 3, #01-471","Singapore","460168",,"SG","http://www.srisunprata.com/",,,"1.3200627","103.9445717","8WCV+2R Singapore"
"Restaurant Poise","Restaurant","6 Teck Lim Rd, Singapore 088384","Chinatown","6 Teck Lim Rd","Singapore","088384",,"SG","http://www.restaurantpoise.com/","+65 8894 4118","+6588944118","1.2802058","103.8420131","7RJR+3R Singapore"
"Chinatown Seafood Restaurant","Seafood restaurant","51 Pagoda St, Singapore 059212","Chinatown","51 Pagoda St","Singapore","059212",,"SG","https://chinatown.sg/dine/chinatown-seafood-restaurant/","+65 6222 2224","+6562222224","1.283224","103.844439","7RMV+7Q Singapore"
"Gaig Singapore","Catalonian restaurant","16 Stanley St, Singapore 068735","Chinatown","16 Stanley St","Singapore","068735",,"SG","https://sg.restaurantgaig.com/","+65 6221 2134","+6562212134","1.280476","103.84807","7RJX+56 Singapore"
"Blossom Restaurant","Fine dining restaurant","Marina Bay Sands Hotel, Lobby Tower 2, #01-05/05A, 2 Bayfront Ave, Singapore 018972","Central Area","Marina Bay Sands Hotel, Lobby Tower 2, #01-05/05A, 2 Bayfront Ave","Singapore","018972",,"SG","http://blossomrestaurant.com.sg/","+65 6688 7799","+6566887799","1.2840953","103.8607704","7VM6+J8 Singapore"
"Path Restaurant","Asian restaurant","12 Marina Boulevard, Tower 3, #01-05/06 Marina Bay Financial Centre, Singapore 018982","Central Area","12 Marina Boulevard, Tower 3, #01-05/06 Marina Bay Financial Centre","Singapore","018982",,"SG","http://pathrestaurant.com.sg/","+65 6443 0180","+6564430180","1.2794242","103.85443","7VH3+QQ Singapore"
"Alati Divine Greek Cuisine","Seafood restaurant","73 Amoy St, Singapore 069892","Chinatown","73 Amoy St","Singapore","069892",,"SG","http://www.alati.sg/","+65 6221 6124","+6562216124","1.2803412","103.8467476","7RJW+4M Singapore"
"Ahmad Spring","Restaurant","1220 ECP, #01-58, Singapore 468960","Bedok","1220 ECP, #01-58","Singapore","468960",,"SG","https://ahmadspring.pickngosg.com/","+65 9018 2706","+6590182706","1.3067193","103.9348352","8W4M+MW Singapore"
"城记海鲜 Happy Chef Kitchen","Seafood restaurant","Blk 18 Bedok S Rd, #01-45, Singapore 460018","Bedok","Blk 18 Bedok S Rd, #01-45","Singapore","460018",,"SG",,"+65 9747 1818","+6597471818","1.3205036","103.9347465","8WCM+6V Singapore"
"Coastal Rhythm at East Coast Park","Restaurant","1206 ECP, Unit #01, Singapore 449891","Bedok","1206 ECP, Unit #01","Singapore","449891",,"SG","https://www.coastalrhythm.sg/reservation","+65 6636 3705","+6566363705","1.3055869","103.9316795","8W4J+6M Singapore"
"Stingray Forever BBQ Seafood","Seafood restaurant","1220 ECP, #01-43 East Coast Lagoon Food Village, Singapore 468960","Bedok","1220 ECP, #01-43 East Coast Lagoon Food Village","Singapore","468960",,"SG",,"+65 6245 2828","+6562452828","1.3069299","103.9349594","8W4M+QX Singapore"
"Mohamed Waseef","Indian Muslim restaurant","Block 73 Bedok South Ave 3, Singapore 460073","Bedok","Block 73 Bedok South Ave 3","Singapore","460073",,"SG",,"+65 9892 7145","+6598927145","1.3200102","103.9439584","8WCV+2H Singapore"
"East Coast Lagoon Food Village","Hawker center","1220 ECP, Singapore 468960","Bedok","1220 ECP","Singapore","468960",,"SG",,,,"1.3069299","103.9349594","8W4M+QX Singapore"
"Lux Cove Seafood 富景","Seafood restaurant","1202 ECP, #01-03 East Coast Seafood Centre, Singapore 449881","Bedok","1202 ECP, #01-03 East Coast Seafood Centre","Singapore","449881",,"SG","https://luxcoveseafood.com/","+65 6604 6777","+6566046777","1.3051218","103.9297307","8W4H+2V Singapore"
"Hua Yu Wee Seafood Restaurant","Seafood restaurant","462 Upper E Coast Rd, Singapore 466508","Bedok","462 Upper E Coast Rd","Singapore","466508",,"SG","https://www.facebook.com/Hua-Yu-Wee-Seafood-Restaurant-108620067503480","+65 6442 9313","+6564429313","1.3146801","103.9414907","8W7R+VH Singapore"
"Kinara Contemporary Indian Cuisine","Indian restaurant","164 Upper E Coast Rd, Singapore 455265","Bedok","164 Upper E Coast Rd","Singapore","455265",,"SG","http://www.thekinaragroup.com/","+65 6446 5745","+6564465745","1.3137149","103.9318463","8W7J+FP Singapore"
"JUMBO Seafood - East Coast","Seafood restaurant","1206 ECP, #01-07/08 East Coast Seafood Centre, Singapore 449883","Bedok","1206 ECP, #01-07/08 East Coast Seafood Centre","Singapore","449883",,"SG","http://www.jumboseafood.com.sg/","+65 6442 3435","+6564423435","1.3051669","103.930673","8W4J+37 Singapore"
"Lucky House Cantonese Private Kitchen 陶然居","Cantonese restaurant","267 Upper E Coast Rd, Singapore 466413","Bedok","267 Upper E Coast Rd","Singapore","466413",,"SG","https://www.facebook.com/Lucky-House-Cantonese-Private-Kitchen-%E9%99%B6%E7%84%B6%E5%B1%85-262923084041886/","+65 9823 7268","+6598237268","1.3145459","103.9351375","8W7P+R3 Singapore"
"Dan's Steaks","Restaurant","162 Upper E Coast Rd, Singapore 455259","Bedok","162 Upper E Coast Rd","Singapore","455259",,"SG","http://www.danssteaks.com/","+65 9112 4066","+6591124066","1.3137401","103.9317774","8W7J+FP Singapore"
"Long Beach UDMC","Seafood restaurant","1202 ECP, #01-04 East Coast Seafood Centre, Singapore 449881","Bedok","1202 ECP, #01-04 East Coast Seafood Centre","Singapore","449881",,"SG","http://www.longbeachseafood.com.sg/","+65 6448 3636","+6564483636","1.305063","103.930018","8W4J+22 Singapore"
"Fico","Italian restaurant","1300 East Coast Parkway, East Coast Park Area F, Singapore 468964","Bedok","1300 East Coast Parkway, East Coast Park Area F","Singapore","468964",,"SG","https://www.ficomasseria.com/","+65 8121 7208","+6581217208","1.3104435","103.9460923","8W6W+5C Singapore"
"Diamond Kitchen","Chinese restaurant","5000F Marine Parade Rd, #01-22/23 Laguna Park Condominum, Singapore 449289","Bedok","5000F Marine Parade Rd, #01-22/23 Laguna Park Condominum","Singapore","449289",,"SG","http://www.diamondkitchen.com.sg/","+65 6448 0629","+6564480629","1.3096243","103.9309904","8W5J+R9 Singapore"
"High Tide Bistro and Bar","Restaurant","1390 ECP, PAssion WaVe @ East Coast, Singapore 468961","Bedok","1390 ECP, PAssion WaVe @ East Coast","Singapore","468961",,"SG",,"+65 9734 2649","+6597342649","1.3115115","103.9524976","8X62+JX Singapore"
"Restaurant Born","Fine dining restaurant","1 Neil Rd, #01-01, Singapore 088804","Chinatown","1 Neil Rd, #01-01","Singapore","088804",,"SG","https://restaurantborn.com/","+65 9270 8718","+6592708718","1.2803733","103.8438899","7RJV+4H Singapore"
"Nouri","Fine dining restaurant","72 Amoy St, Singapore 069891","Chinatown","72 Amoy St","Singapore","069891",,"SG","http://nouri.com.sg/","+65 9230 2477","+6592302477","1.2802746","103.8466022","7RJW+4J Singapore"
"Kaarla Wood-Fire Grill","Restaurant","88 Market St, #51-02, CapitaSpring 048948","Central Area","88 Market St, #51-02","CapitaSpring","048948",,"SG","https://www.kaarla.sg/","+65 8518 3763","+6585183763","1.2838605","103.8500779","7VM2+G2 Singapore"
"Bar-A-Thym Restaurant by Francois Mermilliod","French restaurant","18 Gemmill Ln, Singapore 069255","Chinatown","18 Gemmill Ln","Singapore","069255",,"SG","http://www.bar-a-thym.sg/","+65 6557 2224","+6565572224","1.2822684","103.8471694","7RJW+WV Singapore"
"Straits Chinese Nonya Restaurant 土生坊正宗娘惹餐馆 (1953)","Nyonya restaurant","8 Raffles Ave., #02-21 Esplanade Mall, Singapore 039802","Central Area","8 Raffles Ave., #02-21 Esplanade Mall","Singapore","039802",,"SG","https://www.straitschinese.com/","+65 6339 3683","+6563393683","1.289821","103.8562328","7VQ4+WF Singapore"
"Jū Kyū Restaurant & Bar","Restaurant","Telok Ayer St, #198, Singapore 068637","Chinatown","Telok Ayer St, #198","Singapore","068637",,"SG","https://ju-kyu-restaurant-bar.business.site/?utm_source=gmb&utm_medium=referral","+65 8819 8000","+6588198000","1.280183","103.8472502","7RJW+3W Singapore"
"Giacomo Restaurant Pte Ltd","Restaurant","Singapore","Chinatown",,,,,"SG",,"+65 6227 6819","+6562276819","1.2797411","103.8486632","7RHX+VF Singapore"
"Shakira's Restaurant","Restaurant","Blk 7 Tampines Street 32, Tampines Mart, Singapore 529285","Tampines","Blk 7 Tampines Street 32, Tampines Mart","Singapore","529285",,"SG","https://shakira.sg/","+65 8752 6635","+6587526635","1.3544154","103.9602652","9X36+Q4 Singapore"
"Kko Kko Nara","Korean restaurant","78 Airport Blvd., #02 - 243, Singapore 819666","Changi","78 Airport Blvd., #02 - 243","Singapore","819666",,"SG","http://www.kkokkonara.com/","+65 6242 8720","+6562428720","1.3600069","103.9893889","9X6Q+2Q Singapore"
"Ichikokudo Hokkaido Ramen","Japanese restaurant","65 Airport Blvd., #B2-58 Terminal 3, Singapore 819663","Changi","65 Airport Blvd., #B2-58 Terminal 3","Singapore","819663",,"SG","http://www.ichikokudo.com/",,,"1.3563764","103.986504","9X4P+HJ Singapore"
"Jade Chicken Rice Restaurant","Hawker stall","10 Anson Rd, #01-04 International Plaza, Singapore 079903","Tanjong Pagar","10 Anson Rd, #01-04 International Plaza","Singapore","079903",,"SG","https://jade-chicken-rice-restaurant.business.site/?utm_source=gmb&utm_medium=referral","+65 8023 6576","+6580236576","1.276109","103.845924","7RGW+C9 Singapore"
"PAUL Le Café","French restaurant","Changi Airport Terminal 1 Departure/ Transit lounge West Level 2, #02-26, Singapore 819642","Changi","Changi Airport Terminal 1 Departure/ Transit lounge West Level 2, #02-26","Singapore","819642",,"SG","http://www.paul-singapore.com/",,,"1.36277","103.9892174","9X7Q+4M Singapore"
"King Omar Restaurant","Indian Muslim restaurant","878C Tampines Ave 8, #01-66, Singapore 523878","Tampines","878C Tampines Ave 8, #01-66","Singapore","523878",,"SG",,"+65 8452 3053","+6584523053","1.3513529","103.9294722","9W2H+GQ Singapore"
"Enak Enak Restaurant","Halal restaurant","1202 ECP, #01-01 East Coast Seafood Centre, Singapore 449881","Bedok","1202 ECP, #01-01 East Coast Seafood Centre","Singapore","449881",,"SG","https://www.enakenakrestaurant.com/","+65 6876 5911","+6568765911","1.305045","103.9295399","8W4H+2R Singapore"
"Tanjong Beach Club","Restaurant","120 Tanjong Beach Walk, Singapore 098942","Southern Islands","120 Tanjong Beach Walk","Singapore","098942",,"SG","http://www.tanjongbeachclub.com/","+65 9750 5323","+6597505323","1.243299","103.828128","6RVH+87 Singapore"
"Una Una (Japanese Restaurant)","Unagi restaurant","1 HarbourFront Walk, #02 - 94, Singapore 098585","Bukit Merah","1 HarbourFront Walk, #02 - 94","Singapore","098585",,"SG",,"+65 6252 5918","+6562525918","1.2637151","103.8220786","7R7C+FR Singapore"
"Hwang Sil Jjajang Jjampong specialty restaurant","Korean restaurant","38 Maxwell Rd, #01-05, Singapore 069116","Chinatown","38 Maxwell Rd, #01-05","Singapore","069116",,"SG",,"+65 6224 4371","+6562244371","1.27929","103.8449588","7RHV+PX Singapore"
"McDonald's Changi Airport Terminal 2 (T2) Transit Lounge","Hamburger restaurant","Changi Airport Terminal 2 Departure/ Transit Lounge Central, #36-070, Singapore 819643","Changi","Changi Airport Terminal 2 Departure/ Transit Lounge Central, #36-070","Singapore","819643",,"SG","https://www.mcdonalds.com.sg/","+65 6777 3777","+6567773777","1.3544789","103.989042","9X3Q+QJ Singapore"
"Sukiya Gyudon • Curry (Jewel)","Japanese restaurant","78 Airport Boulevard, #B2-200, Jewel, Singapore Changi Airport, Singapore 819666","Changi","78 Airport Boulevard, #B2-200, Jewel, Singapore Changi Airport","Singapore","819666",,"SG","http://www.sukiya.com.sg/",,,"1.3602982","103.9898914","9X6Q+4X Singapore"
"Hilltop Garden Restaurant","Restaurant","91 Bukit Batok West Ave 2, Singapore 659206","Bukit Batok","91 Bukit Batok West Ave 2","Singapore","659206",,"SG","http://www.qianxi.com.sg/","+65 6316 5500","+6563165500","1.3525875","103.7494101","9P3X+2Q Singapore"
"Fu Zhen Seafood Restaurant","Fish and seafood restaurant","283 Bukit Batok East Ave 3, Block 283, Singapore 650283","Bukit Batok","283 Bukit Batok East Ave 3, Block 283","Singapore","650283",,"SG","https://www.facebook.com/profile.php?id=100066508998462","+65 6563 9255","+6565639255","1.3469288","103.7576489","8QW5+Q3 Singapore"
