"title","totalScore","reviewsCount","street","city","state","countryCode","website","phone","categoryName","url"
"88 Seafood","4.2","35","27 W Coast Hwy, #01-12","Singapore",,"SG","https://www.orto.sg/dining/88seafood/","+65 8685 2181","Chinese restaurant","https://www.google.com/maps/search/?api=1&query=88%20Seafood&query_place_id=ChIJsdtvKvQb2jERSCd1FovDxtQ"
"Song Hua Jiang Restaurant","4.2","263","#01-17, 306 Woodlands Street 31","Singapore",,"SG",,"+65 6362 1885","Chinese restaurant","https://www.google.com/maps/search/?api=1&query=Song%20Hua%20Jiang%20Restaurant&query_place_id=ChIJ-676qVIS2jEROJTqdPfsls0"
"Canopy HortPark","4.1","1340","#01-01, 33 Hyderabad Road, HortPark","Singapore",,"SG","http://www.canopygardendining.com/","+65 6556 1533","Restaurant","https://www.google.com/maps/search/?api=1&query=Canopy%20HortPark&query_place_id=ChIJD2-oVRwb2jERt-DXYPcnbQs"
"Aburi-EN (Causeway Point)","4.7","889","1 Woodlands Square, #02-09B Causeway Point","Singapore",,"SG","http://aburi-en.com/","+65 6760 2081","Japanese restaurant","https://www.google.com/maps/search/?api=1&query=Aburi-EN%20(Causeway%20Point)&query_place_id=ChIJvdEmtN4T2jERFhEliM0N41k"
"Super Thai by Soi Aroy @ Pasir Panjang","4.8","585","91 Pasir Panjang Rd","Singapore",,"SG","http://www.super-thai.com/","+65 9344 1680","Thai restaurant","https://www.google.com/maps/search/?api=1&query=Super%20Thai%20by%20Soi%20Aroy%20%40%20Pasir%20Panjang&query_place_id=ChIJNS_COSgb2jERjIDRcoSr4hw"
"Thashan's curry","4.1","21","50 Woodlands Industrial Park E4","Singapore",,"SG",,"+65 8909 9917","Indian restaurant","https://www.google.com/maps/search/?api=1&query=Thashan's%20curry&query_place_id=ChIJn3Ctq0kT2jERHCoJmTeKP8s"
"Curry Paradise","4.4","124","218 Pasir Panjang Rd, #01-12","Singapore",,"SG",,"+65 9189 5350 ext. 90033861","Indian restaurant","https://www.google.com/maps/search/?api=1&query=Curry%20Paradise&query_place_id=ChIJpQiGY54b2jERv98ZCFmqiyA"
"Volta Bistro","4.7","27","27 W Coast Hwy, #01-02/03","Singapore",,"SG","https://www.facebook.com/voltabistro","+65 8505 6801","Bistro","https://www.google.com/maps/search/?api=1&query=Volta%20Bistro&query_place_id=ChIJJVd0jNEb2jER5E621hKhmoA"
"Hillman 99 Restaurant","4.2","561","99 Pasir Panjang Rd","Singapore",,"SG","https://manhillrestaurant.com/","+65 6474 6835","Chinese restaurant","https://www.google.com/maps/search/?api=1&query=Hillman%2099%20Restaurant&query_place_id=ChIJp3Xzzb4b2jER-VtJo_5e5fI"
"COLLIN'S® Jurong Point","4.4","640","63 Jurong West Central 3, #03-58/59 Jurong Point","Singapore",,"SG","https://www.collins.sg/","+65 6261 5910","Western restaurant","https://www.google.com/maps/search/?api=1&query=COLLIN'S%C2%AE%20Jurong%20Point&query_place_id=ChIJs3wEGBwP2jERpes4n8baDG0"
"Pallet Cafe Bar","4.9","52","4 Jln Mat Jambol, #01-07B","Bijou",,"SG",,"+65 8812 5002","Bistro","https://www.google.com/maps/search/?api=1&query=Pallet%20Cafe%20Bar&query_place_id=ChIJA17IiV4X2jERbNjg85Wi4NU"
"Rasa Istimewa Waterfront Restaurant","4.3","1887","6A Admiralty Rd W","Singapore",,"SG","https://www.rasaistimewa.sg/","+65 6366 9339","Halal restaurant","https://www.google.com/maps/search/?api=1&query=Rasa%20Istimewa%20Waterfront%20Restaurant&query_place_id=ChIJDVTpC_8S2jERSz_upFj7WYo"
"Texas Chicken (Causeway Point)","4.3","1506","1 Woodlands Square, #01-14/15 Causeway Point","Singapore",,"SG","https://sg.texaschicken.com/","+65 6894 8677","Fast food restaurant","https://www.google.com/maps/search/?api=1&query=Texas%20Chicken%20(Causeway%20Point)&query_place_id=ChIJJ2dCl6gT2jEROf9jJh3QsbA"
"PastaMania - Causeway Point","4.3","1129","1 Woodlands Square, B1-20 Causeway Point","Singapore",,"SG","http://www.pastamania.com.sg/locations/","+65 6891 1349","Italian restaurant","https://www.google.com/maps/search/?api=1&query=PastaMania%20-%20Causeway%20Point&query_place_id=ChIJ_QCRl6gT2jERBU3Rp_2ZQlI"
"Lao Huo Tang Restaurant","3.7","73","1 Woodlands Square, #03-02 Causeway Point","Singapore",,"SG",,"+65 6219 5716","Restaurant","https://www.google.com/maps/search/?api=1&query=Lao%20Huo%20Tang%20Restaurant&query_place_id=ChIJ2Uv5MfkT2jERDRoDkE8_m2Y"
"Gravy Bistro and Bar","4.7","16","40 Pasir Panjang Rd, #02-36","Singapore",,"SG","https://gravy-bistro-and-bar.business.site/?utm_source=gmb&utm_medium=referral","+65 9723 3336","Bistro","https://www.google.com/maps/search/?api=1&query=Gravy%20Bistro%20and%20Bar&query_place_id=ChIJw2p2unMb2jERNZOc0g8Xqak"
"Ivan's Carbina","4.2","453","354A Woodlands Ave 5","Singapore",,"SG","https://m.facebook.com/Carbinawesternfood/","+65 8292 8599","Restaurant","https://www.google.com/maps/search/?api=1&query=Ivan's%20Carbina&query_place_id=ChIJJfLIHmMT2jERL8KjuVQjzck"
"Zhong Tai Seafood Restaurant","3.4","20","Blk 354-A Woodlands Ave 1, #01-01","Singapore",,"SG",,"+65 6368 9738","Restaurant","https://www.google.com/maps/search/?api=1&query=Zhong%20Tai%20Seafood%20Restaurant&query_place_id=ChIJG9zl1YQT2jERwK3dbpbplx8"
"Crystal Jade Hong Kong Kitchen","3.9","540","Woodlands Square, #05-10 Causeway Point","Singapore",,"SG","http://www.crystaljade.com/","+65 8366 8498","Chinese restaurant","https://www.google.com/maps/search/?api=1&query=Crystal%20Jade%20Hong%20Kong%20Kitchen&query_place_id=ChIJ7eVXlqgT2jERZYfylUSl-Hs"
"ASHMI Restaurant","3.9","255","124 Pasir Panjang Rd","Singapore",,"SG",,"+65 6473 6116","Restaurant","https://www.google.com/maps/search/?api=1&query=ASHMI%20Restaurant&query_place_id=ChIJPan-Wrkb2jERK7WQNN3g9Xw"
"Saizeriya (Woods Square Mall)","3.6","184","6 Woodlands Square, #B2-22, Woods Square Mall","Singapore",,"SG","https://www.saizeriya.com.sg/","+65 6908 6571","Italian restaurant","https://www.google.com/maps/search/?api=1&query=Saizeriya%20(Woods%20Square%20Mall)&query_place_id=ChIJ2_OSvfoT2jERQirpavI65OQ"
"Bali Thai (Causeway Point)","3.8","419","1 Woodlands Square, #05-05","Singapore",,"SG","http://www.balithai.com.sg/","+65 6894 1363","Thai restaurant","https://www.google.com/maps/search/?api=1&query=Bali%20Thai%20(Causeway%20Point)&query_place_id=ChIJoSF1m6gT2jERQQjvKZygmVA"
"Black Cherry","4.6","156","4 Jln Mat Jambol, #01-09","Singapore",,"SG","https://www.blackcherry.sg/","+65 6957 5567","Italian restaurant","https://www.google.com/maps/search/?api=1&query=Black%20Cherry&query_place_id=ChIJFWpJI2Yb2jERjwhaLgptMNM"
"HooHa Cafe","4.3","44","3 South Buona Vista Rd, #B1-06 Viva Vista Mall","Singapore",,"SG","https://www.chope.co/singapore-restaurants/restaurant/hooha-cafe","+65 6250 6348","Restaurant","https://www.google.com/maps/search/?api=1&query=HooHa%20Cafe&query_place_id=ChIJ08b9RKUb2jER4HbtO6l_RIg"
"Yuzutei Japanese Restaurant","4.3","250","100G Pasir Panjang Rd #01-01Interlocal Centre","Singapore",,"SG","https://yuzuteisg.business.site/?utm_source=gmb&utm_medium=referral","+65 9689 4092","Restaurant","https://www.google.com/maps/search/?api=1&query=Yuzutei%20Japanese%20Restaurant&query_place_id=ChIJJUKV97gb2jERKbp1AJJ9f4w"
"Vineyard","4.5","1588","33 Hyderabad Road, #02-02 Hort Park","Singapore",,"SG","https://www.vineyardhortpark.com.sg/","+65 3125 1860","French restaurant","https://www.google.com/maps/search/?api=1&query=Vineyard&query_place_id=ChIJw3lZ6ccb2jERiNboEqNCFic"
"Harry's Mapletree Business City","3.8","123","40 Pasir Panjang Rd, #02-43/44 Mapletree Business City II","Singapore",,"SG","http://harrys.com.sg/","+65 8268 8092","Restaurant","https://www.google.com/maps/search/?api=1&query=Harry's%20Mapletree%20Business%20City&query_place_id=ChIJI3jdvMAb2jERtq4a-GxN5ZU"
"Al-Ameen Eating Corner","4.2","3956","35 Marsiling Industrial Estate Road 3 #01-11 Central Industrial Estate","Singapore",,"SG","https://m.facebook.com/pages/Al-Ameen/361765083896082","+65 6366 1740","Coffee shop","https://www.google.com/maps/search/?api=1&query=Al-Ameen%20Eating%20Corner&query_place_id=ChIJ2SMYHbIT2jERVptk4MxCg00"
"Barrels","4.3","192","34 South Buona Vista Rd","Singapore",,"SG","https://barrels.business.site/?utm_source=gmb&utm_medium=referral","+65 6472 1834","Restaurant","https://www.google.com/maps/search/?api=1&query=Barrels&query_place_id=ChIJ7Z3gWqUb2jER2usAUakliwM"
"Poulet - Causeway Point","4.7","4760","1 Woodlands Square, #B1 - 25 Causeway Point","Singapore",,"SG","https://www.poulet.com.sg/","+65 6219 5122","Restaurant","https://www.google.com/maps/search/?api=1&query=Poulet%20-%20Causeway%20Point&query_place_id=ChIJ04r6T6QT2jERFCJZUCaQpZ4"
"Cheval Cafe Bar Bistro","4.3","694","1 Equestrian Walk, Singapore Turf Club Riding Centre","Singapore",,"SG","http://cheval.com.sg/","+65 6269 0918","Bistro","https://www.google.com/maps/search/?api=1&query=Cheval%20Cafe%20Bar%20Bistro&query_place_id=ChIJde_Sl0kS2jERbyHYOmhy2u0"
"BOMBAY DINING-NORTH INDIAN RESTAURANT","3.6","279","89 Pasir Panjang Rd","Singapore",,"SG",,"+65 6475 5855","Restaurant","https://www.google.com/maps/search/?api=1&query=BOMBAY%20DINING-NORTH%20INDIAN%20RESTAURANT&query_place_id=ChIJbXfs1r4b2jERe6bLvwyx4Jo"
"Esarn Thai Corner Pasir Panjang","4.4","554","130 Pasir Panjang Rd","Singapore",,"SG","https://social.quandoo.com/en/groups/Esarn%20Thai%20Corner%20-%20Pasir%20Panjang","+65 6473 3716","Thai restaurant","https://www.google.com/maps/search/?api=1&query=Esarn%20Thai%20Corner%20Pasir%20Panjang&query_place_id=ChIJFwkLXLkb2jERSCQmKC7_PXw"
"99 Buona Vista Kitchen","4.2","462","22 South Buona Vista Rd","Singapore",,"SG","https://www.facebook.com/pages/99-Kitchen-22-South-Buona-Vista/225258130841891","+65 9241 1352","Chinese restaurant","https://www.google.com/maps/search/?api=1&query=99%20Buona%20Vista%20Kitchen&query_place_id=ChIJR4mBArAb2jERMQtZDkYdvhE"
"East Treasure Chinese Restaurant (東寶) Woods Square","4.1","166","6 Woodlands Square, #01-07/08/09/10 Woods Square","Singapore",,"SG","http://www.easttreasure.com.sg/","+65 6908 5650","Chinese restaurant","https://www.google.com/maps/search/?api=1&query=East%20Treasure%20Chinese%20Restaurant%20(%E6%9D%B1%E5%AF%B6)%20Woods%20Square&query_place_id=ChIJB6GpqcIT2jER9K6akoOWj14"
"Hot Tomato","4","682","1 Woodlands Square, #02-11","Singapore",,"SG","http://www.hottomato.com.sg/","+65 6894 2685","Restaurant","https://www.google.com/maps/search/?api=1&query=Hot%20Tomato&query_place_id=ChIJ7eVXlqgT2jERGCo2lUzB8tw"
"Paradise Restaurant","4","365","93 Pasir Panjang Rd","Singapore",,"SG",,"+65 6352 0010","Indian restaurant","https://www.google.com/maps/search/?api=1&query=Paradise%20Restaurant&query_place_id=ChIJV_3I1r4b2jERXm75U0No9uo"
"Mamma Mia Trattoria E Caffè (Jurong Point)","4.7","3095","1 Jurong West Central 2, #01-48/49","Singapore",,"SG","https://www.minorfoodsingapore.com/brands/mamma-mia-trattoria-e-caffe/","+65 6250 8545","Italian restaurant","https://www.google.com/maps/search/?api=1&query=Mamma%20Mia%20Trattoria%20E%20Caff%C3%A8%20(Jurong%20Point)&query_place_id=ChIJtz-PRn0P2jERRwiNJq-2gTs"
"ALI MD KAWSAR",,"0",,,,"SG",,,"Restaurant","https://www.google.com/maps/search/?api=1&query=ALI%20MD%20KAWSAR&query_place_id=ChIJt3sTaDQH2jERcK19IkEqm84"
"Legendary Hong Kong Restaurant @ Jurong Point 香港傳奇餐廳","4.1","1752","63 Jurong West Central 3, #03-80 Jurong Point","Singapore",,"SG","http://www.lhk.com.sg/",,"Hong Kong style fast food restaurant","https://www.google.com/maps/search/?api=1&query=Legendary%20Hong%20Kong%20Restaurant%20%40%20Jurong%20Point%20%E9%A6%99%E6%B8%AF%E5%82%B3%E5%A5%87%E9%A4%90%E5%BB%B3&query_place_id=ChIJHcaYLpMP2jERjhDMRZ9A7-k"
"3 Monkeys","4.4","284","122 Pasir Panjang Rd","Singapore",,"SG","https://social.quandoo.com/en/groups/3%20Monkeys","+65 6471 3224","Fusion restaurant","https://www.google.com/maps/search/?api=1&query=3%20Monkeys&query_place_id=ChIJh1xLv8ob2jERsmnhkal2RRQ"
"Shou La Shou Beijing Restaurant","3","1","63 Jurong West Central 3","Singapore",,"SG",,,"Restaurant","https://www.google.com/maps/search/?api=1&query=Shou%20La%20Shou%20Beijing%20Restaurant&query_place_id=ChIJy64vxOwP2jERtAwUSlkV6uk"
"Douraku Sushi","4.3","31","511 Upper Jurong Rd, d'Arena","Singapore",,"SG","https://www.dourakusushi.com/","+65 6262 6996","Japanese restaurant","https://www.google.com/maps/search/?api=1&query=Douraku%20Sushi&query_place_id=ChIJKWREE2kP2jERk0CEOztT8no"
"KNS Restaurant","3.6","480","990 Jurong West Street 93, #01-01","Singapore",,"SG","https://knsrestaurant.com/","+65 6816 1633","Indian Muslim restaurant","https://www.google.com/maps/search/?api=1&query=KNS%20Restaurant&query_place_id=ChIJgbsEHOsP2jERI7yaT9xZU_Y"
"Broadway Food Centre","3.8","48","60 Gul Ln","Singapore",,"SG","http://www.broadway.com.sg/",,"Hawker center","https://www.google.com/maps/search/?api=1&query=Broadway%20Food%20Centre&query_place_id=ChIJN-9cbJMF2jERXCwXaWxgEWE"
"Xiang Xiang Vegetarian Food & Fruit","4.2","9","1 Tuas Bay Walk637753 Tuas Bay Walk","Singapore",,"SG","http://www.xiangxiangvegetarian.com/contacts","+65 6558 7855","Vegetarian restaurant","https://www.google.com/maps/search/?api=1&query=Xiang%20Xiang%20Vegetarian%20Food%20%26%20Fruit&query_place_id=ChIJHU6YBgwG2jERGlLqcQbkudM"
"Wong Chian Choy",,"0","7 Tuas Ave 3","Singapore",,"SG",,"+65 6862 1637","Restaurant","https://www.google.com/maps/search/?api=1&query=Wong%20Chian%20Choy&query_place_id=ChIJqRSFdPMF2jERq99ApkH77gQ"
"Weng Jia Cai 翁家菜","4.8","10","27 Pioneer Rd N","Singapore",,"SG","https://weng-jia-cai.business.site/?utm_source=gmb&utm_medium=referral","+65 9228 2925","Chinese restaurant","https://www.google.com/maps/search/?api=1&query=Weng%20Jia%20Cai%20%E7%BF%81%E5%AE%B6%E8%8F%9C&query_place_id=ChIJgUSQSCEF2jER3L-ikJMuXDY"
"Subway","3.9","38","30 Tuas Bay Dr, #01-1B Syscon Building","Singapore",,"SG","http://www.sub2u.com/","+65 6592 4911","Fast food restaurant","https://www.google.com/maps/search/?api=1&query=Subway&query_place_id=ChIJ-1-yDoAH2jER9MBc-sqEWdg"
"Rasa Istimewa Restaurant @ SAFRA Jurong","4.4","363","333 Boon Lay Wy, #2B-01","Singapore",,"SG","http://www.rasaistimewa.sg/","+65 6877 9339","Restaurant","https://www.google.com/maps/search/?api=1&query=Rasa%20Istimewa%20Restaurant%20%40%20SAFRA%20Jurong&query_place_id=ChIJ6w20tYcP2jERTgGjpchB0Ng"
"Uncle Leong Signatures (FairPrice Hub)","3.6","448","1 Joo Koon Cir, #03-26","Singapore",,"SG","http://www.uncleleongsignatures.com/","+65 8878 0803","Chinese restaurant","https://www.google.com/maps/search/?api=1&query=Uncle%20Leong%20Signatures%20(FairPrice%20Hub)&query_place_id=ChIJ1bio5vwV2jERYTVD256o8FQ"
"Zen's Taste 真味","5","1","71 Pioneer Rd","Singapore",,"SG",,,"Hawker stall","https://www.google.com/maps/search/?api=1&query=Zen's%20Taste%20%E7%9C%9F%E5%91%B3&query_place_id=ChIJOey5JtcF2jERH_RygE3XPz4"
"Devil's Kitchen","4.4","189","1 Yuan Ching Rd, #01-03A/07","Singapore",,"SG","https://www.facebook.com/devilskitchenby15Five/","+65 6816 9868","Bistro","https://www.google.com/maps/search/?api=1&query=Devil's%20Kitchen&query_place_id=ChIJB198_AoF2jER7pG_JPr3f4U"
"iEat Canteen","3.9","206","47 Tuas South Ave 1","Singapore",,"SG","http://ieat.com.sg/","+65 8486 1721","Coffee shop","https://www.google.com/maps/search/?api=1&query=iEat%20Canteen&query_place_id=ChIJ930CjQUG2jERtd_vGrS5cAI"
"Makkal Vilas","4.1","137","11 Tech Park Cres","Singapore",,"SG",,"+65 8245 5484","Indian restaurant","https://www.google.com/maps/search/?api=1&query=Makkal%20Vilas&query_place_id=ChIJoxHW9AAH2jERDulOcSOV3nY"
"XI YAN SEAFOOD RESTAURANT (禧宴海鲜酒家)","4.2","241","241 Jln. Ahmad Ibrahim","Singapore",,"SG","http://xi-yan-seafood-restaurant.business.site/","+65 8938 1118","Restaurant","https://www.google.com/maps/search/?api=1&query=XI%20YAN%20SEAFOOD%20RESTAURANT%20(%E7%A6%A7%E5%AE%B4%E6%B5%B7%E9%B2%9C%E9%85%92%E5%AE%B6)&query_place_id=ChIJk_OaEA4F2jERK4K76TfkSGc"
"SZ Kitchen @ D’Arena","4.7","42","511 Upper Jurong Rd, Blk E Level 1","Singapore",,"SG","https://szkitchendarena.business.site/?utm_source=gmb&utm_medium=referral","+65 8013 0558","Fish and seafood restaurant","https://www.google.com/maps/search/?api=1&query=SZ%20Kitchen%20%40%20D%E2%80%99Arena&query_place_id=ChIJ2cHrHK8P2jERrEVc8kgYqmg"
"Ashika Restaurant & Catering Pte Ltd","4","1",,"Singapore",,"SG",,"+65 6369 9890","Restaurant","https://www.google.com/maps/search/?api=1&query=Ashika%20Restaurant%20%26%20Catering%20Pte%20Ltd&query_place_id=ChIJKUrz544P2jER_YwTthcDGPQ"
"WESTEND","4.3","41","511 Upper Jurong Rd, #01-05 d'Arena","Singapore",,"SG",,"+65 9834 2993","Restaurant","https://www.google.com/maps/search/?api=1&query=WESTEND&query_place_id=ChIJeVlAsisP2jERNu8eyqHXSzk"
"I.Host Foodworks & Catering Pte Ltd",,"0","6 Tuas Bay Walk","Singapore",,"SG",,"+65 6261 4600","Fusion restaurant","https://www.google.com/maps/search/?api=1&query=I.Host%20Foodworks%20%26%20Catering%20Pte%20Ltd&query_place_id=ChIJ48QhjgsG2jERxyZjcxDGJwA"
"D9 Pier Seafood & Tze Char","4","5","9d Jurong Pier Rd","Singapore",,"SG","https://instagram.com/d9seafood?igshid=YmMyMTA2M2Y=","+65 8381 1200","Seafood restaurant","https://www.google.com/maps/search/?api=1&query=D9%20Pier%20Seafood%20%26%20Tze%20Char&query_place_id=ChIJ6w5AjroF2jERulAz8yN6U5Y"
"Staff Canteen @ Tuas South Avenue 6","4.5","2","35 Tuas South Ave 6","Singapore",,"SG",,"+65 6778 2810","Restaurant","https://www.google.com/maps/search/?api=1&query=Staff%20Canteen%20%40%20Tuas%20South%20Avenue%206&query_place_id=ChIJ72deZdcF2jERRUV1Z2kJmYQ"
"Nandhana’s Restaurant","3.6","268","1 Joo Koon Cir","Singapore",,"SG","http://www.nandhanas.com/?utm_source=google&utm_medium=wix_google_business_profile&utm_campaign=7268294159237354021","+65 6904 3766","Indian restaurant","https://www.google.com/maps/search/?api=1&query=Nandhana%E2%80%99s%20Restaurant&query_place_id=ChIJO4L-b8EF2jERfcF00jX9Ae8"
"Santoshimaa Caterers Pte. Ltd.","1","1","71 Pioneer Rd","Singapore",,"SG",,,"Restaurant","https://www.google.com/maps/search/?api=1&query=Santoshimaa%20Caterers%20Pte.%20Ltd.&query_place_id=ChIJN4w4Qe4F2jER_6AHA-dcZao"
"Le Top","5","1","47 Tuas South Ave 1","Singapore",,"SG",,,"Restaurant","https://www.google.com/maps/search/?api=1&query=Le%20Top&query_place_id=ChIJzQXk-bEH2jERfzQavK1Oxx4"
"JSN RESTAURANT PTE. LTD","4.3","44","No 1 Soon Lee St","Singapore",,"SG",,"+65 8384 3433","Restaurant","https://www.google.com/maps/search/?api=1&query=JSN%20RESTAURANT%20PTE.%20LTD&query_place_id=ChIJp6uq_Y4P2jERX_18Em1CjWc"
"Greenhouse Bistro","4.2","290","30 Tuas Bay Dr, #01-00","Singapore",,"SG",,"+65 9822 0053","Restaurant","https://www.google.com/maps/search/?api=1&query=Greenhouse%20Bistro&query_place_id=ChIJ5UCkFuEH2jERbLSqUpAAb4c"
"GV RESTAURANT PTE LTD","4.7","3","109 Tuas View Walk 1","Singapore",,"SG",,"+65 8268 2648","Indian restaurant","https://www.google.com/maps/search/?api=1&query=GV%20RESTAURANT%20PTE%20LTD&query_place_id=ChIJi23YbQ4H2jERUj66I5FSJiU"
"Tuas Food Court","3.7","13","69 Tuas Bay Dr","Singapore",,"SG",,,"Restaurant","https://www.google.com/maps/search/?api=1&query=Tuas%20Food%20Court&query_place_id=ChIJRW3GpAgG2jERjcD97jht7uQ"
"Long King Canteen","4.1","250","69R Tuas South Ave 1, #01-01","Singapore",,"SG",,,"Asian restaurant","https://www.google.com/maps/search/?api=1&query=Long%20King%20Canteen&query_place_id=ChIJMxwNLgwG2jERnctUAtq_oaA"
"AL-DIA Indian Muslim Restaurant","3.7","7","2 Tuas South Street 2","Singapore",,"SG",,,"Indian restaurant","https://www.google.com/maps/search/?api=1&query=AL-DIA%20Indian%20Muslim%20Restaurant&query_place_id=ChIJWWpwVksH2jERIN9b4s7D0Ok"
"AA Restaurant","3.5","39","01-12 14 Tuas Ave 1","Singapore",,"SG",,"+65 9477 6642","Indian restaurant","https://www.google.com/maps/search/?api=1&query=AA%20Restaurant&query_place_id=ChIJqb2jphoF2jERDiStSMJ99FU"
"Fillmes Ris Bar",,"0","51 Pioneer Sector 1","Singapore",,"SG",,,"Bar & grill","https://www.google.com/maps/search/?api=1&query=Fillmes%20Ris%20Bar&query_place_id=ChIJdxO0PcQF2jERSDao4-lC758"
"KJM CURRY HOUSE & RESTAURANT","3.2","16","3 Sakra Rd","Singapore",,"SG",,"+65 9865 1168","Indian restaurant","https://www.google.com/maps/search/?api=1&query=KJM%20CURRY%20HOUSE%20%26%20RESTAURANT&query_place_id=ChIJDeLY65UE2jERLYIiZj1snS4"
"Jai Raja's Pte Ltd","4","82","15 Tuas View Cl, 92 Tuas South Ave 3","Singapore",,"SG",,"+65 9850 7386","Restaurant","https://www.google.com/maps/search/?api=1&query=Jai%20Raja's%20Pte%20Ltd&query_place_id=ChIJKzSDq80H2jERq8NzVWnR-uk"
"Mariners' Corner Restaurant","4.3","992","106 Clementi Street 12, #01-40","Singapore",,"SG","https://www.facebook.com/pages/category/Family-Style-Restaurant/Mariners-Corner-Restaurant-164932550195771/","+65 6224 9928","Restaurant","https://www.google.com/maps/search/?api=1&query=Mariners'%20Corner%20Restaurant&query_place_id=ChIJbfDuOGwZ2jER0mtQ4rwdx7Q"
"Peperoni Pizzeria @ Upper Thomson","4.5","865","267 Upper Thomson Rd","Singapore",,"SG","https://www.peperoni.com.sg/","+65 6681 6726","Italian restaurant","https://www.google.com/maps/search/?api=1&query=Peperoni%20Pizzeria%20%40%20Upper%20Thomson&query_place_id=ChIJP8NvoDoX2jERs9aVRfLWaEc"
"Parker Korean Restaurant","4","248","209 Upper Thomson Rd","Singapore",,"SG","https://parkerrestaurant.wixsite.com/parkerrestaurant","+65 6251 2606","Korean restaurant","https://www.google.com/maps/search/?api=1&query=Parker%20Korean%20Restaurant&query_place_id=ChIJGbcRWToX2jERSpPRYiSt_74"
"Tandoori Corner","4.3","491","400 Balestier Rd, #01-12 Balestier Plaza","Singapore",,"SG","http://www.tandooricorner.com.sg/","+65 6250 0200","Indian restaurant","https://www.google.com/maps/search/?api=1&query=Tandoori%20Corner&query_place_id=ChIJU0CzkpEX2jERXkML1VNm1_A"
"Shake Shack Junction 8","3.7","200","9 Bishan Pl, #01-51 Shopping Centre, Junction 8","Singapore",,"SG","http://shakeshack.com.sg/",,"Western restaurant","https://www.google.com/maps/search/?api=1&query=Shake%20Shack%20Junction%208&query_place_id=ChIJeUCn2PgX2jERUsNa4VaTMqA"
"JuFu Mala Kitchen Restaurant","4","23","11 Lor 3 Toa Payoh #01-34, Stall 4 Block C Food Court, Jackson Square","Singapore",,"SG","http://www.jufucafe.com/","+65 8646 3609","Mandarin restaurant","https://www.google.com/maps/search/?api=1&query=JuFu%20Mala%20Kitchen%20Restaurant&query_place_id=ChIJA-aa1WUX2jERA1GubaaAv5Q"
"Peach Garden @ Thomson Plaza","3.7","1901","301 Upper Thomson Rd, #01-88 Thomson Plaza","Singapore",,"SG","http://www.peachgarden.com.sg/thomson-plaza","+65 6451 3233","Chinese restaurant","https://www.google.com/maps/search/?api=1&query=Peach%20Garden%20%40%20Thomson%20Plaza&query_place_id=ChIJN0cGKDAX2jERKPM7k6kC5ug"
"East Treasure Chinese Restaurant Toa Payoh","4.1","316","470 Lor 6 Toa Payoh, #01-72","Singapore",,"SG","https://easttreasure.com.sg/","+65 6252 4645","Chinese restaurant","https://www.google.com/maps/search/?api=1&query=East%20Treasure%20Chinese%20Restaurant%20Toa%20Payoh&query_place_id=ChIJFwoBo3IZ2jERcQK7JSgvT1k"
"Shaan North Indian Restaurant","4.7","20","31 Ocean Way #01-08 Quayside Isle, Sentosa Cove","Singapore",,"SG","https://www.shaan.sg/",,"Indian restaurant","https://www.google.com/maps/search/?api=1&query=Shaan%20North%20Indian%20Restaurant&query_place_id=ChIJjf0e-rMf2jERh_tGEBLxdjQ"
"FOC Sentosa","4.2","1445","110 Tanjong Beach Walk","Singapore",,"SG","http://www.focsentosa.com/","+65 6100 1102","Spanish restaurant","https://www.google.com/maps/search/?api=1&query=FOC%20Sentosa&query_place_id=ChIJBRTle6ke2jERAykxAgtBm68"
"Good Old Days Food Court","4.1","1775","60 Siloso Bch Walk","Singapore",,"SG","https://www.mountfaberleisure.com/restaurant/good-old-days/","+65 6361 0088","Singaporean restaurant","https://www.google.com/maps/search/?api=1&query=Good%20Old%20Days%20Food%20Court&query_place_id=ChIJAQAAsAAc2jERbbHzLY1ImcM"
"Feng Shui Inn","3.9","213","8 Sentosa Gateway, Hotel, Lobby, #01-521 & 522 Resorts World Sentosa, Equarius","Singapore",,"SG","https://www.rwsentosa.com/en/restaurants/signature-restaurants/feng-shui-inn","+65 6577 6599","Chinese restaurant","https://www.google.com/maps/search/?api=1&query=Feng%20Shui%20Inn&query_place_id=ChIJIZfT4P0b2jERv45K2bx1LzI"
"Greenwood Fish Market","4.3","2239","31 Ocean Way, #01 - 04 / 05","Singapore",,"SG","http://greenwoodfishmarket.com/","+65 6262 0450","Seafood restaurant","https://www.google.com/maps/search/?api=1&query=Greenwood%20Fish%20Market&query_place_id=ChIJw4tLzbUe2jERvRFvI6krOhY"
"Royal Taj @ Village Hotel","4.6","585","2, block 16 Gunner Ln, #02-06 Singapore Mess Hall","Singapore",,"SG","http://www.royaltaj.sg/","+65 9118 5896","Indian restaurant","https://www.google.com/maps/search/?api=1&query=Royal%20Taj%20%40%20Village%20Hotel&query_place_id=ChIJt7XjpoMb2jERHu6tRHI8Ap8"
"eM By The Marina","4.2","229","1 Cove Ave, #02-14 Sentosa Cove Arrival Plaza","Singapore",,"SG","https://embythemarina.business.site/?utm_source=gmb&utm_medium=referral","+65 6271 2802","Bar","https://www.google.com/maps/search/?api=1&query=eM%20By%20The%20Marina&query_place_id=ChIJB5IMHLQe2jERqCVyS_utle8"
"Tea House by Soup Restaurant - IMM","4.1","455","2 Jurong East Street 21","Singapore",,"SG","http://www.souprestaurant.com.sg/","+65 6899 1811","Cantonese restaurant","https://www.google.com/maps/search/?api=1&query=Tea%20House%20by%20Soup%20Restaurant%20-%20IMM&query_place_id=ChIJHWpH1g0Q2jERAwYNmAwf7_g"
"Maria restaurant pvt ltd","3.3","3","10 Lor Bakar Batu","Singapore",,"SG",,,"Indian restaurant","https://www.google.com/maps/search/?api=1&query=Maria%20restaurant%20pvt%20ltd&query_place_id=ChIJMbMzZ7YX2jERh8rkLD_rlVA"
"Curry Leaf Restaurant Pte. Ltd.",,"0","165 Tg Pagar Rd","Singapore",,"SG",,"+65 6220 2040","Restaurant","https://www.google.com/maps/search/?api=1&query=Curry%20Leaf%20Restaurant%20Pte.%20Ltd.&query_place_id=ChIJKZoOX2sZ2jERuMoj1rZ2tp4"
"Paradise Classic","4.3","210","78 Airport Blvd., #04 - 244","Singapore",,"SG","https://www.paradisegp.com/brand-paradise-classic/","+65 6214 3129","Chinese restaurant","https://www.google.com/maps/search/?api=1&query=Paradise%20Classic&query_place_id=ChIJGz-Oaew92jERYyrGyHmlQOc"
"Jack's Place Jewel Changi Airport","3.9","818","78 Airport Blvd., #04-219","Singapore",,"SG","https://www.jacksplace.com.sg/","+65 6214 9173","Restaurant","https://www.google.com/maps/search/?api=1&query=Jack's%20Place%20Jewel%20Changi%20Airport&query_place_id=ChIJzSMwBxg92jERi4BvmDhuszQ"
"Pondok Daun Upeh Restaurant","3.5","93","929 Tampines Street 91, Block 929","Singapore",,"SG",,,"Restaurant","https://www.google.com/maps/search/?api=1&query=Pondok%20Daun%20Upeh%20Restaurant&query_place_id=ChIJ87jGLhU92jERkjTpzSwip7c"
"Sushiro Jewel Changi","4.1","213","78 Airport Boulevard B2-227/228 Jewel, Singapore Changi Airport","Singapore",,"SG","https://sushiro-jewel-changi.business.site/?utm_source=gmb&utm_medium=referral","+65 6513 4115","Conveyor belt sushi restaurant","https://www.google.com/maps/search/?api=1&query=Sushiro%20Jewel%20Changi&query_place_id=ChIJQ51o40Y92jERStkiz0uY78w"
"J.B. Ah Meng Restaurant","4.2","2863","534 Geylang Rd","Singapore",,"SG",,"+65 6741 2418","Chinese restaurant","https://www.google.com/maps/search/?api=1&query=J.B.%20Ah%20Meng%20Restaurant&query_place_id=ChIJLQ-16_4Z2jERFj2nuT9QXas"
"5 Star Restaurant & Catering Pte Ltd","4.9","8",,"Singapore",,"SG","https://www.sgpbusiness.com/company/5-Star-Restaurant-Catering-Pte-Ltd","+65 6636 3129","Restaurant","https://www.google.com/maps/search/?api=1&query=5%20Star%20Restaurant%20%26%20Catering%20Pte%20Ltd&query_place_id=ChIJ45zXWTo92jERt4DKO1seblM"
"SomBoon Thai restaurant","4.2","6","430 Upper Changi Rd, #01-05 East Village","Singapore",,"SG",,,"Thai restaurant","https://www.google.com/maps/search/?api=1&query=SomBoon%20Thai%20restaurant&query_place_id=ChIJXSE9wg492jERhhph-xdQiEg"
"Tim Ho Wan","3.8","227","No 02-223, Jewel Changi Airport, 78 Airport Blvd., Changi Jewel","Singapore",,"SG","http://restaurant.timhowan.com/tim-ho-wan-dim-sum-restaurant-changi-jewel-singapore-92431/Home?utm_source=locator&utm_medium=googleplaces","+65 6513 8588","Dim sum restaurant","https://www.google.com/maps/search/?api=1&query=Tim%20Ho%20Wan&query_place_id=ChIJNfs5xYs82jERqGAEgpY6ZsM"
"Itacho Sushi","3","214","78 Airport Blvd., #B2 - 210","Singapore",,"SG","https://instagram.com/itachosushisg","+65 6214 9986","Sushi restaurant","https://www.google.com/maps/search/?api=1&query=Itacho%20Sushi&query_place_id=ChIJv1RBYok82jEROzr69HgzTWk"
"Briyani Point Restaurant @76 Shenton Way #0101","4","22","76 Shenton Wy, #0101","Singapore",,"SG","https://briyanipointrestaurant76shentonway0101.business.site/?utm_source=gmb&utm_medium=referral","+65 6974 7578","Indian restaurant","https://www.google.com/maps/search/?api=1&query=Briyani%20Point%20Restaurant%20%4076%20Shenton%20Way%20%230101&query_place_id=ChIJ6ZVisCEZ2jERdC_cKVH7P1s"
"Azman Seafood Restaurant","4.2","5","58 New Upper Changi Rd, #01-185","Singapore",,"SG",,,"Hawker stall","https://www.google.com/maps/search/?api=1&query=Azman%20Seafood%20Restaurant&query_place_id=ChIJZ1n3Bssi2jERE4FxPkKyfNM"
"Common Man Coffee Roasters - Quayside Isle","4.5","87","31 Ocean Way, #01-09","Singapore",,"SG","https://commonmancoffeeroasters.com/?utm_source=google&utm_medium=organic&utm_campaign=gmb_quayside_isle","+65 6877 4892","Cafe","https://www.google.com/maps/search/?api=1&query=Common%20Man%20Coffee%20Roasters%20-%20Quayside%20Isle&query_place_id=ChIJsd_IuI8f2jER_5PfLUtb384"
"Sampo Korean BBQ","4.3","194","132 Telok Ayer St","Singapore",,"SG","http://instagram.com/sampokorean","+65 6324 3009","Korean restaurant","https://www.google.com/maps/search/?api=1&query=Sampo%20Korean%20BBQ&query_place_id=ChIJ68bZQCcZ2jERs__cUUEtWvs"
"Gyu-Kaku ""牛角“ Japanese BBQ Restaurant VivoCity","3.4","12","1 HarbourFront Walk, #02-01/02","Singapore",,"SG","http://www.gyu-kaku.com.sg/","+65 6428 4208","Yakiniku restaurant","https://www.google.com/maps/search/?api=1&query=Gyu-Kaku%20%22%E7%89%9B%E8%A7%92%E2%80%9C%20Japanese%20BBQ%20Restaurant%20VivoCity&query_place_id=ChIJq2AM0FUZ2jER-oPLwxm8kwk"
"Hoàng Hâu Vietnamese Restaurant","4.6","207","146 01, 1090 Jalan Bukit Merah, Block 146","Singapore",,"SG","https://hoanghau.getz.co/","+65 8852 3687","Restaurant","https://www.google.com/maps/search/?api=1&query=Ho%C3%A0ng%20H%C3%A2u%20Vietnamese%20Restaurant&query_place_id=ChIJdwjQ2tQZ2jERFYU-5f1aW2g"
"Gochi-So Shokudo Japanese Restaurant ごち惣食堂 @ Asia Square Tower 2","4.1","27","Asia Square Tower 2, #02-10, 2 Marina View","Singapore",,"SG",,"+65 6980 5573","Tonkatsu restaurant","https://www.google.com/maps/search/?api=1&query=Gochi-So%20Shokudo%20Japanese%20Restaurant%20%E3%81%94%E3%81%A1%E6%83%A3%E9%A3%9F%E5%A0%82%20%40%20Asia%20Square%20Tower%202&query_place_id=ChIJxceAJL4Z2jERPzmznohK1m0"
"Korean BBQ Restaurant Woo Hyang (우향 코리안 BBQ)","3.6","260","89 Amoy St","Singapore",,"SG","https://woohyang.sg/","+65 6970 9789","Korean barbecue restaurant","https://www.google.com/maps/search/?api=1&query=Korean%20BBQ%20Restaurant%20Woo%20Hyang%20(%EC%9A%B0%ED%96%A5%20%EC%BD%94%EB%A6%AC%EC%95%88%20BBQ)&query_place_id=ChIJkeHXY_0Z2jERAgbENHxaX7w"
"Ficus Cafe By Chef Syed","3.9","8","39 Artillery Ave","Singapore",,"SG",,,"Halal restaurant","https://www.google.com/maps/search/?api=1&query=Ficus%20Cafe%20By%20Chef%20Syed&query_place_id=ChIJmWpBYNMf2jERU3_E7oV_Enc"
"Cumi Bali Indonesian Restaurant","4.1","552","50 Tras St","Singapore",,"SG","http://www.cumibali.com/","+65 6220 6619","Indonesian restaurant","https://www.google.com/maps/search/?api=1&query=Cumi%20Bali%20Indonesian%20Restaurant&query_place_id=ChIJDw5_RG0Z2jERl-F--4zrv6E"
"Komala's Restaurant International Plaza","2.8","31","Anson Rd, #01-09 International Plaza","Singapore",,"SG","http://komalasrestaurants.com/our-locations/","+65 6655 7190","Indian restaurant","https://www.google.com/maps/search/?api=1&query=Komala's%20Restaurant%20International%20Plaza&query_place_id=ChIJt5w2QRMZ2jERACes7rJuGq0"
"Don Dae Bak Restaurant","4.2","1525","35 Kreta Ayer Rd","Singapore",,"SG","https://dondaebaksg.business.site/","+65 6226 1727","Korean barbecue restaurant","https://www.google.com/maps/search/?api=1&query=Don%20Dae%20Bak%20Restaurant&query_place_id=ChIJG02Ii3IZ2jERoMjKjyk16Tw"
"Daam Doom Dish Kohinoor Restaurant","5","6","9 Hoe Chiang Rd","Singapore",,"SG",,"+65 6022 1933","Indian restaurant","https://www.google.com/maps/search/?api=1&query=Daam%20Doom%20Dish%20Kohinoor%20Restaurant&query_place_id=ChIJF5Rl1kkZ2jERN4XoTXuWDNk"
"Suzuki Restaurant","5","18","83 Neil Rd, #01-09 Mondrian Hotel","Singapore",,"SG","https://www.suzukiomakase.com/","+65 9755 7899","Restaurant","https://www.google.com/maps/search/?api=1&query=Suzuki%20Restaurant&query_place_id=ChIJF7VhiuQZ2jER8VrBhwpvLzM"
"Enak Enak Restaurant (Simpang Bedok)","4.1","549","340 Bedok Rd","Singapore",,"SG","http://www.enakenakrestaurant.com/","+65 6246 1211","Halal restaurant","https://www.google.com/maps/search/?api=1&query=Enak%20Enak%20Restaurant%20(Simpang%20Bedok)&query_place_id=ChIJiU7m7DE92jERLm2Tsy1syyg"
"Hawa Restaurant","3.3","29","801 Tampines Ave 4, #01-279","Singapore",,"SG",,"+65 6015 0288","Restaurant","https://www.google.com/maps/search/?api=1&query=Hawa%20Restaurant&query_place_id=ChIJRwmgOwY92jERieDHLwVA-3s"
"Luke's Lobster Singapore (Jewel Changi)","3.1","176","78 Airport Boulevard #01, K209","Singapore",,"SG","http://www.lukeslobster.sg/","+65 6241 5765","Seafood restaurant","https://www.google.com/maps/search/?api=1&query=Luke's%20Lobster%20Singapore%20(Jewel%20Changi)&query_place_id=ChIJb-6X9yU92jERakuPbWtdU8M"
"Mohamed Food Restaurant","2.8","9","18 Raffles Quay","Singapore",,"SG",,,"Restaurant","https://www.google.com/maps/search/?api=1&query=Mohamed%20Food%20Restaurant&query_place_id=ChIJ5Y6l4Q0Z2jER6EkfT7mZ6KQ"
"Noyah La Maison","4.3","53","65 Airport Boulevard, Changi Airport, B2-40/40A Terminal 3 (North","Singapore",,"SG","https://www.noyahlamaison.com/","+65 9647 0311","Nyonya restaurant","https://www.google.com/maps/search/?api=1&query=Noyah%20La%20Maison&query_place_id=ChIJH6aOCNQ92jERMmNYPY_uzTA"
"KFC Jewel","3.5","161","78 Airport Boulevard B2 - 275, #277 Singapore Changi Airport","Singapore",,"SG","https://www.kfc.com.sg/","+65 6241 8575","Fast food restaurant","https://www.google.com/maps/search/?api=1&query=KFC%20Jewel&query_place_id=ChIJD6EPdaE92jERbUbNytSr7LQ"
"Eight Treasures Vegetarian Restaurant","4.5","454","282A South Bridge Road, Sago Ln","Singapore",,"SG","https://www.facebook.com/EightTreasuresVegetarian","+65 6534 7727","Vegetarian restaurant","https://www.google.com/maps/search/?api=1&query=Eight%20Treasures%20Vegetarian%20Restaurant&query_place_id=ChIJ_UhazXIZ2jER14cuFc9jkSc"
"Azur","2.9","121","75 Airport Blvd, Crowne Plaza Changi Airport Hotel, Terminal 3 Singapore Changi Airport","Singapore",,"SG",,"+65 6823 5354","Restaurant","https://www.google.com/maps/search/?api=1&query=Azur&query_place_id=ChIJVbK19Iw82jER3O_oLg_jv3s"
"Tonkatsu by Ma Maison @ Jewel","4.3","348","78 Airport Blvd., #02 - 211","Singapore",,"SG","http://ma-maison.sg/restaurant/jewel/index.html","+65 6242 9322","Tonkatsu restaurant","https://www.google.com/maps/search/?api=1&query=Tonkatsu%20by%20Ma%20Maison%20%40%20Jewel&query_place_id=ChIJ_UkQXok82jERUhx_xfbPKdc"
"Sakura Family Restaurant","3.8","183","3 Simei Street 6, #03-05, Eastpoint Mall, 3 Simei Street 6, #03-05","Singapore",,"SG",,"+65 6388 7414","Halal restaurant","https://www.google.com/maps/search/?api=1&query=Sakura%20Family%20Restaurant&query_place_id=ChIJL3YtUCI92jERwCp52oQhVSo"
"Le Shrimp Ramen @ T3 Public Changi Airport","4.5","303","65 Airport Blvd., #B2-49 Terminal 3, Public Area","Singapore",,"SG","https://www.paradisegp.com/le-shrimp-ramen/",,"Ramen restaurant","https://www.google.com/maps/search/?api=1&query=Le%20Shrimp%20Ramen%20%40%20T3%20Public%20Changi%20Airport&query_place_id=ChIJq6qqGo082jERjxG8oPMR6to"
"Jin Hock Seafood Restaurant","4","477","844 Tampines Street 82, #01-131","Singapore",,"SG","http://jinhockseafood.oddle.me/","+65 6787 4255","Seafood restaurant","https://www.google.com/maps/search/?api=1&query=Jin%20Hock%20Seafood%20Restaurant&query_place_id=ChIJXbKuIW092jERc2TU8EHbC3g"
"Tempura Makino (Jewel Changi Airport)","4.8","1601","78 Airport Boulevard, #01-223 Jewel, Singapore Changi Airport","Singapore",,"SG","https://tempuramakino.com.sg/","+65 6285 7488","Tempura restaurant","https://www.google.com/maps/search/?api=1&query=Tempura%20Makino%20(Jewel%20Changi%20Airport)&query_place_id=ChIJyzcJpKw92jEReoCIqg-1y10"
"New Hawa Restaurant","3.5","63","462 Tampines Street 44","Singapore",,"SG",,"+65 8923 1328","Restaurant","https://www.google.com/maps/search/?api=1&query=New%20Hawa%20Restaurant&query_place_id=ChIJzS4a-JU92jERtXlh9tIkG64"
"Izumi Japanese Restaurant","4.2","218","59 New Upper Changi Rd, #01-1240","Singapore",,"SG","https://www.facebook.com/Izumijapanesefishmarketsingapore/","+65 8189 1848","Japanese restaurant","https://www.google.com/maps/search/?api=1&query=Izumi%20Japanese%20Restaurant&query_place_id=ChIJTbSyA8si2jERsZF1qd_ucZQ"
"A2B Indian Veg. Restaurant",,"0",,,,"SG",,,"Restaurant","https://www.google.com/maps/search/?api=1&query=A2B%20Indian%20Veg.%20Restaurant&query_place_id=ChIJBRi0i1UZ2jERxTPvd86zIGk"
"Swee Choon Tim Sum Restaurant","3.2","71","60 Airport Blvd., #01-07, Terminal 2 Singapore Changi Airport","Singapore",,"SG","http://www.sweechoon.com/",,"Dim sum restaurant","https://www.google.com/maps/search/?api=1&query=Swee%20Choon%20Tim%20Sum%20Restaurant&query_place_id=ChIJu8TMxlQ92jERD6OdTIa-VAQ"
"Thaiquet Southern Thai Restaurant","4.4","27","430 Upper Changi Rd, #01-05 East Village","Singapore",,"SG","https://www.instagram.com/thaiquet","+65 8718 8666","Thai restaurant","https://www.google.com/maps/search/?api=1&query=Thaiquet%20Southern%20Thai%20Restaurant&query_place_id=ChIJR6fojv892jERo78N7iCcUmE"
"Hokkaido Sushi","4.2","768","81 Anson Rd, level 9 m Hotel Singapore","Singapore",,"SG","http://www.hokkaidosushi.com.sg/","+65 6221 3075","Sushi restaurant","https://www.google.com/maps/search/?api=1&query=Hokkaido%20Sushi&query_place_id=ChIJuScwyhQZ2jERtyWGpD1pVEs"
"예약 YeYak Korean Restaurant","4.9","211","7 Keppel Road PSA Tanjong Pagar Complex, #01-18","Singapore",,"SG","https://www.yeyak.com.sg/?utm_source=google&utm_medium=wix_google_business_profile&utm_campaign=3717503695881860086","+65 8828 7770","Korean restaurant","https://www.google.com/maps/search/?api=1&query=%EC%98%88%EC%95%BD%20YeYak%20Korean%20Restaurant&query_place_id=ChIJXzHMAKcZ2jERXBEK0d-mN8c"
"Kailash Parbat Restaurant","4","547","1 Changi Business Park Cres, #01-10/12/13 Plaza 8","Singapore",,"SG",,"+65 6636 5545","Vegetarian restaurant","https://www.google.com/maps/search/?api=1&query=Kailash%20Parbat%20Restaurant&query_place_id=ChIJLyDlx6092jER1ovQGM8BqvA"
"Tangerine","4.2","48","8 Sentosa Gateway","Singapore",,"SG","https://www.rwsentosa.com/en/restaurants/signature-restaurants/tangerine","+65 6577 6688","Restaurant","https://www.google.com/maps/search/?api=1&query=Tangerine&query_place_id=ChIJIZfT4P0b2jER_PA2asrfjD4"
"Gigi Fish Soup Family Restaurant","4.5","19","Tanjong Pagar Plz, #02-46","Singapore",,"SG",,,"Family restaurant","https://www.google.com/maps/search/?api=1&query=Gigi%20Fish%20Soup%20Family%20Restaurant&query_place_id=ChIJZVV0h2wZ2jERleUrsqpDIxc"
"Deen Restaurant Indian Muslim Food","4.5","18","7 Everton Park, Block 7","Singapore",,"SG",,,"Indian restaurant","https://www.google.com/maps/search/?api=1&query=Deen%20Restaurant%20Indian%20Muslim%20Food&query_place_id=ChIJb0pVRC4Z2jERxyiZk-0KKIU"
"Family Flavor Restaurant","4.1","107","Blk 59 New Upper Changi Rd, #01-1282","Singapore",,"SG",,"+65 6246 7118","Chinese restaurant","https://www.google.com/maps/search/?api=1&query=Family%20Flavor%20Restaurant&query_place_id=ChIJKRCSdvIj2jER16HShBBdPZY"
"Dal In Restaurant","4","388","17 Boon Tat St","Singapore",,"SG",,"+65 6225 1006","Korean restaurant","https://www.google.com/maps/search/?api=1&query=Dal%20In%20Restaurant&query_place_id=ChIJ_eYWpQ0Z2jER_Z1N9hYkJio"
"Bachmann Japanese Restaurant Vivocity","3.1","20","1 HarbourFront Walk, Vivocity","Singapore",,"SG",,,"Restaurant","https://www.google.com/maps/search/?api=1&query=Bachmann%20Japanese%20Restaurant%20Vivocity&query_place_id=ChIJn_7DvFgZ2jERIPxmObfiVjw"
"Canton Paradise Noodle & Congee House @ T3 Public","4.2","135","65 Airport Blvd., #B2-49","Singapore",,"SG","https://www.paradisegp.com/brand-canton-paradise/",,"Porridge restaurant","https://www.google.com/maps/search/?api=1&query=Canton%20Paradise%20Noodle%20%26%20Congee%20House%20%40%20T3%20Public&query_place_id=ChIJIZeA5y492jERMOFva1Q33Ng"
"Paik's Bibim @ Vivo City","3.7","223","1 Harbourfront Walk, #02-125","Singapore",,"SG","http://www.facebook.com/paiks.bibimsg/","+65 6377 0696","Korean restaurant","https://www.google.com/maps/search/?api=1&query=Paik's%20Bibim%20%40%20Vivo%20City&query_place_id=ChIJNcq6kFgZ2jERrYuc_OYckT8"
"Amarathai Restaurant Tanjong Pagar","4","1","4D Lim Teck Kim Rd","Singapore",,"SG",,,"Restaurant","https://www.google.com/maps/search/?api=1&query=Amarathai%20Restaurant%20Tanjong%20Pagar&query_place_id=ChIJtQEaEmsZ2jERC5R8Ado06SM"
"SOS Bar Restaurant","4.3","188","6 Marina Blvd, #01-18/19 The Sail at Marina Bay","Singapore",,"SG","https://www.sosbarsg.com/","+65 9489 5742","Bar","https://www.google.com/maps/search/?api=1&query=SOS%20Bar%20Restaurant&query_place_id=ChIJc9mCRw4Z2jER-H2AVBjcDYY"
"NAEUM Restaurant","4.7","185","161 Telok Ayer St","Singapore",,"SG","http://www.naeum.sg/","+65 8830 5016","Restaurant","https://www.google.com/maps/search/?api=1&query=NAEUM%20Restaurant&query_place_id=ChIJ0zevoBEZ2jER9eYTLSlcX1Q"
"Numb Restaurant 川麻记","4.8","561","5 Straits View, West Tower, #01-12 Marina One","Singapore",,"SG","https://www.numbrestaurant.com/?utm_source=google&utm_medium=wix_google_business_profile&utm_campaign=16277146813624859339","+65 9460 1960","Restaurant","https://www.google.com/maps/search/?api=1&query=Numb%20Restaurant%20%E5%B7%9D%E9%BA%BB%E8%AE%B0&query_place_id=ChIJryJnfhIZ2jERUCR3eLh90fM"
"Majestic Restaurant","4.1","472","5 Straits View, #04-01 Marina One East Tower","Singapore",,"SG","http://www.restaurantmajestic.com/","+65 6250 1988","Chinese restaurant","https://www.google.com/maps/search/?api=1&query=Majestic%20Restaurant&query_place_id=ChIJ8_-PMBIZ2jERdzQvm7nWrHk"
"Tambi Restaurant","4.1","85","47 Amoy St","Singapore",,"SG","http://www.tambi.sg/","+65 9838 8401","Restaurant","https://www.google.com/maps/search/?api=1&query=Tambi%20Restaurant&query_place_id=ChIJuZJncXYZ2jERqheyCHx25Lk"
"Marché Mövenpick VivoCity","4.1","3261","1 HarbourFront Walk, #03 - 14 VivoCity","Singapore",,"SG","https://www.marche-movenpick.sg/en/our-locations/vivocity","+65 6376 8226","Restaurant","https://www.google.com/maps/search/?api=1&query=March%C3%A9%20M%C3%B6venpick%20VivoCity&query_place_id=ChIJQ7ONulgZ2jERGh2R3w9tHSo"
"Annalakshmi Restaurant","4.5","3059","6A Shenton Wy, #01-03 Downtown Gallery","Singapore",,"SG","http://www.annalakshmi.sg/","+65 6339 9993","Indian restaurant","https://www.google.com/maps/search/?api=1&query=Annalakshmi%20Restaurant&query_place_id=ChIJW9dJOqEZ2jERBgaxRD3FW00"
"Kim's Family Food Korean Restaurant","3.9","281","177 Telok Ayer St","Singapore",,"SG",,"+65 6221 0401","Korean restaurant","https://www.google.com/maps/search/?api=1&query=Kim's%20Family%20Food%20Korean%20Restaurant&query_place_id=ChIJoWcifA0Z2jERl3M1QjbnCnI"
"Sodam Korean Restaurant","4.6","118","48 Tg Pagar Rd","Singapore",,"SG","https://social.quandoo.com/en/groups/Sodam%20Korean%20Restaurant%20%EC%86%8C%EB%8B%B4","+65 8363 6476","Korean barbecue restaurant","https://www.google.com/maps/search/?api=1&query=Sodam%20Korean%20Restaurant&query_place_id=ChIJRVeSIk0Z2jEREJboNvLbjL4"
"Foliage Restaurant","5","10","11 Kee Seng St, #01-03","Singapore",,"SG","http://foliage.sg/",,"Asian restaurant","https://www.google.com/maps/search/?api=1&query=Foliage%20Restaurant&query_place_id=ChIJzWm5SWgZ2jERrN3ctdW_uA0"
"Black Society 黑社会","3.9","897","1 HarbourFront Walk, #02-156/157","Singapore",,"SG","http://blacksociety.com.sg/","+65 6376 9740","Cantonese restaurant","https://www.google.com/maps/search/?api=1&query=Black%20Society%20%E9%BB%91%E7%A4%BE%E4%BC%9A&query_place_id=ChIJJZTucOIb2jERMHDdjjtjZqk"
"Restaurant Chaleur","5","30","77 Neil Rd","Singapore",,"SG","https://restaurantchaleur.com/","+65 8508 3390","Restaurant","https://www.google.com/maps/search/?api=1&query=Restaurant%20Chaleur&query_place_id=ChIJ6eCqdV0Z2jERGTysrBvGX_M"
"Mouth Restaurant - 地茂馆","3.9","782","38 Maxwell Rd, #01-01/02 Airview Building, Air View Building","Singapore",,"SG","https://mouth.com.sg/","+65 6534 4233","Cantonese restaurant","https://www.google.com/maps/search/?api=1&query=Mouth%20Restaurant%20-%20%E5%9C%B0%E8%8C%82%E9%A6%86&query_place_id=ChIJqbQ4zn0Z2jER9CRLhNtz8aA"
"Miska Cafe","4","372","31 Ocean Way, #01-07","Singapore",,"SG","http://www.miskacafe.com/","+65 6339 0903","Mediterranean restaurant","https://www.google.com/maps/search/?api=1&query=Miska%20Cafe&query_place_id=ChIJX9pR0bUe2jERJRzgcJSiH0M"
"Hana-hana Japanese Restaurant","4.3","195","1 Tras Link, #01-17 Orchid Hotel Singapore","Singapore",,"SG","https://tableagent.com/singapore/hana-hana-japanese-restaurant/","+65 6444 7753","Japanese restaurant","https://www.google.com/maps/search/?api=1&query=Hana-hana%20Japanese%20Restaurant&query_place_id=ChIJYWuy22wZ2jERsatPbdPPXQ4"
"Akbar 24 Hours Restaurant","3.8","564","2 Lim Teck Kim Rd","Singapore",,"SG","https://akbar-24-hours-restaurant.business.site/","+65 6324 2559","Indian Muslim restaurant","https://www.google.com/maps/search/?api=1&query=Akbar%2024%20Hours%20Restaurant&query_place_id=ChIJE_3sEWsZ2jERhfKtyNOVstA"
"Kia Hiang","3.9","82","10 Anson Rd, #02-29 International Plaza","Singapore",,"SG","http://www.kiahiang.com.sg/","+65 6220 7169","Chinese restaurant","https://www.google.com/maps/search/?api=1&query=Kia%20Hiang&query_place_id=ChIJWw4PRBMZ2jER6i_4uBKYXRU"
"DANIU TEOCHEW SEAFOOD RESTAURANT","4.2","298","61 Kampong Bahru Rd","Singapore",,"SG","https://www.instagram.com/daniuteochewseafood/?hl=en","+65 6677 6725","Seafood restaurant","https://www.google.com/maps/search/?api=1&query=DANIU%20TEOCHEW%20SEAFOOD%20RESTAURANT&query_place_id=ChIJ2SK0G0EZ2jERi--d8gvG100"
"No Menu Restaurant","4.4","895","23 Boon Tat St","Singapore",,"SG","http://www.osvaldo.sg/","+65 6224 0091","Italian restaurant","https://www.google.com/maps/search/?api=1&query=No%20Menu%20Restaurant&query_place_id=ChIJwRQ-uw0Z2jERtffbY4KMOw4"
"MIZ Japanese Restaurant","4.6","717","17 Kampong Bahru Rd","Singapore",,"SG","https://miz-japanese-restaurant.business.site/","+65 6225 5761","Japanese restaurant","https://www.google.com/maps/search/?api=1&query=MIZ%20Japanese%20Restaurant&query_place_id=ChIJC456Hm0Z2jERyJ0gNoDT-V8"
"Shen Li Restaurant","3.8","31","137 Tampines St. 11, #01-15 Round Market & Food Centre","Singapore",,"SG",,"+65 9450 9314","Hawker stall","https://www.google.com/maps/search/?api=1&query=Shen%20Li%20Restaurant&query_place_id=ChIJkU2-KxY92jERe1jeSVlg9O8"
"ManNa Korean Restaurant","3.8","293","5 Changi Business Park Central 1, #01-39/40 Changi City Point","Singapore",,"SG","http://www.mannakorea.com/","+65 6970 8505","Korean restaurant","https://www.google.com/maps/search/?api=1&query=ManNa%20Korean%20Restaurant&query_place_id=ChIJES_eO8Q92jER6quH9IC0mY0"
"Sous Noodle Restaurant Pte Ltd",,"0","1 Changi Business Park Cres","Singapore",,"SG",,"+65 6789 4066","Restaurant","https://www.google.com/maps/search/?api=1&query=Sous%20Noodle%20Restaurant%20Pte%20Ltd&query_place_id=ChIJnZLDJNc82jERFjVrny8fRv8"
"Zén","4.5","216","41 Bukit Pasoh Rd","Singapore",,"SG","http://www.restaurantzen.com/","+65 6534 8880","Restaurant","https://www.google.com/maps/search/?api=1&query=Z%C3%A9n&query_place_id=ChIJpxlhJpkZ2jER7gzIjfgz8co"
"Bliss Garden - 福满楼","3.8","180","1 Expo Dr, #02-01","Singapore",,"SG",,"+65 6789 1313","Chinese restaurant","https://www.google.com/maps/search/?api=1&query=Bliss%20Garden%20-%20%E7%A6%8F%E6%BB%A1%E6%A5%BC&query_place_id=ChIJb78bvik92jERzI0aJUQXHFg"
"Coucou Authentic Swiss Restaurant and Bar","4.5","710","9 Craig Rd","Singapore",,"SG","http://coucou.sg/","+65 6226 0060","Swiss restaurant","https://www.google.com/maps/search/?api=1&query=Coucou%20Authentic%20Swiss%20Restaurant%20and%20Bar&query_place_id=ChIJTy0ppOgZ2jERe6fBEYFCvVY"
"Yi Jia Seafood Village Restaurant","3.7","46","515 Bedok North Ave 2","Singapore",,"SG","https://m.facebook.com/pages/category/Restaurant/%E5%8B%BF%E6%B4%9B%E5%84%84%E5%AE%B6%E6%9D%91%E6%B5%B7%E9%B2%9C-Bedok-Yi-Jia-Village-1044797772377889/","+65 6909 8189","Restaurant","https://www.google.com/maps/search/?api=1&query=Yi%20Jia%20Seafood%20Village%20Restaurant&query_place_id=ChIJh_Yl3sc92jERGytLocChy2c"
"Dalcomhan Bam Korean Restaurant East Village","4.1","123","430 Upper Changi Rd, #01-66 East Village","Singapore",,"SG","https://smartweb-ecms.tabsquare.com/scan/a1837c55-edaa-4f48-a125-9a7ee33bdc88","+65 6214 0886","Korean restaurant","https://www.google.com/maps/search/?api=1&query=Dalcomhan%20Bam%20Korean%20Restaurant%20East%20Village&query_place_id=ChIJJ2b_-MM92jERX9O7FKfuL6s"
"Al-Sahira Restaurant","3.5","256","26 Bedok S Rd","Singapore",,"SG",,"+65 9124 2006","Restaurant","https://www.google.com/maps/search/?api=1&query=Al-Sahira%20Restaurant&query_place_id=ChIJjdgF4Sw92jERUgqvTro__kI"
"Ridwan And Family Restaurant",,"0","1 Changi Village Rd","Singapore",,"SG",,,"Restaurant","https://www.google.com/maps/search/?api=1&query=Ridwan%20And%20Family%20Restaurant&query_place_id=ChIJTdaJLhQ82jERy3DatVLtdlc"
"KNS RESTAURANT","3.6","219","1110 E Coast Park Service Rd, #01-03/04","Singapore",,"SG",,"+65 6974 8303","Indian restaurant","https://www.google.com/maps/search/?api=1&query=KNS%20RESTAURANT&query_place_id=ChIJT7OAxMcj2jERFyKcuwal3Uw"
"Burger & Lobster Jewel Changi Airport","4.3","1174","78 Airport Blvd., #05 - 203","Singapore",,"SG","https://www.burgerandlobster.com/locations/singapore/jewel-changi-airport/?utm_source=google&utm_medium=local&utm_campaign=gmblisting","+65 6971 6126","Restaurant","https://www.google.com/maps/search/?api=1&query=Burger%20%26%20Lobster%20Jewel%20Changi%20Airport&query_place_id=ChIJmxdGfIk82jERFD6X6ug1vdo"
"Teahouse By Soup Restaurant @ Century Square","4.2","674","2 Tampines Central 5, #01-20 Century Square","Singapore",,"SG","http://www.souprestaurant.com.sg/","+65 6260 0030","Chinese restaurant","https://www.google.com/maps/search/?api=1&query=Teahouse%20By%20Soup%20Restaurant%20%40%20Century%20Square&query_place_id=ChIJXTBJS0w92jERexiwvZ_ZAEQ"
"小浦田餐馆 | Xiao Pu Tien Restaurant","4.1","172","138 Tampines St. 11, #01-124","Singapore",,"SG",,"+65 9370 0092","Chinese restaurant","https://www.google.com/maps/search/?api=1&query=%E5%B0%8F%E6%B5%A6%E7%94%B0%E9%A4%90%E9%A6%86%20%7C%20Xiao%20Pu%20Tien%20Restaurant&query_place_id=ChIJgzcWh1Y92jERSn3vPT2EZ9A"
"U Taste Restaurant","1.7","48","BLK 513 Tampines Central 1, #01-170","Singapore",,"SG",,,"Restaurant","https://www.google.com/maps/search/?api=1&query=U%20Taste%20Restaurant&query_place_id=ChIJVT0s5RE92jERvCwl6hy6QqM"
"BACHMANN JAPANESE RESTAURANT Changi Terminal 1",,"0","80 Airport Blvd.","Singapore",,"SG",,,"Restaurant","https://www.google.com/maps/search/?api=1&query=BACHMANN%20JAPANESE%20RESTAURANT%20Changi%20Terminal%201&query_place_id=ChIJuf-bjok82jERi23qIO8v10w"
"Sheik Jalani Restaurant","4.2","238","527 Bedok North Street 3","Singapore",,"SG",,,"Restaurant","https://www.google.com/maps/search/?api=1&query=Sheik%20Jalani%20Restaurant&query_place_id=ChIJn1bcpk892jERn8GaUyDwKKk"
"Jin Wee Restaurant","4.2","324","928 E Coast Rd","Singapore",,"SG",,"+65 9852 7066","Chinese restaurant","https://www.google.com/maps/search/?api=1&query=Jin%20Wee%20Restaurant&query_place_id=ChIJhf74pKQi2jERCm22IG2N0JE"
"Yun Nans 云海肴 (Jewel)","4.4","1376","78 Airport Blvd., #02 - 217","Singapore",,"SG","http://order.yunnans.sg/","+65 6908 3677","Chinese restaurant","https://www.google.com/maps/search/?api=1&query=Yun%20Nans%20%E4%BA%91%E6%B5%B7%E8%82%B4%20(Jewel)&query_place_id=ChIJv91q3ww92jERT5dt3iD4jCQ"
"New Rezki Restaurant.pte.ltd","3.8","298","203 Bedok North Street 1","Singapore",,"SG","https://www.foodpanda.sg/restaurant/v8sm/new-rezki-restaurant","+65 6573 6837","Coffee shop","https://www.google.com/maps/search/?api=1&query=New%20Rezki%20Restaurant.pte.ltd&query_place_id=ChIJM68ux0w92jER9yE2WrntyL4"
"金隆海鲜楼 Jing Long Seafood Restaurant @ BEDOK","4.1","1027","412 Bedok North Ave 2, #01-152","Singapore",,"SG","http://www.jinglongseafood.com.sg/","+65 6442 9398","Seafood restaurant","https://www.google.com/maps/search/?api=1&query=%E9%87%91%E9%9A%86%E6%B5%B7%E9%B2%9C%E6%A5%BC%20Jing%20Long%20Seafood%20Restaurant%20%40%20BEDOK&query_place_id=ChIJV5HqbUw92jERnQ7X4hYoVQU"
"Poulet Bijou - Jewel Changi Airport","4.8","6702","78 Airport Road, Jewel 01 - 227 Singapore Changi Airport","Singapore",,"SG","https://www.poulet.com.sg/","+65 6243 7820","Restaurant","https://www.google.com/maps/search/?api=1&query=Poulet%20Bijou%20-%20Jewel%20Changi%20Airport&query_place_id=ChIJPe5DIug92jERkD4cMJdPdug"
"Alsalam Restaurant","4","498","801 Tampines Ave 4","Singapore",,"SG","https://www.foodpanda.sg/restaurant/x4ke/alsalam-restaurant","+65 6789 9680","Indian Muslim restaurant","https://www.google.com/maps/search/?api=1&query=Alsalam%20Restaurant&query_place_id=ChIJAdJ_1hQ92jERP1rHP9LQY2Q"
"Bikanervala - Indian Sweets and Vegetarian Restaurant in Changi Airport, Terminal 3, Singapore","3.8","635","Singapore Changi Airport Terminal 3 hall to level 4, Level 4 Public access Viewing area Take lift or escalator from Department","Singapore",,"SG","https://bikanervala.sg/","+65 6584 2473","Family restaurant","https://www.google.com/maps/search/?api=1&query=Bikanervala%20-%20Indian%20Sweets%20and%20Vegetarian%20Restaurant%20in%20Changi%20Airport%2C%20Terminal%203%2C%20Singapore&query_place_id=ChIJG4HBP5M82jERqbo7uo6pc-g"
"Yangzhou Fried Rice Restaurant 扬州炒饭饭店","4.1","201","430 Upper Changi Rd, #01-11","Singapore",,"SG","https://www.facebook.com/YZFriedrice","+65 9106 1723","Chinese restaurant","https://www.google.com/maps/search/?api=1&query=Yangzhou%20Fried%20Rice%20Restaurant%20%E6%89%AC%E5%B7%9E%E7%82%92%E9%A5%AD%E9%A5%AD%E5%BA%97&query_place_id=ChIJtVhJoDE92jEROfxZzHkbr4o"
"Violet Oon @ Jewel","4.2","492","78 Airport Blvd., #01 - 205 / 206","Singapore",,"SG","https://violetoon.com/","+65 9834 9935","Nyonya restaurant","https://www.google.com/maps/search/?api=1&query=Violet%20Oon%20%40%20Jewel&query_place_id=ChIJhQzgMDw92jERRuSydqefIA4"
"KNS Restaurant","3.4","658","89 Bedok North Street 4, #01-111","Singapore",,"SG","https://knsrestaurant.com/","+65 6445 1619","Indian restaurant","https://www.google.com/maps/search/?api=1&query=KNS%20Restaurant&query_place_id=ChIJW5UmLTY92jERHKQ3LeLjDEs"
"Hot Tomato","3.8","226","78 Airport Blvd., #04 - 229","Singapore",,"SG","https://www.hottomato.com.sg/","+65 6214 9352","Western restaurant","https://www.google.com/maps/search/?api=1&query=Hot%20Tomato&query_place_id=ChIJf7DBxR892jERWFYeWFazCCM"
"Top Seafood Restaurant","3.2","60","128 Bedok North Street 2, Block 128","Singapore",,"SG","https://topseafood.oddle.me/en_SG/","+65 8112 2521","Chinese restaurant","https://www.google.com/maps/search/?api=1&query=Top%20Seafood%20Restaurant&query_place_id=ChIJbysncjU92jERpuHahz4xMxQ"
"Shake Shack Jewel Changi","4.2","3692","78 Airport Blvd., #02 - 256","Singapore",,"SG","https://www.shakeshack.com.sg/",,"Hamburger restaurant","https://www.google.com/maps/search/?api=1&query=Shake%20Shack%20Jewel%20Changi&query_place_id=ChIJnUYXuQs92jERG4HWV4h1za0"
"Afghanistan Family Restaurant","4.1","1685","201E Tampines St 23","Singapore",,"SG","https://www.facebook.com/296745123739506/","+65 9829 4907","Halal restaurant","https://www.google.com/maps/search/?api=1&query=Afghanistan%20Family%20Restaurant&query_place_id=ChIJt_9UaBs92jERInQc82L3oP4"
"Tanuki Raw @ Jewel Changi Airport","3.9","350","78 Airport Boulevard 05-202 Jewel, Singapore Changi Airport","Singapore",,"SG","http://tanukiraw.com/","+65 8590 4900","Restaurant","https://www.google.com/maps/search/?api=1&query=Tanuki%20Raw%20%40%20Jewel%20Changi%20Airport&query_place_id=ChIJlSIGfIk82jERMawU5e71uGM"
"Kok Sen Restaurant","4.1","1618","Keong Saik Rd., 4","Singapore",,"SG","https://koksen.oddle.me/en_SG/","+65 6223 2005","Singaporean restaurant","https://www.google.com/maps/search/?api=1&query=Kok%20Sen%20Restaurant&query_place_id=ChIJ1UPefHIZ2jERNw75Jntk0oM"
"White Restaurant (Tampines Mall)","3.8","192","4 Tampines Central 5, #B1-K17 Tampines Mall","Singapore",,"SG","https://whiterestaurant.com.sg/","+65 6908 1023","Chinese restaurant","https://www.google.com/maps/search/?api=1&query=White%20Restaurant%20(Tampines%20Mall)&query_place_id=ChIJQXDzuNs92jERhPk8LJxN2ro"
"1929 @ Keong Saik Restaurant & Bar","4.4","14","50 Keong Saik Rd., Hotel 1929","Singapore",,"SG","https://1929keongsaik.business.site/?utm_source=gmb&utm_medium=referral","+65 6226 7929","Restaurant","https://www.google.com/maps/search/?api=1&query=1929%20%40%20Keong%20Saik%20Restaurant%20%26%20Bar&query_place_id=ChIJgVddJfgZ2jER_mNXzZJDh1s"
"Le Faubourg","4.4","235","2 Gunner Lane #01-02 Mess Hall Block 17, opp The Barracks Hotel","Singapore",,"SG","https://le-faubourg-sentosa.com/","+65 6677 7128","Restaurant","https://www.google.com/maps/search/?api=1&query=Le%20Faubourg&query_place_id=ChIJozAd4eEb2jERkA7-7FffCxY"
"Indian Tandoor Restaurant","4.3","176","#01-65 430 Upper Changi Rd","Singapore",,"SG","http://indiantandoor.com.sg/","+65 9105 2565","Restaurant","https://www.google.com/maps/search/?api=1&query=Indian%20Tandoor%20Restaurant&query_place_id=ChIJ8TTpmsk92jERNHpupLAkT3Q"
"New Mahamoodiya Restaurant","3.9","993","335 Bedok Rd","Singapore",,"SG","https://newmahamoodiya.com/","+65 6243 2086","Indian restaurant","https://www.google.com/maps/search/?api=1&query=New%20Mahamoodiya%20Restaurant&query_place_id=ChIJCzqSjTE92jERCxig5QFo4o8"
"Labyrinth Restaurant","4.6","443","Raffles Ave., #02 - 23","Singapore",,"SG","https://www.restaurantlabyrinth.com/","+65 6223 4098","Singaporean restaurant","https://www.google.com/maps/search/?api=1&query=Labyrinth%20Restaurant&query_place_id=ChIJj99Fo3IZ2jERFIUg_m-VhO8"
"Crown Prince Restaurant (Aranda Country Club)","4.7","28","60 Pasir Ris Dr 3, #01-01","Singapore",,"SG",,"+65 8801 8111","Seafood restaurant","https://www.google.com/maps/search/?api=1&query=Crown%20Prince%20Restaurant%20(Aranda%20Country%20Club)&query_place_id=ChIJr7gLwH092jERmisqL5i-QDs"
"Sakunthala's Restaurant - Changi Outlet","3.9","436","8 Changi Business Park Ave 1, #01-53 ESR Biz Park","Singapore",,"SG","https://www.sakunthalas.com/","+65 6538 3134","Indian restaurant","https://www.google.com/maps/search/?api=1&query=Sakunthala's%20Restaurant%20-%20Changi%20Outlet&query_place_id=ChIJM-eKedc82jERGtX0Qt-ekFc"
"Plate Restaurant","3.8","151","1 Gopeng St","Singapore",,"SG","http://carltoncity.sg/dining/plate","+65 6632 8922","Restaurant","https://www.google.com/maps/search/?api=1&query=Plate%20Restaurant&query_place_id=ChIJSZw8v2wZ2jERNK1UuIO3t-A"
"Etna Italian Restaurant (East Coast)","4.4","841","110 Upper E Coast Rd","Singapore",,"SG","http://www.etnaitalianrestaurant.com/","+65 6444 9530","Italian restaurant","https://www.google.com/maps/search/?api=1&query=Etna%20Italian%20Restaurant%20(East%20Coast)&query_place_id=ChIJ74mSCrsi2jERJG7qojkJU-k"
"Alsalam Restaurant","4","298","472 Tampines Street 44, #01-49","Singapore",,"SG",,"+65 6783 8073","Halal restaurant","https://www.google.com/maps/search/?api=1&query=Alsalam%20Restaurant&query_place_id=ChIJ7VRKwAY92jERecn25Uf7_J8"
"Rhubarb","4.6","382","3 Duxton Hill","Singapore",,"SG","http://www.rhubarb.sg/","+65 8127 5001","French restaurant","https://www.google.com/maps/search/?api=1&query=Rhubarb&query_place_id=ChIJSSqJZm0Z2jEROEr3NpxAVqU"
"EN Live Seafood Restaurant","4.6","59","7 Keppel Rd, #01-01","Singapore",,"SG","https://www.facebook.com/enliveseafood/",,"Restaurant","https://www.google.com/maps/search/?api=1&query=EN%20Live%20Seafood%20Restaurant&query_place_id=ChIJedTeOfQX2jER2LOyDOes1uo"
"Silver Shell Cafe","4.2","381","101 Siloso Rd","Singapore",,"SG","http://www.shangri-la.com/singapore/rasasentosaresort/dining/restaurants/dine-on-3-silver-shell-cafe/","+65 6371 1966","Restaurant","https://www.google.com/maps/search/?api=1&query=Silver%20Shell%20Cafe&query_place_id=ChIJ7aFemPAb2jER2H6rCmyLrEY"
"Bluemist Restaurant","4.3","402","Blk 7 Tanjong Pagar Plz, #01-103","Singapore",,"SG","https://www.bluemist.sg/","+65 6220 1820","Cafe","https://www.google.com/maps/search/?api=1&query=Bluemist%20Restaurant&query_place_id=ChIJP6ZuX2sZ2jERbzY9mmUsAJY"
"Element Restaurant Amara Singapore","3.5","214","165 Tg Pagar Rd, Level One Amara Singapore","Singapore",,"SG","https://singapore.amarahotels.com/dining/element","+65 6879 2626","Restaurant","https://www.google.com/maps/search/?api=1&query=Element%20Restaurant%20Amara%20Singapore&query_place_id=ChIJK-a8X2sZ2jERMDuQGOcyCQg"
"Sol & Ora","4.6","248","The Outpost Hotel, 10 Artillery Ave, #07-01 Sentosa Island","Singapore",,"SG","https://www.solandora.sg/","+65 8879 8765","Restaurant","https://www.google.com/maps/search/?api=1&query=Sol%20%26%20Ora&query_place_id=ChIJW18JkhYb2jERNYFzp06llDE"
"Mazzo Restaurant & Bar — Italian Pizza & Chargrilled Meats | Wines & Cocktails","4.4","260","56 Club St","Singapore",,"SG","https://www.mazzosingapore.com/","+65 8133 7588","Italian restaurant","https://www.google.com/maps/search/?api=1&query=Mazzo%20Restaurant%20%26%20Bar%20%E2%80%94%20Italian%20Pizza%20%26%20Chargrilled%20Meats%20%7C%20Wines%20%26%20Cocktails&query_place_id=ChIJUb2q_foZ2jER8SLTc85-itc"
"The Spot - Singapore","4.5","692","5 Straits View, #01-26/27 Marina One East Tower","Singapore",,"SG","http://thespot.sg/","+65 6284 2637","Restaurant","https://www.google.com/maps/search/?api=1&query=The%20Spot%20-%20Singapore&query_place_id=ChIJq6pqohEZ2jERAWzgPlS-rxM"
"MERCI MARCEL","4.7","2126","7-9 Club St","Singapore",,"SG","http://mercimarcelgroup.com/","+65 6438 3913","French restaurant","https://www.google.com/maps/search/?api=1&query=MERCI%20MARCEL&query_place_id=ChIJoQvLtqkZ2jERKOVZn48aivQ"
"Teppei Japanese Restaurant","4.5","793","1 Tras Link, #01-18 Orchid Hotel Singapore","Singapore",,"SG",,"+65 8831 5185","Japanese restaurant","https://www.google.com/maps/search/?api=1&query=Teppei%20Japanese%20Restaurant&query_place_id=ChIJYWuy22wZ2jER0SsGm6Lbbq8"
"Le Jardin Restaurant","4.1","778","5 Cox Terrace, Level 2 Fort Canning Arts Centre","Singapore",,"SG","http://www.lejardin.com.sg/","+65 8870 9977","European restaurant","https://www.google.com/maps/search/?api=1&query=Le%20Jardin%20Restaurant&query_place_id=ChIJV_K1ymYZ2jER39YtGS9Cv60"
"Pizza Hut Restaurant - Macpherson Road","3.7","100","163 MacPherson Rd","Singapore",,"SG","https://www.pizzahut.com.sg/","+65 6235 3535","Pizza restaurant","https://www.google.com/maps/search/?api=1&query=Pizza%20Hut%20Restaurant%20-%20Macpherson%20Road&query_place_id=ChIJ3YT6mbQX2jERUL6wREHsXIg"
"The Bay Restaurant","3.8","52","8 Sentosa Gateway, Sentosa Island","Singapore",,"SG","http://www.rwsentosa.com/language/en-US/Homepage/Restaurants/Others/TheBayRestaurant",,"Fast food restaurant","https://www.google.com/maps/search/?api=1&query=The%20Bay%20Restaurant&query_place_id=ChIJT0qQtv0b2jER-bVlf4iazQ4"
"Thanying Restaurant","4","179","165 Tanjong Pagar Road #02-00 Amara Hotel","Singapore",,"SG","https://www.thanyingrestaurants.com/","+65 6222 4688","Thai restaurant","https://www.google.com/maps/search/?api=1&query=Thanying%20Restaurant&query_place_id=ChIJU-KRoWwZ2jERdhxf3O42dSs"
"Bottle tree cafe restaurant by sembawang eating house seafood restaurant @ Singapore Discovery Centre","3.9","40","510 Upper Jurong Rd","Singapore",,"SG",,"+65 6423 9861","Asian restaurant","https://www.google.com/maps/search/?api=1&query=Bottle%20tree%20cafe%20restaurant%20by%20sembawang%20eating%20house%20seafood%20restaurant%20%40%20Singapore%20Discovery%20Centre&query_place_id=ChIJ978lPHYP2jERf2c1HxrwMsQ"
"Lotus Vegetarian Restaurant","4.3","547","103 Irrawaddy Rd, #02-07 Royal Square@Novena","Singapore",,"SG","http://www.lotusvegetarian.sg/","+65 8668 0090","Vegetarian restaurant","https://www.google.com/maps/search/?api=1&query=Lotus%20Vegetarian%20Restaurant&query_place_id=ChIJw7Bn0vYZ2jER7YWZKh57T4Y"
"Pangat North Indian Restaurant","3","2","1 Fusionopolis Way, Koufu, B2 #02 (PANGAT - MR5","Singapore",,"SG",,"+65 8811 1141","Restaurant","https://www.google.com/maps/search/?api=1&query=Pangat%20North%20Indian%20Restaurant&query_place_id=ChIJY-MH5Sob2jERK0RVxoaFK4k"
"Gyu-Kaku Japanese BBQ","4","413","238 Thomson Rd, #02 - 46","Singapore",,"SG","http://www.gyu-kaku.com.sg/","+65 6252 4001","Yakiniku restaurant","https://www.google.com/maps/search/?api=1&query=Gyu-Kaku%20Japanese%20BBQ&query_place_id=ChIJ05kCbucZ2jER_jJKT0FxoIk"
"Swensen's @ Clementi Mall","3.7","991","3155 Commonwealth Ave W, #05-31/32/33","Singapore",,"SG","http://www.swensens.com.sg/singapore","+65 6659 2151","American restaurant","https://www.google.com/maps/search/?api=1&query=Swensen's%20%40%20Clementi%20Mall&query_place_id=ChIJ9y7Rbo4a2jER2Toju7Lm-b0"
"Kian Seng Seafood Restaurant","4","1485","4013 Ang Mo Kio Industrial Park 1, #01-450","Singapore",,"SG","http://www.kiansengseafood.com.sg/","+65 6458 2552","Seafood restaurant","https://www.google.com/maps/search/?api=1&query=Kian%20Seng%20Seafood%20Restaurant&query_place_id=ChIJY5MRFhsX2jERh-iGZWAeVZE"
"Soup Restaurant 三盅两件 - NEX","4","637","23 Serangoon Central, #02 - 15 / 16 NEX","Singapore",,"SG","http://www.souprestaurant.com.sg/","+65 6634 2822","Restaurant","https://www.google.com/maps/search/?api=1&query=Soup%20Restaurant%20%E4%B8%89%E7%9B%85%E4%B8%A4%E4%BB%B6%20-%20NEX&query_place_id=ChIJxyAVvKYX2jERoMQ4HzbxvKs"
"Man Zhu Steamboat Restaurant","4","138","350 Jurong East Ave 1, #01-1231 Singapore Singapore Region","Singapore",,"SG","https://emenu-global.sandypos.com/?rid=6681&tid=-1&ver=1","+65 6425 6185","Chinese restaurant","https://www.google.com/maps/search/?api=1&query=Man%20Zhu%20Steamboat%20Restaurant&query_place_id=ChIJVVWlrx8Q2jERjjyX8stA1-s"
"Pillars Restaurant & Catering Pte Ltd",,"0","35 Opal Cres","Singapore",,"SG",,"+65 6296 8422","Caterer","https://www.google.com/maps/search/?api=1&query=Pillars%20Restaurant%20%26%20Catering%20Pte%20Ltd&query_place_id=ChIJN4CIvn8X2jERJi4JDIriKPc"
"Gyu-Kaku Japanese BBQ","4","327","1 Vista Exchange Green, #02-17 The Star Vista","Singapore",,"SG","http://www.gyu-kaku.com.sg/","+65 6735 4001","Yakiniku restaurant","https://www.google.com/maps/search/?api=1&query=Gyu-Kaku%20Japanese%20BBQ&query_place_id=ChIJVVUp60Ia2jERi24_dFNev4o"
"Ajiya Okonomiyaki Restaurant","4.4","643","104 Jln Jurong Kechil","Singapore",,"SG","http://www.facebook.com/ajiyasg","+65 6463 3461","Okonomiyaki restaurant","https://www.google.com/maps/search/?api=1&query=Ajiya%20Okonomiyaki%20Restaurant&query_place_id=ChIJG5k102MQ2jER0OMTkkFt5XI"
"Siam Square Mookata - Best Mookata Restaurant in Singapore","4","219","155 Bukit Batok Street 11","Singapore",,"SG","https://siamsquaremookata.com.sg/","+65 8119 6664","Thai restaurant","https://www.google.com/maps/search/?api=1&query=Siam%20Square%20Mookata%20-%20Best%20Mookata%20Restaurant%20in%20Singapore&query_place_id=ChIJufaZrz0Q2jERjiCKiNsRsh4"
"Maji Curry Square 2","4.5","216","10 Sinaran Dr, #02-07","Singapore",,"SG","http://majicurry.com/","+65 8494 4898","Restaurant","https://www.google.com/maps/search/?api=1&query=Maji%20Curry%20Square%202&query_place_id=ChIJawC3ZFAZ2jEREtf2WSROJwo"
"Ban Heng Restaurant","3.5","724","22 Boon Keng Rd, #01-21","Singapore",,"SG","http://www.banheng.com.sg/","+65 6291 0407","Chinese restaurant","https://www.google.com/maps/search/?api=1&query=Ban%20Heng%20Restaurant&query_place_id=ChIJ_XLv8dEZ2jERezBydi33vg0"
"146 Dim Sum Handmade Bao","3.9","40","146 Potong Pasir Ave 1, #01-127 PP881 Foodhouse","Singapore",,"SG",,,"Dim sum restaurant","https://www.google.com/maps/search/?api=1&query=146%20Dim%20Sum%20Handmade%20Bao&query_place_id=ChIJE6wRwdkX2jERIU3uL5AvrjA"
"IKEA Jurong Restaurant","3.7","98","50 Jurong Gateway Rd, #04-20/21/22","Singapore",,"SG","https://www.ikea.com/sg/en/stores/restaurant/","+65 6786 6868","Swedish restaurant","https://www.google.com/maps/search/?api=1&query=IKEA%20Jurong%20Restaurant&query_place_id=ChIJWXkyfhER2jERe2ctFxHPaNs"
"Nara","4","140","167 Thomson Rd","Singapore",,"SG","http://www.narajapanese.sg/","+65 6256 6568","Japanese restaurant","https://www.google.com/maps/search/?api=1&query=Nara&query_place_id=ChIJeXsF6-cZ2jER3xfe4x5PF6s"
"Mother Earth Vegetarian Restaurant 大地之素","4.6","249","511 Upper Jurong Rd, #01-04 E inside main lobby of d'Arena","Singapore",,"SG","https://motherearthjurong.getz.co/","+65 8644 3168","Restaurant","https://www.google.com/maps/search/?api=1&query=Mother%20Earth%20Vegetarian%20Restaurant%20%E5%A4%A7%E5%9C%B0%E4%B9%8B%E7%B4%A0&query_place_id=ChIJqYXtH3AP2jERkVSR2wkqdew"
"Yuan Xing Chaozhou Restaurant","3.9","268","34 Whampoa West, #01-01","Singapore",,"SG",,"+65 6298 3179","Chinese restaurant","https://www.google.com/maps/search/?api=1&query=Yuan%20Xing%20Chaozhou%20Restaurant&query_place_id=ChIJ____x9MZ2jERSNn_GvDOLI0"
"Fountain Microbrewery & Restaurant","4.3","214","21 Jurong Town Hall Rd, Level 2 Snow City Singapore","Singapore",,"SG","https://fountain.com.sg/?utm_source=google&utm_medium=organic&utm_campaign=gmb-website&utm_content=website_button","+65 8121 5101","Brewpub","https://www.google.com/maps/search/?api=1&query=Fountain%20Microbrewery%20%26%20Restaurant&query_place_id=ChIJiaNN_7MR2jERhwy03KL7Dlc"
"Iskina Cebu Restaurant","3.8","132","73A Ayer Rajah Crescent, #01-27","Singapore",,"SG",,"+65 9230 8181","Filipino restaurant","https://www.google.com/maps/search/?api=1&query=Iskina%20Cebu%20Restaurant&query_place_id=ChIJkZqJeBgY2jERx_AR7wwXndk"
"Hansang Korean Family Restaurant","4.6","3391","10 Sinaran Dr, #03-33 Square 2","Singapore",,"SG",,"+65 6397 6752","Korean restaurant","https://www.google.com/maps/search/?api=1&query=Hansang%20Korean%20Family%20Restaurant&query_place_id=ChIJdUi9XecZ2jERxhzd-uWzdm8"
"Gim Seng Heng Seafood Restaurant","4","122","Block 36 Sin Ming Dr, #01-371","Singapore",,"SG","https://gim-seng-heng-seafood.business.site/","+65 6778 9891","Seafood restaurant","https://www.google.com/maps/search/?api=1&query=Gim%20Seng%20Heng%20Seafood%20Restaurant&query_place_id=ChIJDzQ4JSQX2jERwDX_V7DVjbM"
"Al-kareem Restaurant",,"0","23, #02 Penjuru Walk, #80&81 Cassia at Penjuru","Singapore",,"SG",,"+65 8257 6210","Halal restaurant","https://www.google.com/maps/search/?api=1&query=Al-kareem%20Restaurant&query_place_id=ChIJf267Oagb2jER-V4WxexAzz0"
"Malay Food Stall At Guan Kim Restaurant","5","2","47 Tanglin Halt Rd, Block 47","Singapore",,"SG",,,"Restaurant","https://www.google.com/maps/search/?api=1&query=Malay%20Food%20Stall%20At%20Guan%20Kim%20Restaurant&query_place_id=ChIJEZmIhkca2jERjWTIME4zlBM"
"Old Lai Huat Seafood Restaurant","4","295","223 Rangoon Rd","Singapore",,"SG",,,"Seafood restaurant","https://www.google.com/maps/search/?api=1&query=Old%20Lai%20Huat%20Seafood%20Restaurant&query_place_id=ChIJJTZJONsZ2jERPrHn4e1lye0"
"Mukjja Korean Chinese Restaurant","4.1","276","275 Thomson Rd, #01-07","Singapore",,"SG",,"+65 6259 7479","Restaurant","https://www.google.com/maps/search/?api=1&query=Mukjja%20Korean%20Chinese%20Restaurant&query_place_id=ChIJnU9LayEZ2jERQe2Z59-wPnY"
"Chang Korean Charcoal BBQ Restaurant","4.2","554","71 Loewen Rd, #01-01","Singapore",,"SG","http://changbbq.com.sg/","+65 6473 9005","Korean barbecue restaurant","https://www.google.com/maps/search/?api=1&query=Chang%20Korean%20Charcoal%20BBQ%20Restaurant&query_place_id=ChIJ1TIAJCMa2jERxEA9Zo_-TMs"
"Lai Kee Dim Sum (Toa Payoh)","3.6","77","126 Lor 1 Toa Payoh, Block 126","Singapore",,"SG","https://laikeedimsum.com/","+65 8731 3488","Dim sum restaurant","https://www.google.com/maps/search/?api=1&query=Lai%20Kee%20Dim%20Sum%20(Toa%20Payoh)&query_place_id=ChIJjZxlLGgX2jERrOzYAnKMkcY"
"McDonald's HDB Hub","3.7","399","490 Lor 6 Toa Payoh, #01-11 HDB Hub","Singapore",,"SG","https://www.mcdonalds.com.sg/","+65 6777 3777","Fast food restaurant","https://www.google.com/maps/search/?api=1&query=McDonald's%20HDB%20Hub&query_place_id=ChIJNxgTJGcX2jERknmwhIA08gY"
"Yee Cheong Yuen Noodle Restaurant Pte Ltd",,"0","600 Lor 4 Toa Payoh","Singapore",,"SG",,"+65 6258 0040","Market","https://www.google.com/maps/search/?api=1&query=Yee%20Cheong%20Yuen%20Noodle%20Restaurant%20Pte%20Ltd&query_place_id=ChIJVw6i2mUX2jERrmwLxTPhzVU"
"Brotzeit German Beer Bar and Restaurant - VivoCity","4.2","2741","1 HarbourFront Walk, #01-149 VivoCity","Singapore",,"SG","http://www.brotzeit.co/?utm_source=google&utm_medium=organic&utm_campaign=gmb","+65 6272 8815","German restaurant","https://www.google.com/maps/search/?api=1&query=Brotzeit%20German%20Beer%20Bar%20and%20Restaurant%20-%20VivoCity&query_place_id=ChIJQ7ONulgZ2jERMHtVg8e4VHg"
"Picotin Brewhaus - Rochester","4","923","35 Rochester Dr","Singapore",,"SG","https://www.brewhaus.sg/","+65 6877 1191","Brewpub","https://www.google.com/maps/search/?api=1&query=Picotin%20Brewhaus%20-%20Rochester&query_place_id=ChIJn_-VG6Ub2jEReJQnN3fCGow"
"Siam Square Mookata - Best Mookata Restaurant in Singapore","3.9","169","600 Lor 4 Toa Payoh, #01-06/07/09/10","Singapore",,"SG","https://siamsquaremookata.com.sg/","+65 8119 6664","Thai restaurant","https://www.google.com/maps/search/?api=1&query=Siam%20Square%20Mookata%20-%20Best%20Mookata%20Restaurant%20in%20Singapore&query_place_id=ChIJuZwdrXAX2jERq8ApYXeeru4"
"Rasa Istimewa @ Pasir Ris","4.3","724","201 Pasir Ris Rd","Singapore",,"SG","https://www.rasaistimewa.sg/","+65 6386 9339","Restaurant","https://www.google.com/maps/search/?api=1&query=Rasa%20Istimewa%20%40%20Pasir%20Ris&query_place_id=ChIJcwkC8Co92jERxiPJ0rflF9c"
"Anjappar Restaurant @ T1 Public","3.4","296","80 Airport Boulevard 03-20, Terminal 1 Public Area","Singapore",,"SG","http://anjappar.com.sg/","+65 6278 5545","Halal restaurant","https://www.google.com/maps/search/?api=1&query=Anjappar%20Restaurant%20%40%20T1%20Public&query_place_id=ChIJBwvgX8492jERuGqgO6qiZPc"
"GO Noodle House Changi Airport T2","4.1","56","60 Airport Blvd., #03-24/25-01 Viewing Mall South, Terminal 2","Singapore",,"SG","https://www.gonoodlehouse.com.sg/","+65 6600 3323","Chinese noodle restaurant","https://www.google.com/maps/search/?api=1&query=GO%20Noodle%20House%20Changi%20Airport%20T2&query_place_id=ChIJCXiCDg892jERFAZ9zxlrTIA"
"Shi Fu Restaurant Discotheques Pte Ltd",,"0","1 Pasir Ris Cl","Singapore",,"SG",,"+65 6581 4666","Restaurant","https://www.google.com/maps/search/?api=1&query=Shi%20Fu%20Restaurant%20Discotheques%20Pte%20Ltd&query_place_id=ChIJ4Qh_VrE92jERXowHAkT9sTQ"
"Kaveri Vegetarian Cuisine","3.3","186","60 Airport Blvd.","Singapore",,"SG",,,"South Indian restaurant","https://www.google.com/maps/search/?api=1&query=Kaveri%20Vegetarian%20Cuisine&query_place_id=ChIJU_Xcwo082jERVXEj7_Vu1ys"
"Different Taste Cafe & Restaurant","4.1","331","111 Frankel Ave","Singapore",,"SG","https://m.facebook.com/differenttasterestaurant/?ref=bookmarks","+65 6241 6518","Family restaurant","https://www.google.com/maps/search/?api=1&query=Different%20Taste%20Cafe%20%26%20Restaurant&query_place_id=ChIJC690iKYi2jERvmTCA-JjDn8"
"Quentin's the Eurasian Restaurant","4.2","569","139 Ceylon Rd, Level 1 Eurasian Heritage Gallery","Singapore",,"SG","http://www.quentins.com.sg/","+65 9008 3804","Restaurant","https://www.google.com/maps/search/?api=1&query=Quentin's%20the%20Eurasian%20Restaurant&query_place_id=ChIJCxTorhMY2jER96kxaVyOcZc"
"Cosmo Bar & Restaurant @ Capri Changi City","4.3","142","3 Changi Business Park Central 1, Lobby Restaurant","Singapore",,"SG","http://www.cosmodining.com.sg/","+65 6933 9878","Restaurant","https://www.google.com/maps/search/?api=1&query=Cosmo%20Bar%20%26%20Restaurant%20%40%20Capri%20Changi%20City&query_place_id=ChIJe_JPUaEP2jERRnm4-C_ZUZQ"
"Stella Seaside Lounge","4.2","1759","11 Changi Coast Walk","Singapore",,"SG","http://www.stella.com.sg/","+65 6214 9168","Lounge","https://www.google.com/maps/search/?api=1&query=Stella%20Seaside%20Lounge&query_place_id=ChIJL9EqqjAj2jERtpYeN4Ku0CQ"
"Tapas Club","3.8","472","78 Airport Blvd., #03 - 220 / 221 / 222","Singapore",,"SG","https://www.tapasclub.com/reservation","+65 9155 0906","Spanish restaurant","https://www.google.com/maps/search/?api=1&query=Tapas%20Club&query_place_id=ChIJ-5ab1M092jERypc0EaT6yfg"
"Sankranti Restaurant","4","412","1 Changi Business Park Cres, #01-14/15","Singapore",,"SG","http://www.sankrantihotels.com/","+65 6784 8498","Andhra restaurant","https://www.google.com/maps/search/?api=1&query=Sankranti%20Restaurant&query_place_id=ChIJ32TmINc82jEReBiRGm_1TgY"
"Chin Lee Restaurant","4.3","1502","115 Bedok North Rd, #01-285","Singapore",,"SG","http://chinlee.com.sg/#page","+65 6449 5454","Chinese restaurant","https://www.google.com/maps/search/?api=1&query=Chin%20Lee%20Restaurant&query_place_id=ChIJTT5t4Ek92jERFUegYdjoYU8"
"Buey Tahan See-Food Restaurant @ DTE","4.2","190","1 Pasir Ris Cl, #04-101 E!Hub","Singapore",,"SG","http://www.bueytahan.sg/","+65 8815 2024","Halal restaurant","https://www.google.com/maps/search/?api=1&query=Buey%20Tahan%20See-Food%20Restaurant%20%40%20DTE&query_place_id=ChIJyZYEHDU92jERORi-XZS45ZE"
"Ding Heng Restaurant","3.9","36","963C Upper Changi Rd N, #01-11 Komo Shoppes","Singapore",,"SG",,"+65 9030 3323","Chinese restaurant","https://www.google.com/maps/search/?api=1&query=Ding%20Heng%20Restaurant&query_place_id=ChIJWzjA2SQ92jEReBN_3TEKkH4"
"Le Aranda Restaurant",,"0","60 Pasir Ris Dr 3","Singapore",,"SG",,,"Restaurant","https://www.google.com/maps/search/?api=1&query=Le%20Aranda%20Restaurant&query_place_id=ChIJ33KPErE92jERO1p6YbwdXG4"
"Crystal Jade La Mian Xiao Long Bao","3.1","204","80 Airport Boulevard, Changi Airport T1 #03-54 Departure, Level 3 Transit Lounge East","Singapore",,"SG","http://www.crystaljade.com/","+65 6542 3158","Chinese restaurant","https://www.google.com/maps/search/?api=1&query=Crystal%20Jade%20La%20Mian%20Xiao%20Long%20Bao&query_place_id=ChIJw8ER8ok82jERXI4IDmEOzNY"
"Hong Kong Street Family Restaurant Bedok 香港街","4.1","451","430 Upper Changi Rd, #01-67","Singapore",,"SG",,"+65 6245 3881","Chinese restaurant","https://www.google.com/maps/search/?api=1&query=Hong%20Kong%20Street%20Family%20Restaurant%20Bedok%20%E9%A6%99%E6%B8%AF%E8%A1%97&query_place_id=ChIJ34jrBNQi2jER8TS0jo_zrsY"
"Nandhana's restaurant Eastpoint Simei","3.4","169","Simei Street 1",,,"SG",,,"Restaurant","https://www.google.com/maps/search/?api=1&query=Nandhana's%20restaurant%20Eastpoint%20Simei&query_place_id=ChIJ9ciIgO892jERUNJPC3z_jKA"
"Banjara restaurant","4.4","120","6 Changi Business Park Ave 1 North Tower. Food ALLEY, #01-32 ESR, UE BizHub East","Singapore",,"SG","http://www.banjara.com.sg/","+65 6214 0402","Restaurant","https://www.google.com/maps/search/?api=1&query=Banjara%20restaurant&query_place_id=ChIJjWk9QGg92jERiH2RTxmnpw0"
"AL Mubin Restaurant 24hr","2.9","39","Changi Village Rd, #1","Singapore",,"SG",,"+65 6904 0145","Restaurant","https://www.google.com/maps/search/?api=1&query=AL%20Mubin%20Restaurant%2024hr&query_place_id=ChIJ5xVATtY92jERklxpDYzsNeU"
"terra Tokyo Italian","4.4","297","54 Tras St","Singapore",,"SG","http://www.terraseita.com/","+65 9751 2145","Italian restaurant","https://www.google.com/maps/search/?api=1&query=terra%20Tokyo%20Italian&query_place_id=ChIJH8QyMG0Z2jERlvBEI9CfCXw"
"Long Phụng Vietnamese Restaurant","5","1",,,,"SG",,,"Restaurant","https://www.google.com/maps/search/?api=1&query=Long%20Ph%E1%BB%A5ng%20Vietnamese%20Restaurant&query_place_id=ChIJTfU8BlUZ2jERIyQnv2riHZY"
"Restaurant JAG","4.8","279","41 Robertson Quay, #02-02 STPI Creative Workshop and Gallery","Singapore",,"SG","https://www.restaurantjag.com/","+65 6871 8973","Restaurant","https://www.google.com/maps/search/?api=1&query=Restaurant%20JAG&query_place_id=ChIJKf8-B1IZ2jERKoqDakRkZy0"
"Bochinche","4.5","1153","27 Club St","Singapore",,"SG","http://www.bochinche.com.sg/","+65 6235 4990","Argentinian restaurant","https://www.google.com/maps/search/?api=1&query=Bochinche&query_place_id=ChIJRaI_LpwZ2jERMm8ay4IzPlk"
"Fleur De Sel Le Restaurant","4.5","274","64 Tras St","Singapore",,"SG","http://www.fleurdesel.com.sg/","+65 6222 6861","French restaurant","https://www.google.com/maps/search/?api=1&query=Fleur%20De%20Sel%20Le%20Restaurant&query_place_id=ChIJp2UFL20Z2jERJC_y2icO1kg"
"一品居中餐馆 Yi Pin Ju Chinese Restaurant","4.1","95","6 Lim Teck Kim Rd","Singapore",,"SG","https://yi-pin-ju-chinese-restaurant.business.site/?m=true","+65 8835 5376","Chinese restaurant","https://www.google.com/maps/search/?api=1&query=%E4%B8%80%E5%93%81%E5%B1%85%E4%B8%AD%E9%A4%90%E9%A6%86%20Yi%20Pin%20Ju%20Chinese%20Restaurant&query_place_id=ChIJI4F4E9gX2jER5hctkziKQaI"
"Restaurant Ibid","4.9","760","18 N Canal Rd","Singapore",,"SG","https://www.restaurantibid.com/","+65 9151 8698","Asian fusion restaurant","https://www.google.com/maps/search/?api=1&query=Restaurant%20Ibid&query_place_id=ChIJzUZNrgsZ2jER2epSYaG6Gyg"
"Restaurant Fiz","4.8","29","21 Tg Pagar Rd, #01-01/02 Next to the Fairfield Methodist Church","Singapore",,"SG","http://www.restaurantfiz.sg/","+65 9679 8021","Fine dining restaurant","https://www.google.com/maps/search/?api=1&query=Restaurant%20Fiz&query_place_id=ChIJJ8s24l8Z2jERmHd_s9Vxa1s"
"White Restaurant (VivoCity)","4.5","256","1 HarbourFront Walk, #02-121/122 VivoCity","Singapore",,"SG","https://whiterestaurant.com.sg/","+65 6592 0726","Chinese restaurant","https://www.google.com/maps/search/?api=1&query=White%20Restaurant%20(VivoCity)&query_place_id=ChIJe4R8RAoZ2jERGK0W6aIiKU4"
"Etna Italian Restaurant (Duxton)","4.5","983","49/50 Duxton Rd","Singapore",,"SG","http://www.etnaitalianrestaurant.com/","+65 6220 5513","Italian restaurant","https://www.google.com/maps/search/?api=1&query=Etna%20Italian%20Restaurant%20(Duxton)&query_place_id=ChIJVQ_zFW0Z2jERmvcYiSmIuSk"
"KWEE ZEEN","3.7","213","2 Bukit Manis Rd, Sentosa","Singapore",,"SG","https://restaurantsandbars.accor.com/fr/restaurant/9474_R002?utm_source=google+Maps&utm_medium=seo+maps&utm_campaign=seo+maps&y_source=1_MzkxMDAxMTMtNzE1LWxvY2F0aW9uLndlYnNpdGU%3D","+65 6708 8366","Restaurant","https://www.google.com/maps/search/?api=1&query=KWEE%20ZEEN&query_place_id=ChIJSwxxza4e2jERCRLenKJJs1M"
"Pura Brasa Singapore","4.3","1429","5 Wallich St, #01-16","Singapore",,"SG","https://www.purabrasa.com/singapore/","+65 6386 9678","Spanish restaurant","https://www.google.com/maps/search/?api=1&query=Pura%20Brasa%20Singapore&query_place_id=ChIJAcojGBMZ2jERgPMPzf89eaw"
"Syun","4","137","8 Sentosa Gateway, Ave8","Singapore",,"SG","https://www.rwsentosa.com/en/restaurants/signature-restaurants/syun","+65 6577 6867","Japanese restaurant","https://www.google.com/maps/search/?api=1&query=Syun&query_place_id=ChIJ-zgVQv4b2jERecxX2O3ERyM"
"Noodle Place Restaurant",,"0","201 Keppel Rd","Singapore",,"SG",,"+65 6733 3171","Fusion restaurant","https://www.google.com/maps/search/?api=1&query=Noodle%20Place%20Restaurant&query_place_id=ChIJoZiROVkZ2jERe_KomCaUFmE"
"Al Zara Restaurant","3.3","12","104 Jurong E St 13","Singapore",,"SG",,,"Indian Muslim restaurant","https://www.google.com/maps/search/?api=1&query=Al%20Zara%20Restaurant&query_place_id=ChIJlSCN3ioR2jER2KNvxDGjlMs"
"Yue Private Dining 悦私宴","4.7","50","1 Gunner Ln, Sentosa","Singapore",,"SG","http://www.hiddenjoy.com.sg/","+65 8628 6818","Chinese restaurant","https://www.google.com/maps/search/?api=1&query=Yue%20Private%20Dining%20%E6%82%A6%E7%A7%81%E5%AE%B4&query_place_id=ChIJ5eSpZeAZ2jEREuppWPqE0nE"
"Sona's Grill Restaurant","4.7","316","12 Gopeng St, #01- 82/83 Icon Village","Singapore",,"SG","https://www.sonasgrill.com/","+65 9152 0504","North Indian restaurant","https://www.google.com/maps/search/?api=1&query=Sona's%20Grill%20Restaurant&query_place_id=ChIJoSetvFUZ2jERant-TtHCdLQ"
"Gravy Restaurant and Bar","4.6","484","1 Hoe Chiang Rd","Singapore",,"SG","https://www.gravy.sg/","+65 9101 5824","Indian restaurant","https://www.google.com/maps/search/?api=1&query=Gravy%20Restaurant%20and%20Bar&query_place_id=ChIJ1x23LOUZ2jERKyDnoUa9HH4"
"Jang San Korean Restaurant 장산왕족발","4.8","54","1 W Coast Dr, #01-107","Singapore",,"SG","http://jangsankoreanrestaurant.oddle.me/","+65 8679 4622","Restaurant","https://www.google.com/maps/search/?api=1&query=Jang%20San%20Korean%20Restaurant%20%EC%9E%A5%EC%82%B0%EC%99%95%EC%A1%B1%EB%B0%9C&query_place_id=ChIJH2qMV_Ab2jERmx2LbOg0S1Y"
"Chindamani Indian Restaurant Pte Ltd","4.7","3","1 Wholesale Centre, #02-11","Singapore",,"SG",,,"Indian restaurant","https://www.google.com/maps/search/?api=1&query=Chindamani%20Indian%20Restaurant%20Pte%20Ltd&query_place_id=ChIJQYTCTWwb2jERPT6aFAHtigI"
"Sakunthala's Restaurant - SAFRA Mount Faber","3.9","218","2 Telok Blangah Way #01-07 SAFRA, Mount Faber","Singapore",,"SG","https://www.sakunthalas.com/","+65 6261 0314","Indian restaurant","https://www.google.com/maps/search/?api=1&query=Sakunthala's%20Restaurant%20-%20SAFRA%20Mount%20Faber&query_place_id=ChIJ4w9Rwbwb2jERbaN2kBT1Eqw"
"Chang Lai Ju Seafood BBQ Restaurant","3.7","10","90 Boon Place, Savoy Theatre","Singapore",,"SG",,"+65 8387 3971","Seafood restaurant","https://www.google.com/maps/search/?api=1&query=Chang%20Lai%20Ju%20Seafood%20BBQ%20Restaurant&query_place_id=ChIJhYB_Y5kP2jERuAuMttWUkHM"
"KNS Restaurant","1.9","40","491 Jurong West Ave 1, #01-149 Jurongville@Avenue 1","Singapore",,"SG","https://knsrestaurant.com/","+65 6816 8944","Indian restaurant","https://www.google.com/maps/search/?api=1&query=KNS%20Restaurant&query_place_id=ChIJZRgFnAEP2jERKjUYAYIq4_Y"
"The Butcher's Wife","4.5","852","19 Yong Siak St","Singapore",,"SG",,"+65 6221 9307","Gluten-free restaurant","https://www.google.com/maps/search/?api=1&query=The%20Butcher's%20Wife&query_place_id=ChIJHUbTUG8Z2jERA3V0ZdF4Pw0"
"Charlie's Restaurant & Bar (Boat Quay)","4.2","378","32 Boat Quay","Singapore",,"SG","http://www.charlies.com.sg/","+65 6533 5880","Restaurant","https://www.google.com/maps/search/?api=1&query=Charlie's%20Restaurant%20%26%20Bar%20(Boat%20Quay)&query_place_id=ChIJDx3vzwsZ2jER6ydTL0thLm0"
"Yi Jia Le Wah Chye Seafood Restaurant","3.8","77","546 Jurong West Street 42, Block 546 Block 546","Singapore",,"SG","https://eatbook.sg/jurong-zi-char/","+65 9662 3055","Seafood restaurant","https://www.google.com/maps/search/?api=1&query=Yi%20Jia%20Le%20Wah%20Chye%20Seafood%20Restaurant&query_place_id=ChIJx_dc8MQP2jERD0D5st2HByI"
"AHTTI Korean Restaurant","4.2","239","2 Venture Dr, #02-43 Vision Exchange","Singapore",,"SG","https://www.instagram.com/ahtti_kr/","+65 6803 9341","Korean restaurant","https://www.google.com/maps/search/?api=1&query=AHTTI%20Korean%20Restaurant&query_place_id=ChIJ80ZPPvUR2jERsK-jEZy1Owc"
"Bountiful Restaurant","3.2","32",,"Singapore",,"SG",,"+65 6270 3323","Restaurant","https://www.google.com/maps/search/?api=1&query=Bountiful%20Restaurant&query_place_id=ChIJMQiFIdAb2jERK3knfICI9Cc"
"You Le Tian Seafood Restaurant","3.1","33","498 Jurong West Street 41","Singapore",,"SG",,"+65 6564 6589","Seafood restaurant","https://www.google.com/maps/search/?api=1&query=You%20Le%20Tian%20Seafood%20Restaurant&query_place_id=ChIJwdNgut4P2jERADBq9nQIGc8"
"ANJU","4.4","349","62 Tras St","Singapore",,"SG","http://anju.com.sg/","+65 6612 1172","Korean restaurant","https://www.google.com/maps/search/?api=1&query=ANJU&query_place_id=ChIJlQEbYh4Z2jERCmO7X7rN_c0"
"Ever Dragon Family Restaurant","4.2","177","24 Bendemeer Rd, #01 541","Singapore",,"SG",,"+65 6295 1929","Family restaurant","https://www.google.com/maps/search/?api=1&query=Ever%20Dragon%20Family%20Restaurant&query_place_id=ChIJV0YWiNEZ2jERJCb2BdUtFww"
"KNS Restaurant","2.8","78","346 Jurong East Street 31, #01-73 Yuhua Place","Singapore",,"SG","https://knsrestaurant.com/","+65 8234 5543","Indian Muslim restaurant","https://www.google.com/maps/search/?api=1&query=KNS%20Restaurant&query_place_id=ChIJayQQ_q8R2jERLJbAEjVYqk0"
"Da Luca Italian Restaurant","4.3","645","1 Goldhill Plaza, #01-19/21","Singapore",,"SG",,"+65 6258 4846","Italian restaurant","https://www.google.com/maps/search/?api=1&query=Da%20Luca%20Italian%20Restaurant&query_place_id=ChIJZ27Ex-cZ2jERvJAsBMsgDak"
"Himawari Japanese Restaurant","4.4","965","991B Alexandra Rd, #01-08/09","Singapore",,"SG","http://www.himawari.com.sg/","+65 6272 1110","Authentic Japanese restaurant","https://www.google.com/maps/search/?api=1&query=Himawari%20Japanese%20Restaurant&query_place_id=ChIJFdruaMEb2jERMCmyEfu4Tws"
"Wrap City - North Indian Vegetarian Restaurant","4.7","37","2 Venture Dr, #02-31 Vision Exchange","Singapore",,"SG","https://wrapcity.com.sg/","+65 6980 6648","Vegetarian restaurant","https://www.google.com/maps/search/?api=1&query=Wrap%20City%20-%20North%20Indian%20Vegetarian%20Restaurant&query_place_id=ChIJnSNybkIR2jERahLru0rbhmo"
"KFC","2.9","79","301 Upper Thomson Rd, #02-27/28/29 Thomson Plaza","Singapore",,"SG","https://www.kfc.com.sg/","+65 6456 9816","Fast food restaurant","https://www.google.com/maps/search/?api=1&query=KFC&query_place_id=ChIJC_JDKDAX2jERvXPsu5ZQ5sQ"
"Cui Xiang Yuan Restaurant 翠香园餐馆","4.5","54","BLK.61 Telok Blangah Heights, #01-121","Singapore",,"SG",,,"Chinese restaurant","https://www.google.com/maps/search/?api=1&query=Cui%20Xiang%20Yuan%20Restaurant%20%E7%BF%A0%E9%A6%99%E5%9B%AD%E9%A4%90%E9%A6%86&query_place_id=ChIJw04Tl9A92jERjjxFhTVx3Kk"
"Pixy Restaurant & Bar","4.6","244","16 Mohamed Sultan Rd","Singapore",,"SG","https://www.pixycuisine.com/","+65 9171 7682","Restaurant","https://www.google.com/maps/search/?api=1&query=Pixy%20Restaurant%20%26%20Bar&query_place_id=ChIJOxhp1J4Z2jERaBk4Dk_0J_I"
"Sushi Take-Out","4.1","326","490 Lor 6 Toa Payoh, #01-22 HDB Hub","Singapore",,"SG","http://www.sushiexpress.com.sg/menu/sushitakeout","+65 6592 7404","Sushi takeaway","https://www.google.com/maps/search/?api=1&query=Sushi%20Take-Out&query_place_id=ChIJeSkh6lAX2jER7nVBv-KITt0"
"NAYANA Kpop Cafe & Restaurant@Poiz, Central Singapore, nice late supper Korean food, indoor pet friendly, vegetarian options","4.6","517","51 Upper Serangoon Rd, #01-28 Poiz Center","Singapore",,"SG","http://www.yuppylicious.com/","+65 6281 0339","Korean restaurant","https://www.google.com/maps/search/?api=1&query=NAYANA%20Kpop%20Cafe%20%26%20Restaurant%40Poiz%2C%20Central%20Singapore%2C%20nice%20late%20supper%20Korean%20food%2C%20indoor%20pet%20friendly%2C%20vegetarian%20options&query_place_id=ChIJOa1bx0YX2jERXyVUog9SI2E"
"Miyabi Japanese Restaurant","4.2","91","1 Plymouth Ave, Level 2 Raffles Town Club","Singapore",,"SG","https://www.rafflestownclub.com.sg/miyabi-japanese-restaurant","+65 6357 3335","Restaurant","https://www.google.com/maps/search/?api=1&query=Miyabi%20Japanese%20Restaurant&query_place_id=ChIJ04oiK_kZ2jERX0ctMP0WwiY"
"McDonald's Toa Payoh SAFRA","4.1","819","293 Lorong 6 Toa Payoh #01-02, SAFRA, Club. Singapore","Singapore",,"SG","https://www.mcdonalds.com.sg/","+65 6777 3777","Hamburger restaurant","https://www.google.com/maps/search/?api=1&query=McDonald's%20Toa%20Payoh%20SAFRA&query_place_id=ChIJ7_OCQL4X2jERkB9iRMcfRp0"
"McDonald's Toa Payoh Central","4","829","600 Lor 4 Toa Payoh, #01-02","Singapore",,"SG","https://www.mcdonalds.com.sg/","+65 6777 3777","Hamburger restaurant","https://www.google.com/maps/search/?api=1&query=McDonald's%20Toa%20Payoh%20Central&query_place_id=ChIJt2Gs1mUX2jERzGDW_F13xK0"
"Sin Ming Roti Prata Faisal & Aziz Curry Muslim Food","4.2","1514","24 Sin Ming Rd, #01-51","Singapore",,"SG","https://m.facebook.com/pages/Sin-Ming-Roti-Prata/1596758203751915","+65 6453 3893","Indian Muslim restaurant","https://www.google.com/maps/search/?api=1&query=Sin%20Ming%20Roti%20Prata%20Faisal%20%26%20Aziz%20Curry%20Muslim%20Food&query_place_id=ChIJLx5D1iQX2jERYY_BY9npD6s"
"Al Borgo Italian Restaurant","4.3","429","383 Bukit Timah Rd, #01-02","Singapore",,"SG","http://www.alborgo.asia/","+65 9772 1680","Italian restaurant","https://www.google.com/maps/search/?api=1&query=Al%20Borgo%20Italian%20Restaurant&query_place_id=ChIJMZS0f_kZ2jERS9Z6l2Jnw9g"
"Ariff's Restaurant","3.7","15","253 Serangoon Central Dr","S",,"SG",,,"Indian restaurant","https://www.google.com/maps/search/?api=1&query=Ariff's%20Restaurant&query_place_id=ChIJZdCkU_cX2jERLycswcT17xk"
"Al Fatthah Food Expo Restaurant","3","7","177 Toa Payoh Central, #01-102","Singapore",,"SG",,,"Restaurant","https://www.google.com/maps/search/?api=1&query=Al%20Fatthah%20Food%20Expo%20Restaurant&query_place_id=ChIJbyBdkEUX2jERLvA4cBV81Jg"
"The Café & Terrace Restaurant","3.9","61","1 Plymouth Ave, Level 2 Raffles Town Club","Singapore",,"SG","https://www.rafflestownclub.com.sg/cafe-terrace","+65 6357 3332","Fusion restaurant","https://www.google.com/maps/search/?api=1&query=The%20Caf%C3%A9%20%26%20Terrace%20Restaurant&query_place_id=ChIJFUNR1fgZ2jER8_PFL26c8Ao"
"Ameeda Indian Muslim Food","2.5","18","203A Toa Payoh N, Block 203","Singapore",,"SG",,,"Indian Muslim restaurant","https://www.google.com/maps/search/?api=1&query=Ameeda%20Indian%20Muslim%20Food&query_place_id=ChIJYxqpfIsX2jERai_BofBDf38"
"Cheese Story Mookata Buffet","4","514","31 Ah Hood Rd, #01-07","Singapore",,"SG","https://m.facebook.com/CheeseStoryMookata/?locale2=zh_CN","+65 8678 7876","Thai restaurant","https://www.google.com/maps/search/?api=1&query=Cheese%20Story%20Mookata%20Buffet&query_place_id=ChIJ4R23gbQZ2jER85M9uwxu0d8"
"Nam Kee Chicken Rice Restaurant","4.1","677","201 Upper Thomson Rd","Singapore",,"SG","https://namkeechickenricerestaurant.oddle.me/en_SG","+65 9637 9168","Chicken restaurant","https://www.google.com/maps/search/?api=1&query=Nam%20Kee%20Chicken%20Rice%20Restaurant&query_place_id=ChIJOSk7WzoX2jERZg1a5k6QeBU"
"BerryGood Restaurant","4.1","29","47 Lor 6 Toa Payoh, #01-140 Block 47","Singapore",,"SG","https://berrygood.sg/",,"Restaurant","https://www.google.com/maps/search/?api=1&query=BerryGood%20Restaurant&query_place_id=ChIJHcV6AvkX2jER7jBJF15c9i4"
"Otou-San Hokkaido Donburi","4.5","114","20 Ah Hood Rd, #01-12 Zhongshan Mall","Singapore",,"SG","https://order.otousan.com.sg/","+65 9768 8330","Japanese restaurant","https://www.google.com/maps/search/?api=1&query=Otou-San%20Hokkaido%20Donburi&query_place_id=ChIJAVmVMLQX2jER4k5CEjK_6FE"
"Al Hadheerah Restaurant (HDB Hub)","3.1","37","480 Lor 6 Toa Payoh, #B1- 01","Singapore",,"SG",,"+65 8552 2899","Halal restaurant","https://www.google.com/maps/search/?api=1&query=Al%20Hadheerah%20Restaurant%20(HDB%20Hub)&query_place_id=ChIJr1OjVzAX2jERjUxPMGO2JVE"
"A-Roy Thai Restaurant","4.1","678","Thomson Rd, 238号Novena Square#03-61/64","Velocity",,"SG","http://www.aroythai.com.sg/","+65 6338 3880","Thai restaurant","https://www.google.com/maps/search/?api=1&query=A-Roy%20Thai%20Restaurant&query_place_id=ChIJ3ZltdOcZ2jERI_nSocpcfhk"
"Fireside","4.8","24","31 Ocean Way, #01 - 15","Singapore",,"SG","/url?q=https://www.fireside.sg/&opi=79508299&sa=U&ved=0ahUKEwj00sWEneKEAxUxSTABHZHTD6MQ61gIGigQ&usg=AOvVaw0dF57DqXEWLIDU2K_x4RPk","+65 8181 6200","Restaurant","https://www.google.com/maps/search/?api=1&query=Fireside&query_place_id=ChIJicDpowMf2jERxlf5XQmczW8"
"Osia Steak and Seafood Grill","4.2","414","8 Sentosa Gateway Ave8, #02-140 & 141","Singapore",,"SG","/url?q=https://www.rwsentosa.com/en/restaurants/signature-restaurants/osia-steak-and-seafood-grill&opi=79508299&sa=U&ved=0ahUKEwjl8ayCneKEAxWgRjABHZubBz8Q61gIGCgO&usg=AOvVaw3YUatFUxO0s_zFso7BM35Q","+65 6577 6560","Modern Australian restaurant","https://www.google.com/maps/search/?api=1&query=Osia%20Steak%20and%20Seafood%20Grill&query_place_id=ChIJufG1t1UZ2jERqqP4QaIoTzc"
"Rock Bar Burger & Steakhouse","4.1","284","31 Ocean Way, #01 - 06","Singapore",,"SG","/url?q=https://www.rockbarburgersteakhouse.sg/&opi=79508299&sa=U&ved=0ahUKEwi89dKJneKEAxV5RzABHUyCDDYQ61gIGigQ&usg=AOvVaw0ag9sDQsciIARAndQOsot9","+65 6694 0994","Family restaurant","https://www.google.com/maps/search/?api=1&query=Rock%20Bar%20Burger%20%26%20Steakhouse&query_place_id=ChIJs9zrSIEZ2jERPFV8lMbgNPk"
"WOK°15 Kitchen","4.4","299","#01-01 11 Cove Drive, Sentosa Cove","Singapore",,"SG","/url?q=https://one15marina.com/dining/wok-15-kitchen/&opi=79508299&sa=U&ved=0ahUKEwiq0N6HneKEAxVjRDABHWh2BnMQ61gIGCgO&usg=AOvVaw2ApAevewXlmSqSW0kO6Tlc","+65 6305 6998","Restaurant","https://www.google.com/maps/search/?api=1&query=WOK%C2%B015%20Kitchen&query_place_id=ChIJfRsaqLYe2jERoKBUK2tvw8Q"
"Blue Lotus Singapore (Chinese Eating House)","4.3","226","31 Ocean Way, #01 - 13 Quayside Isle","Singapore",,"SG","/url?q=http://www.bluelotus.com.sg/&opi=79508299&sa=U&ved=0ahUKEwj5rLuLneKEAxU7gIQIHZs3A3cQ61gIHSgS&usg=AOvVaw2lhvN46ygi3foi2DRRdpzG","+65 9781 1663","Chinese restaurant","https://www.google.com/maps/search/?api=1&query=Blue%20Lotus%20Singapore%20(Chinese%20Eating%20House)&query_place_id=ChIJIchqf7Ye2jERQcR7gSmdVjA"
"the kitchen table","4.1","360","21 Ocean Way, Sentosa","Singapore",,"SG","/url?q=https://www.thekitchentable.sg/&opi=79508299&sa=U&ved=0ahUKEwiF3-uXneKEAxWzSDABHTfLCqcQ61gIGigQ&usg=AOvVaw3GSD_DEqS34-XU7EddAixj","+65 6808 7268","Restaurant","https://www.google.com/maps/search/?api=1&query=the%20kitchen%20table&query_place_id=ChIJFQjWe7Ye2jERp81YJMFE3vE"
"Buddy Hoagies Steak & Grill Restaurant (Bedok)","4.2","700","11 Bedok North Street 1, #01-27 Heartbeat @ Bedok","Singapore",,"SG","/url?q=http://www.buddyhoagies.com.sg/&opi=79508299&sa=U&ved=0ahUKEwi2t6CdneKEAxUhk4QIHVD3DXgQ61gIHSgS&usg=AOvVaw0UXu4-Os_UDNrYnLiqb0HK","+65 6282 8850","Western restaurant","https://www.google.com/maps/search/?api=1&query=Buddy%20Hoagies%20Steak%20%26%20Grill%20Restaurant%20(Bedok)&query_place_id=ChIJazF3vkw92jERvK_t52d6Nwo"
"SKIRT Restaurant","4.3","506","21 Ocean Way","Singapore",,"SG","/url?q=https://www.skirt.sg/&opi=79508299&sa=U&ved=0ahUKEwjqxKudneKEAxU3ibAFHQqBCbAQ61gIGSgO&usg=AOvVaw2DkwLECnlnV1P6SzajjZPb","+65 6808 7278","Steak house","https://www.google.com/maps/search/?api=1&query=SKIRT%20Restaurant&query_place_id=ChIJFQjWe7Ye2jER-Q54GE9iyqs"
"Quayside Isle","4.4","909","31 Ocean Way","Singapore",,"SG","/url?q=http://www.quaysideisle.com/&opi=79508299&sa=U&ved=0ahUKEwiU3bedneKEAxVhTjABHcBOAdYQ61gIGCgO&usg=AOvVaw38IINFH3Se65h2CL_Uktyu","+65 6887 3502","Restaurant","https://www.google.com/maps/search/?api=1&query=Quayside%20Isle&query_place_id=ChIJ01fgzLUe2jERxlhvImcbZ7g"
"Two Chefs Bar","4.2","249","31 Ocean Way, # 01 - 11 Quayside Isle","Singapore",,"SG","/url?q=http://www.twochefsbar.com.sg/contact-us&opi=79508299&sa=U&ved=0ahUKEwiv376dneKEAxW5RjABHVVvDSMQ61gIHCgS&usg=AOvVaw0k_7bTbIqM0Y4tCoxiGc8J","+65 6268 8633","Restaurant","https://www.google.com/maps/search/?api=1&query=Two%20Chefs%20Bar&query_place_id=ChIJyZWB1rUe2jERntFa-iAPgm4"
"TAG Restaurant & Bar","4.3","75","1 Expo Dr, #01-32","Singapore",,"SG","/url?q=http://tagrestaurantandbar.com/&opi=79508299&sa=U&ved=0ahUKEwjlv8idneKEAxUNsoQIHUX9BrUQ61gIGigQ&usg=AOvVaw3_QNE_5fRozmewGSKWkf-a","+65 8111 8846","Restaurant","https://www.google.com/maps/search/?api=1&query=TAG%20Restaurant%20%26%20Bar&query_place_id=ChIJT9QCp1o92jERFlEbp4apo6A"
"THE CLIFF","4.2","837","2 Bukit Manis Rd, Sentosa","Singapore",,"SG","/url?q=https://restaurantsandbars.accor.com/fr/restaurant/9474_R004%3Futm_source%3Dgoogle%2BMaps%26utm_medium%3Dseo%2Bmaps%26utm_campaign%3Dseo%2Bmaps%26y_source%3D1_MzkxMDAxMTQtNzE1LWxvY2F0aW9uLndlYnNpdGU%253D&opi=79508299&sa=U&ved=0ahUKEwifhNedneKEAxXqv4kEHfbOBs8Q61gIHCgQ&usg=AOvVaw1H3ZqZH7Vr4s3JUHRnLtF9","+65 6708 8360","Italian restaurant","https://www.google.com/maps/search/?api=1&query=THE%20CLIFF&query_place_id=ChIJ5SCE0q4e2jERLiATjgKeV90"
"Saffrons @ 201D","3.9","2474","201D Tampines St. 21, #01-1163","Singapore",,"SG","/url?q=http://www.saffrons.com.sg/&opi=79508299&sa=U&ved=0ahUKEwj1v-6dneKEAxVOjokEHe_8AWIQ61gIHCgQ&usg=AOvVaw00F8vRaRukQNpVHy0Fm6lA","+65 9272 6361","Halal restaurant","https://www.google.com/maps/search/?api=1&query=Saffrons%20%40%20201D&query_place_id=ChIJj2KdERs92jERpJ5pIYuFDqE"
"Gin Khao Bistro","4.5","856","31 Ocean Way, #01-12 Quayside Isle","Singapore",,"SG","/url?q=http://www.ginkhao.com.sg/&opi=79508299&sa=U&ved=0ahUKEwjf3dSdneKEAxWDjYkEHeBiA7AQ61gIHCgS&usg=AOvVaw1yplJrkc0ALQ7jhx1VQFU2","+65 6570 2208","Thai restaurant","https://www.google.com/maps/search/?api=1&query=Gin%20Khao%20Bistro&query_place_id=ChIJ-RPjNLQe2jERA1utzj7rV3I"
"Cassia","4.7","238","1 The Knolls, Sentosa Island","Singapore",,"SG","/url?q=https://www.capellahotels.com/en/capella-singapore/dining/cassia%3Futm_source%3Dlocal%26utm_campaign%3Dgmb%26utm_medium%3Dorganic&opi=79508299&sa=U&ved=0ahUKEwio4fGdneKEAxVYlIkEHTSBAhwQ61gIGigQ&usg=AOvVaw3NMlA8ke-XIuKBYj6T_FXq","+65 6591 5045","Chinese restaurant","https://www.google.com/maps/search/?api=1&query=Cassia&query_place_id=ChIJm2lW36oe2jERYvH_3tPnR5Q"
"Fiamma","4.8","324","1 The Knolls","Singapore",,"SG","https://capellahotels.com/en/capella-singapore/dining/fiamma","+65 6591 5046","Italian restaurant","https://www.google.com/maps/search/?api=1&query=Fiamma&query_place_id=ChIJEWNnq5of2jER69_bjd4nzlg"
"Dil'B Restaurant","4.2","502","1 Changi Village Rd, #01-2026","Singapore",,"SG","/url?q=https://m.facebook.com/dilbrestaurant/&opi=79508299&sa=U&ved=0ahUKEwiJ16aineKEAxUITTABHeI6BzAQ61gIGygQ&usg=AOvVaw3i9PFCJikyzZZVtktlWV2c","+65 6543 3508","Restaurant","https://www.google.com/maps/search/?api=1&query=Dil'B%20Restaurant&query_place_id=ChIJTdaJLhQ82jER2Wog29chyJ0"
"Angu Vilas Vegetarian Restaurant","4.3","70","JURONG GATEWAY ROAD Jurong East Bus Interchange #01-09","Singapore",,"SG",,,"Vegetarian restaurant","https://www.google.com/maps/search/?api=1&query=Angu%20Vilas%20Vegetarian%20Restaurant&query_place_id=ChIJobI99TUR2jERttPnVFgviWk"
"AL AFINA RESTAURANT","4.5","2","501 A Changi Coast Rd, #01 01","Singapore",,"SG",,"+65 9146 2849","Restaurant","https://www.google.com/maps/search/?api=1&query=AL%20AFINA%20RESTAURANT&query_place_id=ChIJ6wgPuhM92jERtuGO9i-CUUc"
"Tekong Seafood Restaurant","4.1","283","6 Changi Village Rd","Singapore",,"SG","/url?q=http://tekongseafood.com/&opi=79508299&sa=U&ved=0ahUKEwil9tCvneKEAxXfvokEHbhUBnMQ61gIGCgO&usg=AOvVaw2ts63q_sxD9Isfzy8JwTDH","+65 6542 8923","Seafood restaurant","https://www.google.com/maps/search/?api=1&query=Tekong%20Seafood%20Restaurant&query_place_id=ChIJ2WfIPhc82jERJ26aUJ6Vla8"
"White Restaurant (Jewel)","4.1","563","78 Airport Blvd., #B1-245/246","Singapore",,"SG","/url?q=https://whiterestaurant.com.sg/&opi=79508299&sa=U&ved=0ahUKEwjJh-yvneKEAxWZQjABHXvGArgQ61gIGygQ&usg=AOvVaw3jlCBN_2jKsDH3RnmLBG0n","+65 6904 2202","Chinese restaurant","https://www.google.com/maps/search/?api=1&query=White%20Restaurant%20(Jewel)&query_place_id=ChIJucjD4T8Q2jERvRGHo178L_c"
"Garden View Restaurant","4.6","56","25 Changi Coast Rd","Singapore",,"SG","/url?q=http://www.tmcc.org.sg/fb-outlets/&opi=79508299&sa=U&ved=0ahUKEwjvy56wneKEAxWBfTABHQEeAgQQ61gIGCgO&usg=AOvVaw2YQSHNSqFaPcEQwdSOmKtq","+65 6545 2891","Chinese restaurant","https://www.google.com/maps/search/?api=1&query=Garden%20View%20Restaurant&query_place_id=ChIJAyjVlcs82jERAt-b0q8rhoM"
"Porta Porta Italian Restaurant","4.5","555","No. 32 Jln Pari Burong","Singapore",,"SG","/url?q=http://portaportaitalianrestaurant.com.sg/&opi=79508299&sa=U&ved=0ahUKEwiqv9GvneKEAxX6kIkEHQ7cDeEQ61gIGigO&usg=AOvVaw1GA2dBk9uzv7pPi8NeqxCc","+65 6545 3108","Italian restaurant","https://www.google.com/maps/search/?api=1&query=Porta%20Porta%20Italian%20Restaurant&query_place_id=ChIJsyKAD4k92jERH0WSmzVbaOk"
"Aashiq Restaurant","4.2","423","326 Jurong East Street 31","Singapore",,"SG","/url?q=https://www.facebook.com/pages/Aashiq-Restaurant-Pte-Ltd/220112818183722&opi=79508299&sa=U&ved=0ahUKEwj4ota4neKEAxVPEmIAHepRC_cQ61gIGCgO&usg=AOvVaw3xdcwsyIG85evHwxqNIxNg","+65 9885 9917","Indian Muslim restaurant","https://www.google.com/maps/search/?api=1&query=Aashiq%20Restaurant&query_place_id=ChIJ_0xLmyAQ2jERFnv2OAux8mQ"
"Sankranti Restaurant","3.6","568","Level3, 78 Airport Blvd., #03-229 03-229","Singapore",,"SG","/url?q=http://www.sankrantihotels.com/&opi=79508299&sa=U&ved=0ahUKEwiXqJavneKEAxWmrokEHVPMA3YQ61gIHCgS&usg=AOvVaw1fFrSkNUt3ESq181NHf09z","+65 6376 4252","Indian restaurant","https://www.google.com/maps/search/?api=1&query=Sankranti%20Restaurant&query_place_id=ChIJjVmM-MI92jERePpU1_nLP0Q"
"TONITO Latin American Kitchen @ Jewel","4.4","1004","78 Airport Blvd., #02 - 248","Singapore",,"SG","/url?q=http://tonito.sg/&opi=79508299&sa=U&ved=0ahUKEwjLjs2vneKEAxWkmYkEHWnzAJ4Q61gIGigQ&usg=AOvVaw32RKul4AfFz_v5dzupJUfr","+65 6904 3975","Latin American restaurant","https://www.google.com/maps/search/?api=1&query=TONITO%20Latin%20American%20Kitchen%20%40%20Jewel&query_place_id=ChIJU23eN9I92jERcv2O7Bb6K1k"
"Melben Seafood Restaurant - Depot Lane","3.9","366","118 Depot Ln","Singapore",,"SG","http://www.melbenseafood.sg/","+65 9810 7063","Seafood restaurant","https://www.google.com/maps/search/?api=1&query=Melben%20Seafood%20Restaurant%20-%20Depot%20Lane&query_place_id=ChIJKbY2kn8X2jERRxKl6giNpUY"
"Pearl Garden Restaurant","4","177","333 Boon Lay Wy, #3A-02 SAFRA Jurong","Singapore",,"SG","/url?q=https://www.qianxi.com.sg/pearlgardenrestaurant&opi=79508299&sa=U&ved=0ahUKEwj5oYK0neKEAxVuvokEHWOIA5IQ61gIHCgS&usg=AOvVaw3lLCwOySiY15R2M_sm7_BD","+65 6316 9595","Chinese restaurant","https://www.google.com/maps/search/?api=1&query=Pearl%20Garden%20Restaurant&query_place_id=ChIJy6YytPIP2jERWrVkEebL3kc"
"Din Tai Fung","4.1","543","63 Jurong West Central 3","Singapore",,"SG","/url?q=http://www.dintaifung.com.sg/&opi=79508299&sa=U&ved=0ahUKEwjDpvGyneKEAxUJCnkGHez8AEYQ61gIGSgO&usg=AOvVaw0IkVqHhO2BNJUgS-2BmD7_","+65 6861 1811","Taiwanese restaurant","https://www.google.com/maps/search/?api=1&query=Din%20Tai%20Fung&query_place_id=ChIJy64vxOwP2jERYqiaVhZGhbE"
"Dungeon by IL Fiore","4.5","160","30 Raffles Pl, #01-16/17 CIMB Plaza","Singapore",,"SG","https://www.facebook.com/IL-Fiore-Restaurant-Bar-100557263381342/","+65 6223 3551","Restaurant","https://www.google.com/maps/search/?api=1&query=Dungeon%20by%20IL%20Fiore&query_place_id=ChIJ9-yBSAkZ2jER4NfDJTscgw0"
"Hoodadak Korean Restaurant 후다닥 한국 음식점","4.2","562","1 Fusionopolis Pl, #01-10 Galaxis","Singapore",,"SG","https://m.facebook.com/pages/Hoodadak-Korean-Fusion-Dining-Room-at-Fusionopolis/959580834119544","+65 6320 3477","Korean restaurant","https://www.google.com/maps/search/?api=1&query=Hoodadak%20Korean%20Restaurant%20%ED%9B%84%EB%8B%A4%EB%8B%A5%20%ED%95%9C%EA%B5%AD%20%EC%9D%8C%EC%8B%9D%EC%A0%90&query_place_id=ChIJUXAAUEUa2jERTkJUfdD1DXM"
"Man Tak Kei Restaurant 文德记美味小炒","3.9","14","Bukit Merah Central, 161号, 宝利咖啡店, #01-3749","Singapore",,"SG",,"+65 8027 9179","Chinese restaurant","https://www.google.com/maps/search/?api=1&query=Man%20Tak%20Kei%20Restaurant%20%E6%96%87%E5%BE%B7%E8%AE%B0%E7%BE%8E%E5%91%B3%E5%B0%8F%E7%82%92&query_place_id=ChIJ_zIE5mQb2jERGNf6x-7V-q8"
"Anjappar Chettinad Restaurant","4.6","53","321 Clementi Ave 3","Singapore",,"SG","http://anjappar.com.sg/","+65 6970 5545","Indian restaurant","https://www.google.com/maps/search/?api=1&query=Anjappar%20Chettinad%20Restaurant&query_place_id=ChIJl4JBVAAb2jEREgor5tEw3LE"
"Ayza’s Restaurant","4.1","2409","508 Jurong West Street 52","Singapore",,"SG","http://ayzasrestaurantpteltd.com/","+65 6756 4963","Halal restaurant","https://www.google.com/maps/search/?api=1&query=Ayza%E2%80%99s%20Restaurant&query_place_id=ChIJIWql3dwP2jER2Vofb-ef4Y8"
"TINTO Spanish Restaurant Sg","4.5","277","10 Dempsey Rd, #01-21","Singapore",,"SG","https://tinto.sg/","+65 9729 5002","Spanish restaurant","https://www.google.com/maps/search/?api=1&query=TINTO%20Spanish%20Restaurant%20Sg&query_place_id=ChIJIxNKcs8b2jER_qRtK-FF8z8"
"OPIO Kitchen & Bar","4.3","482","991B Alexandra Rd","Singapore",,"SG","https://www.bluelotus.com.sg/opio-kitchen-bar","+65 9171 1390","Western restaurant","https://www.google.com/maps/search/?api=1&query=OPIO%20Kitchen%20%26%20Bar&query_place_id=ChIJo35kZcEb2jERA6HrbOWyZI4"
"Beng Hiang Restaurant","3.9","1007","135 Jurong Gateway Rd, #02-337","Singapore",,"SG","https://www.benghiang.com/","+65 6221 6695","Chinese restaurant","https://www.google.com/maps/search/?api=1&query=Beng%20Hiang%20Restaurant&query_place_id=ChIJm91ZmwUQ2jERtVI5JAUHHiQ"
"Al Afrida Restaurant","2.6","39","66 Yung Kuang Rd, #01-89/91","Singapore",,"SG",,"+65 9087 9207","Indian Muslim restaurant","https://www.google.com/maps/search/?api=1&query=Al%20Afrida%20Restaurant&query_place_id=ChIJVcTbzycP2jERsdR9HVEL2fY"
"White Restaurant (IMM)","4.1","677","2 Jurong East Street 21, #02-24 IMM Building","Singapore",,"SG","https://whiterestaurant.com.sg/","+65 6264 2002","Chinese restaurant","https://www.google.com/maps/search/?api=1&query=White%20Restaurant%20(IMM)&query_place_id=ChIJoTHq2Q0Q2jERB9l7yL-EfVI"
"Al-Azhar Restaurant","4.1","4630","11 Cheong Chin Nam Rd","Singapore",,"SG","https://www.al-azhar.com/","+65 6466 5052","Indian Muslim restaurant","https://www.google.com/maps/search/?api=1&query=Al-Azhar%20Restaurant&query_place_id=ChIJFykj1mEQ2jER50T02kGd1OY"
"Restaurant Chamolean","4.3","3","590 Balestier Rd","Singapore",,"SG",,,"Brunch restaurant","https://www.google.com/maps/search/?api=1&query=Restaurant%20Chamolean&query_place_id=ChIJW0ZCWgAX2jERJDTKB2oPu9Y"
"Soup Restaurant @ Holland Village","4.3","446","118 Holland Ave, #01-02 Raffles Medical","Singapore",,"SG","http://www.souprestaurant.com.sg/","+65 6352 6606","Cantonese restaurant","https://www.google.com/maps/search/?api=1&query=Soup%20Restaurant%20%40%20Holland%20Village&query_place_id=ChIJpUt2BGsa2jERBoxkX6iiAhs"
"Suki-Suki Hotpot @ SAFRA Toa Payoh","4.7","632","293 Lor 6 Toa Payoh, #01-04","Singapore",,"SG","http://www.suki-sukithai.com.sg/","+65 3125 2769","Hot pot restaurant","https://www.google.com/maps/search/?api=1&query=Suki-Suki%20Hotpot%20%40%20SAFRA%20Toa%20Payoh&query_place_id=ChIJtxkUxm8X2jERFu7yQLgVn2I"
"ABC MAJU RESTAURANT","3.3","375","230 Balestier Rd","Singapore",,"SG","https://food.grab.com/sg/en/restaurant/abc-maju-restaurant-pte-ltd-balestier-road-delivery/4-C2BCGBKZRBCVWE","+65 6898 1786","Indian Muslim restaurant","https://www.google.com/maps/search/?api=1&query=ABC%20MAJU%20RESTAURANT&query_place_id=ChIJq2_p1tsZ2jERozZXnr95Zok"
"Hong Kong Street Restaurant (Novena)","4.2","897","273 Thomson Rd, #01-01","Singapore",,"SG","https://hkstreetrestaurant.com.sg/","+65 6252 3132","Family restaurant","https://www.google.com/maps/search/?api=1&query=Hong%20Kong%20Street%20Restaurant%20(Novena)&query_place_id=ChIJAdWxH-cZ2jER_OOVaT7VMxw"
"Swensen's @ Junction 8","3.8","953","9 Bishan Pl, #01-39 Junction 8","Singapore",,"SG","http://www.swensens.com.sg/","+65 6252 6229","American restaurant","https://www.google.com/maps/search/?api=1&query=Swensen's%20%40%20Junction%208&query_place_id=ChIJ3ZOgmxYX2jERhzrnFh-nr_c"
"126 Dim Sum Wen Dao Shi 揾到食 @ Boon Keng","3.7","510","1086 Serangoon Rd, #1086","Singapore",,"SG","http://126.com.sg/","+65 6297 5032","Dim sum restaurant","https://www.google.com/maps/search/?api=1&query=126%20Dim%20Sum%20Wen%20Dao%20Shi%20%E6%8F%BE%E5%88%B0%E9%A3%9F%20%40%20Boon%20Keng&query_place_id=ChIJF9J3VtQZ2jER7RNyOvVoLqM"
"Ser Seng Herbs (Turtle) Restaurant","4.3","474","39 Tai Thong Cres","Singapore",,"SG","https://sersengturtlesoup.com/","+65 6287 6341","Singaporean restaurant","https://www.google.com/maps/search/?api=1&query=Ser%20Seng%20Herbs%20(Turtle)%20Restaurant&query_place_id=ChIJiWyNTIAX2jER2X2fvcjyjmM"
"Global Restaurant & Catering Pte Ltd Bangladeshi Food","5","2","33 Opal Cres","Singapore",,"SG",,,"Restaurant","https://www.google.com/maps/search/?api=1&query=Global%20Restaurant%20%26%20Catering%20Pte%20Ltd%20Bangladeshi%20Food&query_place_id=ChIJ09Cfv38X2jERdPtiYB7BedQ"
"Kizuna","4.5","208","148 Potong Pasir Ave 1, #01-37","Singapore",,"SG","https://www.instagram.com/kizunasg/","+65 8921 3124","Cafe","https://www.google.com/maps/search/?api=1&query=Kizuna&query_place_id=ChIJeSx_8-gX2jER_nK_xR7k-H0"
"21 On Rajah","4.2","869","1 Jln Rajah, Aloft Singapore East Wing","Singapore",,"SG","http://www.21onrajah.com/","+65 6808 6847","Mediterranean restaurant","https://www.google.com/maps/search/?api=1&query=21%20On%20Rajah&query_place_id=ChIJKT3KLGAX2jERq1yyRBddK7Q"
"McDonald's Bishan Junction 8","3.9","1403","9 Bishan Pl, #01-20 Junction 8","Singapore",,"SG","https://www.mcdonalds.com.sg/","+65 6777 3777","Fast food restaurant","https://www.google.com/maps/search/?api=1&query=McDonald's%20Bishan%20Junction%208&query_place_id=ChIJh8KdAfkb2jER-LG4-Xjo6BA"
"Siam Square Mookata - Best Mookata Restaurant in Singapore","4","170","232 Upper Thomson Rd","Singapore",,"SG","https://siamsquaremookata.com.sg/","+65 8119 6664","Thai restaurant","https://www.google.com/maps/search/?api=1&query=Siam%20Square%20Mookata%20-%20Best%20Mookata%20Restaurant%20in%20Singapore&query_place_id=ChIJM6YwNRwX2jERkp1VdJB4NSY"
"McDonald's Toa Payoh Lorong","4.1","1377","Blk 109 Lor 1 Toa Payoh, #01-318","Singapore",,"SG","https://www.mcdonalds.com.sg/","+65 6777 3777","Hamburger restaurant","https://www.google.com/maps/search/?api=1&query=McDonald's%20Toa%20Payoh%20Lorong&query_place_id=ChIJp4T8PGoX2jER2AviBNerRkg"
"Ariff's Restaurant","3.7","553","71 Kallang Bahru","Singapore",,"SG",,"+65 6297 1024","Indian restaurant","https://www.google.com/maps/search/?api=1&query=Ariff's%20Restaurant&query_place_id=ChIJZ5EV6CwY2jERVDWnLvbwFQA"
"Jin Huan Seafood Restaurant",,"0","220 Upper Thomson Rd","Singapore",,"SG",,"+65 6554 0363","Restaurant","https://www.google.com/maps/search/?api=1&query=Jin%20Huan%20Seafood%20Restaurant&query_place_id=ChIJ19eu-joX2jERSCP3JqzqM50"
"Lai Wah Restaurant","4.1","637","44 Bendemeer Rd, #01-1436","Singapore",,"SG","http://www.laiwahrestaurant.com/","+65 6294 9922","Cantonese restaurant","https://www.google.com/maps/search/?api=1&query=Lai%20Wah%20Restaurant&query_place_id=ChIJuZfHmdQZ2jEROUKKNzDb0ew"
"KFC Junction 8","3.1","464","9 Bishan Pl, #01-21 Junction 8","Singapore",,"SG","https://www.kfc.com.sg/Location/Search","+65 6353 6360","Fast food restaurant","https://www.google.com/maps/search/?api=1&query=KFC%20Junction%208&query_place_id=ChIJb-ErmBYX2jERjdd0QC-4Pa0"
"川羊记马里士他店 Chuan Yang Ji Balestier Outlet","4.5","608","432 Balestier Rd, #01-434 Public Mansion","Singapore",,"SG","http://www.chuanyangji.com/","+65 6358 4188","Chinese restaurant","https://www.google.com/maps/search/?api=1&query=%E5%B7%9D%E7%BE%8A%E8%AE%B0%E9%A9%AC%E9%87%8C%E5%A3%AB%E4%BB%96%E5%BA%97%20Chuan%20Yang%20Ji%20Balestier%20Outlet&query_place_id=ChIJi_qEY98Z2jEReaWjMyA_1iY"
"Yoshinoya - Junction 8","3.9","392","9 Bishan Pl, #01-49","Singapore",,"SG","http://yoshinoya.com.sg/","+65 6272 1866","Gyudon restaurant","https://www.google.com/maps/search/?api=1&query=Yoshinoya%20-%20Junction%208&query_place_id=ChIJb-ErmBYX2jERtFtJPbcEdzg"
"Good Bites","4.9","15549","5 Bishan St 14, #03-01","Singapore",,"SG","https://www.goodbites.com.sg/","+65 6970 0233","Cafe","https://www.google.com/maps/search/?api=1&query=Good%20Bites&query_place_id=ChIJUVukECoX2jERljPE4j6MVYA"
"Al Sahira Restaurant","3.7","39","Serangoon Ave 2, Block 301","Singapore",,"SG",,"+65 6015 0492","Restaurant","https://www.google.com/maps/search/?api=1&query=Al%20Sahira%20Restaurant&query_place_id=ChIJ8ZhtFCgX2jERp0o-1mexID4"
"Zeenath Islamic Restaurant",,"0","271 Balestier Rd","Singapore",,"SG",,,"Restaurant","https://www.google.com/maps/search/?api=1&query=Zeenath%20Islamic%20Restaurant&query_place_id=ChIJdZfyb9kZ2jER_LEf-VHsEds"
"Tsukada Nojo - Thomson Plaza","4.6","391","301 Upper Thomson Rd, #03-50 Thomson Plaza","Singapore",,"SG","https://www.tsukadanojosg.com/","+65 6261 4952","Restaurant","https://www.google.com/maps/search/?api=1&query=Tsukada%20Nojo%20-%20Thomson%20Plaza&query_place_id=ChIJa_-_1KEZ2jERj6jm3_143uk"
"Restaurant Euphoria","4.4","149","76 Tras St","Singapore",,"SG","https://restaurant-euphoria.com/",,"Restaurant","https://www.google.com/maps/search/?api=1&query=Restaurant%20Euphoria&query_place_id=ChIJ99ae4CcZ2jERhNdU8AYgcsg"
"Genki Sushi Junction 8","3.6","519","9 Bishan Pl, #01-22/30 Junction 8","Singapore",,"SG","http://www.genkisushi.com.sg/","+65 6816 2151","Conveyor belt sushi restaurant","https://www.google.com/maps/search/?api=1&query=Genki%20Sushi%20Junction%208&query_place_id=ChIJP3S2qkgX2jER4PRmKW0E1kY"
"Zi Yean Restaurant","3.9","701","56 Lengkok Bahru, #01-443","Singapore",,"SG","https://ziyean.oddle.me/","+65 6474 0911","Cantonese restaurant","https://www.google.com/maps/search/?api=1&query=Zi%20Yean%20Restaurant&query_place_id=ChIJc7Z7FtMb2jERueHO91Na1oI"
"IKEA Alexandra Restaurant","4.3","2161","317 Alexandra Rd, Level 1","Singapore",,"SG","https://www.ikea.com/sg/en/store/alexandra/","+65 6786 6868","Swedish restaurant","https://www.google.com/maps/search/?api=1&query=IKEA%20Alexandra%20Restaurant&query_place_id=ChIJodUzryIb2jER6ACm5zMG8Uo"
"Kelly Jie Seafood (TPY Mellben Seafood) 龍海鲜螃蟹王","4.1","1137","211 Lor 8 Toa Payoh, #01-11/15 Block 211","Singapore",,"SG","http://www.kellyjie.sg/","+65 6353 3120","Seafood restaurant","https://www.google.com/maps/search/?api=1&query=Kelly%20Jie%20Seafood%20(TPY%20Mellben%20Seafood)%20%E9%BE%8D%E6%B5%B7%E9%B2%9C%E8%9E%83%E8%9F%B9%E7%8E%8B&query_place_id=ChIJobbt1W0X2jERXp9vqJo1kJs"
"Jubilee Garden Restaurant","3.7","294","293 Lor 6 Toa Payoh, #03-01 SAFRA","Singapore",,"SG","https://www.qianxi.com.sg/jubileegardenrestaurant","+65 6250 4477","Chinese restaurant","https://www.google.com/maps/search/?api=1&query=Jubilee%20Garden%20Restaurant&query_place_id=ChIJpeuCbWMX2jERked03CSir0E"
"Cha Cha Cha Mexican Restaurant","4.1","997","32 Lor Mambong","Singapore",,"SG",,"+65 6462 1650","Mexican restaurant","https://www.google.com/maps/search/?api=1&query=Cha%20Cha%20Cha%20Mexican%20Restaurant&query_place_id=ChIJpf6Wl2sa2jER6PON2f0Agl8"
"Summer Yakitori","4.4","88","1 Jln Rajah, #01-01 ZhongShan Park","Singapore",,"SG","https://summer-yakitori.business.site/?m=true","+65 6970 6877","Japanese restaurant","https://www.google.com/maps/search/?api=1&query=Summer%20Yakitori&query_place_id=ChIJ7wfXvksX2jERwttymvA2MGI"
"HoHo Korean Restaurant","4.3","504","106 Clementi Street 12, #01-58/60","Singapore",,"SG","https://www.facebook.com/pages/HoHo-Korean-Restaurant/978072995645006","+65 6250 3908","Korean restaurant","https://www.google.com/maps/search/?api=1&query=HoHo%20Korean%20Restaurant&query_place_id=ChIJPW1NqYYa2jER5HY0GwG7WsM"
"Samy's Curry Restaurant","4.3","2382","25 Dempsey Rd","Singapore",,"SG","http://www.samyscurry.com/","+65 6472 2080","Indian restaurant","https://www.google.com/maps/search/?api=1&query=Samy's%20Curry%20Restaurant&query_place_id=ChIJZzTg5yIa2jERNtVXMcuCOFU"
"Pham Quyen Vietnamese Cuisine @ Pasir Panjang Rd","4.5","383","440 Pasir Panjang Rd","Singapore",,"SG","https://pqonline.app/","+65 6904 8773","Halal restaurant","https://www.google.com/maps/search/?api=1&query=Pham%20Quyen%20Vietnamese%20Cuisine%20%40%20Pasir%20Panjang%20Rd&query_place_id=ChIJbesWllsb2jEReOXvjJuR8h8"
"Whampoa Keng Fish Head Steamboat @ Balestier","4","801","556 Balestier Rd","Singapore",,"SG","http://whampoakeng.getz.co/","+65 6356 7371","Restaurant","https://www.google.com/maps/search/?api=1&query=Whampoa%20Keng%20Fish%20Head%20Steamboat%20%40%20Balestier&query_place_id=ChIJo8NPAZoZ2jERoCnTMPi5nbg"
"Jai Thai Restaurant","4.2","730","7 Clover Wy","Singapore",,"SG",,"+65 6258 0228","Thai restaurant","https://www.google.com/maps/search/?api=1&query=Jai%20Thai%20Restaurant&query_place_id=ChIJZWQq3D0X2jERWzykNKgSCHo"
"Arkadas Cafe & Restaurant","4.5","855","1 Fusionopolis Vw, #01-02","Eclipse",,"SG","https://www.arkadas.sg/","+65 6467 5053","Turkish restaurant","https://www.google.com/maps/search/?api=1&query=Arkadas%20Cafe%20%26%20Restaurant&query_place_id=ChIJZdXmRUUa2jERxPXzn5j8JVE"
"Ajisen Ramen","3.9","331","9 Bishan Pl, #B1-19 Junction 8","Singapore",,"SG","https://www.ajisen.com.sg/","+65 6255 6642","Ramen restaurant","https://www.google.com/maps/search/?api=1&query=Ajisen%20Ramen&query_place_id=ChIJb-ErmBYX2jER4RDqknQmtrk"
"Brotzeit German Beer Bar and Restaurant - WestGate","4.2","1626","3 Gateway Dr, #01-04","Singapore",,"SG","http://www.brotzeit.co/?utm_source=google&utm_medium=organic&utm_campaign=gmb","+65 6465 9874","German restaurant","https://www.google.com/maps/search/?api=1&query=Brotzeit%20German%20Beer%20Bar%20and%20Restaurant%20-%20WestGate&query_place_id=ChIJHQALBw8Q2jERTRbxK3smjw0"
"Zenryoku Izakaya (Japanese Drinking Bar)","4.7","69","183 Upper Thomson Rd, #01-04","Singapore",,"SG","http://www.zenryoku.sg/","+65 6517 9262","Izakaya restaurant","https://www.google.com/maps/search/?api=1&query=Zenryoku%20Izakaya%20(Japanese%20Drinking%20Bar)&query_place_id=ChIJ8dYDNzoX2jEReia7jrVCEQc"
"Hajime Tonkatsu & Ramen (Thomson Plaza)","4.4","301","301 Upper Thomson Rd, #01-110 Thomson Plaza","Singapore",,"SG","http://www.hajime.com.sg/","+65 6261 5602","Japanese restaurant","https://www.google.com/maps/search/?api=1&query=Hajime%20Tonkatsu%20%26%20Ramen%20(Thomson%20Plaza)&query_place_id=ChIJIRKLoU8X2jERSC2wQiFG3g4"
"Yoshiya","4.8","322","Balestier Rd, #02-13/14 Shaw Plaza","Singapore",,"SG",,"+65 6539 9219","Japanese restaurant","https://www.google.com/maps/search/?api=1&query=Yoshiya&query_place_id=ChIJW2ZgPNAZ2jERlv3MGPlNDao"
"Anandham Chettinad Restaurant","3.7","305","152 Bukit Batok Street 11, #01-264","Singapore",,"SG",,"+65 6904 0100","Restaurant","https://www.google.com/maps/search/?api=1&query=Anandham%20Chettinad%20Restaurant&query_place_id=ChIJ8_VREaYR2jERtLdaxL0W1Sc"
"Aisa Restaurant Indian food","3.9","14","415 Pandan Gardens","Singapore",,"SG",,,"Restaurant","https://www.google.com/maps/search/?api=1&query=Aisa%20Restaurant%20Indian%20food&query_place_id=ChIJ-6udLggb2jERP5QrKnU-GUA"
"Watami Japanese Dining - Junction 8","3.6","933","9 Bishan Place, #01-33 Junction 8 Shopping Centre","Singapore",,"SG","http://www.watami.com.sg/","+65 6258 3577","Japanese restaurant","https://www.google.com/maps/search/?api=1&query=Watami%20Japanese%20Dining%20-%20Junction%208&query_place_id=ChIJb-ErmBYX2jERKddzxRgayYI"
"ZAINAP RESTAURANT(THE BABA CAFE HOUSE)","3.7","9","Bukit Merah Lane 1, Block 126","Singapore",,"SG",,,"Asian restaurant","https://www.google.com/maps/search/?api=1&query=ZAINAP%20RESTAURANT(THE%20BABA%20CAFE%20HOUSE)&query_place_id=ChIJvzY-8hgb2jERE26786pbWfk"
"Raj Restaurant","3.8","811","20 Biopolis Way, #01-03 Centros","Block",,"SG","https://raj-biopolis.oddle.me/","+65 8779 8702","Indian restaurant","https://www.google.com/maps/search/?api=1&query=Raj%20Restaurant&query_place_id=ChIJE1u78EMa2jERbEnmDns_vQo"
"Original Sin Restaurant","4.3","1038","01-62 Jln Merah Saga, Chip Bee Gardens, Blk 43","Singapore",,"SG","http://www.originalsin.com.sg/","+65 6475 5605","Mediterranean restaurant","https://www.google.com/maps/search/?api=1&query=Original%20Sin%20Restaurant&query_place_id=ChIJmzY7Gmsa2jERKvr0lq11r7Q"
"SAYBONS","3.7","324","9 Bishan Pl, #02-43","Singapore",,"SG","http://www.saybons.com/","+65 6258 3138","Western restaurant","https://www.google.com/maps/search/?api=1&query=SAYBONS&query_place_id=ChIJb-ErmBYX2jERWgHlhGNJQxU"
"Quentin’s Bar and Restaurant","4.5","156","SentosaSG 2 Gunner lane, #01-08, blk 14 Mess Hall","Singapore",,"SG","https://www.quentins.com.sg/","+65 8817 6742","Asian fusion restaurant","https://www.google.com/maps/search/?api=1&query=Quentin%E2%80%99s%20Bar%20and%20Restaurant&query_place_id=ChIJR8qLTngb2jERncHT3pQir5o"
"Chin Huat Live Seafood","4.3","1135","105 Clementi Street 12, Sunset Wy, #01-30","Singapore",,"SG","https://www.chinhuatliveseafood.com/","+65 6775 7348","Seafood restaurant","https://www.google.com/maps/search/?api=1&query=Chin%20Huat%20Live%20Seafood&query_place_id=ChIJxescUYEa2jERQAF3aQjd56U"
"Ontama Don","4.7","332","360 Balestier Rd, #01-23 Shaw Plaza","Singapore",,"SG","https://www.ontamadon.sg/","+65 6970 3118","Japanese restaurant","https://www.google.com/maps/search/?api=1&query=Ontama%20Don&query_place_id=ChIJXY-4ni8Z2jERRarY0xS25So"
"Burger King Shaw Plaza","3.7","45","360 Balestier Road, Twin Heights, #01-17/18/19/20 Shaw Plaza","Singapore",,"SG","https://www.burgerking.com.sg/","+65 6610 0689","Fast food restaurant","https://www.google.com/maps/search/?api=1&query=Burger%20King%20Shaw%20Plaza&query_place_id=ChIJM204uwEZ2jERBzuWTiYbfSU"
"Iro Iro Japanese Restaurant","4.3","125","151 Lor Chuan, #01-01","Singapore",,"SG","https://iroirojr.wixsite.com/main","+65 9888 8756","Japanese restaurant","https://www.google.com/maps/search/?api=1&query=Iro%20Iro%20Japanese%20Restaurant&query_place_id=ChIJNzFk8GQX2jERDyIUvJdoDjI"
"Naowarat Thai Cuisine","4.3","201","530 Balestier Rd, #01-06 Monville Mansion","Singapore",,"SG",,"+65 6909 3600","Restaurant","https://www.google.com/maps/search/?api=1&query=Naowarat%20Thai%20Cuisine&query_place_id=ChIJO-_bHHwW2jERj3anWR-zMdo"
"Jiang 蔣先生 Cantonese Asian Tapas","4.7","405","456 Balestier Rd, #01-04 next to SPC gas station","Singapore",,"SG","https://www.jiangcantonesetapas.com/","+65 6518 4728","Asian restaurant","https://www.google.com/maps/search/?api=1&query=Jiang%20%E8%94%A3%E5%85%88%E7%94%9F%20Cantonese%20Asian%20Tapas&query_place_id=ChIJLc0nTd0X2jEROorNFNLvjGo"
"Hyderabad Bawarchi Authentic North Indian Restaurant","4.7","116","978 Toa Payoh N, #02-01","Singapore",,"SG",,"+65 9019 7903","Restaurant","https://www.google.com/maps/search/?api=1&query=Hyderabad%20Bawarchi%20Authentic%20North%20Indian%20Restaurant&query_place_id=ChIJ53UbWi8X2jERj3FpYQJgLNE"
"Al Rabeca Restaurant 24 Hrs","3.7","42","16 Kim Keat Rd","Singapore",,"SG",,"+65 9895 9493","Indian restaurant","https://www.google.com/maps/search/?api=1&query=Al%20Rabeca%20Restaurant%2024%20Hrs&query_place_id=ChIJrxU1GuIZ2jERaBofbjm8xbo"
"BOON KENG NEW TASTE 文庆新食代 @ Serangoon Road","3.9","239","1003 Serangoon Rd","Singapore",,"SG","https://boon-keng-new-taste.business.site/?utm_source=gmb&utm_medium=referral","+65 6962 8896","Chinese restaurant","https://www.google.com/maps/search/?api=1&query=BOON%20KENG%20NEW%20TASTE%20%E6%96%87%E5%BA%86%E6%96%B0%E9%A3%9F%E4%BB%A3%20%40%20Serangoon%20Road&query_place_id=ChIJeQJ8xJYZ2jER8bO2AIJ0qtI"
"Nummun Thai Kitchen","4.5","407","200 Upper Thomson Rd #01-03, Thomson Imperial Court","Singapore",,"SG","https://www.facebook.com/nummunthaikitchen","+65 8886 8699","Thai restaurant","https://www.google.com/maps/search/?api=1&query=Nummun%20Thai%20Kitchen&query_place_id=ChIJ-y8nN_sX2jERsbrlC-hEHW0"
"YC Dining & Bar | Western Restaurant Bar","4.8","638","2 Venture Dr, #01-45 Vision Exchange","Singapore",,"SG","https://www.ycdiningandbar.info/","+65 6980 5432","Western restaurant","https://www.google.com/maps/search/?api=1&query=YC%20Dining%20%26%20Bar%20%7C%20Western%20Restaurant%20Bar&query_place_id=ChIJ487Dp2oR2jERTV1zM0iJNYo"
"Burke's Restaurant And Cafe",,"0","9 Bishan Pl, Junction 8 Shopping Centre, Singapore 579837","Singapore",,"SG",,"+65 6258 6620","Restaurant","https://www.google.com/maps/search/?api=1&query=Burke's%20Restaurant%20And%20Cafe&query_place_id=ChIJjXL9nRYX2jER_KxoRadmpio"
"DonBaasha 24hrs Restaurant","3.9","270","3 St George's Rd","Singapore",,"SG",,"+65 8709 9333","Indian Muslim restaurant","https://www.google.com/maps/search/?api=1&query=DonBaasha%2024hrs%20Restaurant&query_place_id=ChIJ5VF0vNYZ2jERdHIt2lY2fQo"
"Restaurant focal","4.9","11","7 Portsdown Rd","Singapore",,"SG","http://restaurantfocal.sg/","+65 8181 0102","Singaporean restaurant","https://www.google.com/maps/search/?api=1&query=Restaurant%20focal&query_place_id=ChIJA7oG6Ywb2jERtSES_pGiLVI"
"Pin Hsiang Family Restaurant","3.5","81","87 Whampoa Dr, #01-889",,,"SG",,"+65 6256 1193","Chinese restaurant","https://www.google.com/maps/search/?api=1&query=Pin%20Hsiang%20Family%20Restaurant&query_place_id=ChIJbejx2tkZ2jER1i2PFUnfPCw"
"TANI Bistro & Bar | Authentic and Traditional Indian Restaurant | Affordable Indian Food","4.6","229","20 Ah Hood Rd, #01-19 Zhongshan Mall","Singapore",,"SG","http://www.tanibistro.com/","+65 6592 0098","Indian restaurant","https://www.google.com/maps/search/?api=1&query=TANI%20Bistro%20%26%20Bar%20%7C%20Authentic%20and%20Traditional%20Indian%20Restaurant%20%7C%20Affordable%20Indian%20Food&query_place_id=ChIJ_zuSzmYX2jERXX38aSSA1e4"
"Boon Tong Kee Restaurant","4.2","2225","Balestier Rd, #399 401 & 403","Singapore",,"SG","http://boontongkee.com.sg/","+65 6254 3937","Chinese restaurant","https://www.google.com/maps/search/?api=1&query=Boon%20Tong%20Kee%20Restaurant&query_place_id=ChIJ7wTBRt8Z2jERQO-YNjVAXyI"
"Phoenix Indian Restaurant","4.5","629","KidsSTOP 21, Jurong Town Hall Rd, Omni theatre building","Singapore",,"SG","https://www.phoenixindianrestaurant.net/","+65 6468 1044","Indian restaurant","https://www.google.com/maps/search/?api=1&query=Phoenix%20Indian%20Restaurant&query_place_id=ChIJ-d2VabkR2jERYQ1K_MKnO1M"
"Che Kitchen by 车老板","3.3","217","1008A Toa Payoh N","Singapore",,"SG","https://reserve.oddle.me/cafenewasia","+65 6513 9032","Chinese restaurant","https://www.google.com/maps/search/?api=1&query=Che%20Kitchen%20by%20%E8%BD%A6%E8%80%81%E6%9D%BF&query_place_id=ChIJUdXy4S0X2jER-LPuuX-qE6Q"
"Hoy Yong Seafood Restaurant","3.5","307","352 Clementi Ave 2, #01-153 Block 352","Singapore",,"SG",,,"Restaurant","https://www.google.com/maps/search/?api=1&query=Hoy%20Yong%20Seafood%20Restaurant&query_place_id=ChIJCxXFGYka2jERhSj1uhWoTSY"
"YANG MING SEAFOOD Bishan Branch","4.2","767","150 Bishan St.11","Singapore",,"SG",,"+65 8028 9940","Seafood restaurant","https://www.google.com/maps/search/?api=1&query=YANG%20MING%20SEAFOOD%20Bishan%20Branch&query_place_id=ChIJ8fZpXSsX2jERDJ9ahOUlzKc"
"HUI Restaurant","4.6","116","10b Rochester Park","Singapore",,"SG","http://www.hui.restaurant/","+65 6530 3977","Chinese restaurant","https://www.google.com/maps/search/?api=1&query=HUI%20Restaurant&query_place_id=ChIJKQ2M_MIb2jERD1vs1-b3Upw"
"Candlenut","4.4","1588","17a Dempsey Rd","Singapore",,"SG","https://comodempsey.sg/restaurant/candlenut","+65 1800 304 2288","Nyonya restaurant","https://www.google.com/maps/search/?api=1&query=Candlenut&query_place_id=ChIJ5ySHC3IZ2jERu-xiMMTjAVE"
"Al Barakath Restaurant","4","218","39 Teban Gardens Rd, #01-332/333","Singapore",,"SG",,"+65 6561 5358","Indian restaurant","https://www.google.com/maps/search/?api=1&query=Al%20Barakath%20Restaurant&query_place_id=ChIJaW2fxaUa2jERiGD2Pyzq5zY"
"Cavemen Restaurant & Bar","4.3","262","1 Jln Dusun, #01-08","Singapore",,"SG","https://cavemen.com.sg/","+65 6250 1168","Restaurant","https://www.google.com/maps/search/?api=1&query=Cavemen%20Restaurant%20%26%20Bar&query_place_id=ChIJ8f9Y6N4X2jERAZZqYq17_j8"
"Al Medina Restaurant","3.9","34","95 Lor 4 Toa Payoh, #01-48","Singapore",,"SG",,,"Indian Muslim restaurant","https://www.google.com/maps/search/?api=1&query=Al%20Medina%20Restaurant&query_place_id=ChIJd8Uofb8X2jERovK0XMSVFLI"
"Niqqi's The Cheese Prata Shop","3.8","918","16 Clementi Rd","Singapore",,"SG",,"+65 8222 9822","Restaurant","https://www.google.com/maps/search/?api=1&query=Niqqi's%20The%20Cheese%20Prata%20Shop&query_place_id=ChIJS44NPfwa2jERH1ygoIgk05w"
"Soup Restaurant 三盅两件 @ Clementi Mall","4.1","563","3155 Commonwealth Ave W, #03 - 62","Singapore",,"SG","http://www.souprestaurant.com.sg/","+65 6659 3688","Cantonese restaurant","https://www.google.com/maps/search/?api=1&query=Soup%20Restaurant%20%E4%B8%89%E7%9B%85%E4%B8%A4%E4%BB%B6%20%40%20Clementi%20Mall&query_place_id=ChIJ9y7Rbo4a2jERLC1BGHJVV_w"
"Mata Thai","4","503","508, #01-390 Bishan St.11","Singapore",,"SG","https://m.facebook.com/pages/Mata-Thai/191448740873625","+65 9339 3082","Thai restaurant","https://www.google.com/maps/search/?api=1&query=Mata%20Thai&query_place_id=ChIJj9trUm0X2jERX0VD2SHNLQU"
"Namaste Curry House","3.7","264","263 Upper Thomson Rd","Singapore",,"SG","http://namastecurryhouse.com/","+65 9351 3302","North Indian restaurant","https://www.google.com/maps/search/?api=1&query=Namaste%20Curry%20House&query_place_id=ChIJh8ktt2UX2jER3-c1Xaq10yk"
"Sichuan Tianfu Restaurant 天府川菜 (Clementi)","4.4","472","3151 Commonwealth Ave W, #01-17/18 Grantral Mall @ Clementi","Singapore",,"SG","http://www.tianfu.com.sg/","+65 6777 1866","Restaurant","https://www.google.com/maps/search/?api=1&query=Sichuan%20Tianfu%20Restaurant%20%E5%A4%A9%E5%BA%9C%E5%B7%9D%E8%8F%9C%20(Clementi)&query_place_id=ChIJ-0DAQI4a2jERVIPajSdgj58"
"Hong Kong Street Restaurant - Clementi West st 2","3","2","722 Clementi West Street 2, #01-150","Singapore",,"SG",,,"Restaurant","https://www.google.com/maps/search/?api=1&query=Hong%20Kong%20Street%20Restaurant%20-%20Clementi%20West%20st%202&query_place_id=ChIJTxf0-dYb2jER22pj7IhCVYk"
"Swee Hin Restaurant","4.2","11","116 Commonwealth Cres, #01-129","Singapore",,"SG",,,"Restaurant","https://www.google.com/maps/search/?api=1&query=Swee%20Hin%20Restaurant&query_place_id=ChIJO1aAwT8a2jERKqpq3I9t4oQ"
"Tora Hachi Japanese Grill & Restaurant","4.6","149","29 Lor Mambong","Singapore",,"SG","https://tora-hachi-japanese-restaurant.business.site/?utm_source=gmb&utm_medium=referral","+65 9067 3489","Japanese restaurant","https://www.google.com/maps/search/?api=1&query=Tora%20Hachi%20Japanese%20Grill%20%26%20Restaurant&query_place_id=ChIJ04YnhYob2jERdNyW4Eva_-Y"
"Under Der Linden Restaurant","4.2","458","5B Portsdown Rd, #01-02","Singapore",,"SG","https://underderlinden.com.sg/","+65 9838 2977","Restaurant","https://www.google.com/maps/search/?api=1&query=Under%20Der%20Linden%20Restaurant&query_place_id=ChIJP0FNrbcb2jERDoCrNqB-ktU"
"Hakata Japanese Restaurant@NeWest","4","465","1 W Coast Dr, #01-93/70 NEWest","Singapore",,"SG","http://www.hakatarestaurant.com/catering/","+65 6265 3680","Restaurant","https://www.google.com/maps/search/?api=1&query=Hakata%20Japanese%20Restaurant%40NeWest&query_place_id=ChIJd0jKulUF2jERzRvrkyRc5ao"
"Al Jemi Restaurant","3.8","72","1007 Serangoon Rd","Singapore",,"SG",,"+65 6203 1334","Indian restaurant","https://www.google.com/maps/search/?api=1&query=Al%20Jemi%20Restaurant&query_place_id=ChIJQUE3LU4Z2jERb5yg2DazUUw"
"Signature Restaurant & Bar - Best Briyani and Grill chicken","4.3","130","2 Venture Dr, #02-47 Vision Exchange","Singapore",,"SG","http://www.signaturelounge.sg/","+65 8756 8383","Indian restaurant","https://www.google.com/maps/search/?api=1&query=Signature%20Restaurant%20%26%20Bar%20-%20Best%20Briyani%20and%20Grill%20chicken&query_place_id=ChIJKVSNn4sR2jERjznHMmMyMAQ"
"Fayidha Restaurant","4","555","26 Kim Keat Rd","Singapore",,"SG",,"+65 6259 7560","Indian Muslim restaurant","https://www.google.com/maps/search/?api=1&query=Fayidha%20Restaurant&query_place_id=ChIJV2Zx_NgZ2jERWx7Ro1iJ7c0"
"Chong Qing Grilled Fish Upper Thomson","4.1","161","205 Upper Thomson Rd","Singapore",,"SG","http://www.cqgf.com.sg/islandwide-delivery","+65 6278 8809","Chinese restaurant","https://www.google.com/maps/search/?api=1&query=Chong%20Qing%20Grilled%20Fish%20Upper%20Thomson&query_place_id=ChIJKUpcWe8X2jERxUdsne8BkLA"
"Jack's Place Toa Payoh","3.8","751","430 Lor 6 Toa Payoh, #01-01A OrangeTee","Singapore",,"SG","https://www.jacksplace.com.sg/","+65 6252 6311","Western restaurant","https://www.google.com/maps/search/?api=1&query=Jack's%20Place%20Toa%20Payoh&query_place_id=ChIJN7A8tmYX2jERgQ48HDgdMPA"
"GRUB Junction 8","4.1","215","9 Bishan Pl, #01-38 Junction 8","Singapore",,"SG","https://grub.com.sg/","+65 8891 9298","Western restaurant","https://www.google.com/maps/search/?api=1&query=GRUB%20Junction%208&query_place_id=ChIJE0-KZIgX2jERDiDbvPpPi_I"
"Yi Jia Village Seafood Restaurant","4.1","444","20 Lor 7 Toa Payoh, #01-758","Singapore",,"SG",,"+65 6250 6537","Seafood restaurant","https://www.google.com/maps/search/?api=1&query=Yi%20Jia%20Village%20Seafood%20Restaurant&query_place_id=ChIJgzrjuXoX2jER0mck0ryN1_M"
"Hock Kee Seafood Restaurant","2.8","19","260 Kim Keat Ave, #01-01","Singapore",,"SG",,,"Restaurant","https://www.google.com/maps/search/?api=1&query=Hock%20Kee%20Seafood%20Restaurant&query_place_id=ChIJLbCwAXEX2jERkRG2wu0pvrs"
"The Roti Prata House","3.8","3277","246 Upper Thomson Rd, #246 M 246","Singapore",,"SG","https://www.facebook.com/pages/The-Roti-Prata-House/143214395726095","+65 6459 5260","Indian Muslim restaurant","https://www.google.com/maps/search/?api=1&query=The%20Roti%20Prata%20House&query_place_id=ChIJP8IIvzoX2jERvnJIgFgZoCs"
"Hong Sheng Restaurant - Claypot Fish Head","3.9","228","203 Toa Payoh N","Singapore",,"SG",,,"Restaurant","https://www.google.com/maps/search/?api=1&query=Hong%20Sheng%20Restaurant%20-%20Claypot%20Fish%20Head&query_place_id=ChIJ6T54vmsX2jER6vI3BMor7cg"
"Fatboy's the Burger Bar","4.2","874","187 Upper Thomson Rd","Singapore",,"SG","http://www.fatboys.sg/","+65 6252 8780","Hamburger restaurant","https://www.google.com/maps/search/?api=1&query=Fatboy's%20the%20Burger%20Bar&query_place_id=ChIJzZGHRToX2jERHqIagCQLWI0"
"Saveur Thai Restaurant","3.9","113","151 Lorong Chuan, NTP+ #01-09","Singapore",,"SG","https://www.saveurthai.sg/","+65 6241 6014","Restaurant","https://www.google.com/maps/search/?api=1&query=Saveur%20Thai%20Restaurant&query_place_id=ChIJt6z2ZFoX2jER_jB39owSCWY"
"WOLAA Kitchen & Bar","4.6","117","387 Balestier Rd","Singapore",,"SG",,"+65 6312 3376","Asian fusion restaurant","https://www.google.com/maps/search/?api=1&query=WOLAA%20Kitchen%20%26%20Bar&query_place_id=ChIJLYJp72kZ2jER5mZsHwcQfV0"
"83 Seafood Restaurant","4.1","322","Block 66 Lor 4 Toa Payoh","Singapore",,"SG",,"+65 8358 4282","Restaurant","https://www.google.com/maps/search/?api=1&query=83%20Seafood%20Restaurant&query_place_id=ChIJk2kjHIwX2jERt8VMQsv5100"
"ARIZE Bistro by Axsolute","4.6","78","293 Lor 6 Toa Payoh, #03-03","Singapore",,"SG","https://www.facebook.com/AxsoluteBistro/","+65 8847 1453","Western restaurant","https://www.google.com/maps/search/?api=1&query=ARIZE%20Bistro%20by%20Axsolute&query_place_id=ChIJFa026WUX2jERH6b1NEv2U1g"
"Wanglee Seafood Restaurant","4.3","32","94 Lor 4 Toa Payoh","Singapore",,"SG","http://fb.me/Wangleebrothers","+65 8711 5600","Restaurant","https://www.google.com/maps/search/?api=1&query=Wanglee%20Seafood%20Restaurant&query_place_id=ChIJ1SvfbG4X2jERkZSJct1kMv8"
"PocoLoco","4","722","215f Upper Thomson Rd","Singapore",,"SG",,"+65 8866 4646","Italian restaurant","https://www.google.com/maps/search/?api=1&query=PocoLoco&query_place_id=ChIJuworGh0X2jERVX6X-X29pyo"
"Tims Restaurant & Cafe","4.2","715","95 Lor 4 Toa Payoh, #01-52","Singapore",,"SG",,"+65 6250 5246","Western restaurant","https://www.google.com/maps/search/?api=1&query=Tims%20Restaurant%20%26%20Cafe&query_place_id=ChIJ6-rvFmkX2jERaCY1Smb5tZ0"
"Trattoria da Mimmo Restaurant and Pizzeria","4.5","557","3 Clover Wy","Singapore",,"SG","http://www.trattoriadamimmo.com.sg/","+65 9088 2659","Italian restaurant","https://www.google.com/maps/search/?api=1&query=Trattoria%20da%20Mimmo%20Restaurant%20and%20Pizzeria&query_place_id=ChIJ4UIS3D0X2jERNNeOcuEPgQY"
"Faber Valley Pub & Restaurant","4.6","116","114 Faber Dr","Singapore",,"SG","https://www.facebook.com/FaberValley/","+65 6778 7101","Restaurant","https://www.google.com/maps/search/?api=1&query=Faber%20Valley%20Pub%20%26%20Restaurant&query_place_id=ChIJXY4jC5ka2jER7-pcR1iUa70"
"Sapore Italian Restaurant","4.4","411","1 Create Wy, #01-11","Singapore",,"SG","https://www.sapore.com.sg/","+65 6262 0287","Italian restaurant","https://www.google.com/maps/search/?api=1&query=Sapore%20Italian%20Restaurant&query_place_id=ChIJrccu6fUa2jERtI5L2Txe-_g"
"Island Penang Kitchen","4.4","1251","721 Clementi West Street 2, #01-126","Singapore",,"SG","https://www.facebook.com/Island-Penang-Kitchen-648592468507507/","+65 6873 0163","Southeast Asian restaurant","https://www.google.com/maps/search/?api=1&query=Island%20Penang%20Kitchen&query_place_id=ChIJEYbG7_Ea2jERzPiMfCb8yVY"
"The Restaurant @ SPGG","3.8","39","1010 Dover Rd","Singapore",,"SG",,"+65 6796 9988","Restaurant","https://www.google.com/maps/search/?api=1&query=The%20Restaurant%20%40%20SPGG&query_place_id=ChIJb0fNgooa2jERRt4iEA6zg-4"
"Taverna Greka Greek-Italian Restaurant (previous Gary's)","4.5","425","41 Rochester Dr","Singapore",,"SG","https://tavernagreeka.com/","+65 8513 3144","Italian restaurant","https://www.google.com/maps/search/?api=1&query=Taverna%20Greka%20Greek-Italian%20Restaurant%20(previous%20Gary's)&query_place_id=ChIJ40e8ZGgb2jERrkS9z4WVCAw"
"Lazy Lizard - NEWest","4.5","324","1 West Coast Drive #01-85 & #01-86, NEWest","Singapore",,"SG","https://lazylizard.com.sg/","+65 6254 7326","Restaurant","https://www.google.com/maps/search/?api=1&query=Lazy%20Lizard%20-%20NEWest&query_place_id=ChIJpaXv6kIb2jERaR2t1KW20sk"
"Rong Liang Restaurant Pte Ltd 榮亮閣","4.1","813","Block 725 Clementi West Street 2 #01-190/192, (S)120725","Singapore",,"SG","https://rong-liang-restaurant.business.site/?utm_source=gmb&utm_medium=referral","+65 9821 0906","Cantonese restaurant","https://www.google.com/maps/search/?api=1&query=Rong%20Liang%20Restaurant%20Pte%20Ltd%20%E6%A6%AE%E4%BA%AE%E9%96%A3&query_place_id=ChIJayxA_-0a2jER8qiMOk6X4tY"
"Dario Pizza & More","4.4","441","6 Clementi Rd","Singapore",,"SG","http://www.dariopizzaandmore.com/","+65 9446 0253","Pizza restaurant","https://www.google.com/maps/search/?api=1&query=Dario%20Pizza%20%26%20More&query_place_id=ChIJSV6OO_wa2jERdnMz-qR7XXo"
"Hong Kong Kitchen","3.5","205","24 Clementi Rd","Singapore",,"SG","https://xgxc.meuu.online/home","+65 6779 7889","Chinese restaurant","https://www.google.com/maps/search/?api=1&query=Hong%20Kong%20Kitchen&query_place_id=ChIJD2KRPfwa2jERpjI_2ZxVBRA"
"roots@onenorth restaurant","4.4","356","3 Fusionopolis Pl Workloft, Unit, #01 - 50 Galaxis","Singapore",,"SG","http://www.facebook.com/rootsonenorth","+65 8040 5140","Western restaurant","https://www.google.com/maps/search/?api=1&query=roots%40onenorth%20restaurant&query_place_id=ChIJ5yUNSEUa2jERwFbLzYcct0g"
"Pietrasanta The Italian Restaurant","4.5","1142","1 Fusionopolis Wy, #01-08 Connexis","Singapore",,"SG","http://www.ristorante-pietrasanta.com/","+65 9863 9253","Italian restaurant","https://www.google.com/maps/search/?api=1&query=Pietrasanta%20The%20Italian%20Restaurant&query_place_id=ChIJp85ZgUka2jERsvwRR9FvUwA"
"Rangooli Restaurant","4.1","521","Blk 721 Clementi West Street 2, #01-138/140","Singapore",,"SG","http://www.rangoolirestaurant.com/","+65 6777 6413","Indian restaurant","https://www.google.com/maps/search/?api=1&query=Rangooli%20Restaurant&query_place_id=ChIJV15mQ6Ub2jERvlB6iB9FrN8"
"Al Amaan Restaurant","4.1","1261","12 Clementi Rd","Singapore",,"SG","http://www.alamaanrestaurant.com/","+65 6774 0637","Indian Muslim restaurant","https://www.google.com/maps/search/?api=1&query=Al%20Amaan%20Restaurant&query_place_id=ChIJpbpdPPwa2jER3qzoPX12xE8"
"The Wharf","3.5","86","52 W Coast Ferry Rd, RSYC Yacht Club","Singapore",,"SG",,"+65 6768 9351","Restaurant","https://www.google.com/maps/search/?api=1&query=The%20Wharf&query_place_id=ChIJu7MGPOMa2jERiwWry4BnS2E"
"Nana Original Thai Food Clementi","4.1","565","18 Clementi Rd","Singapore",,"SG","http://nana.thai.restaurant/","+65 8861 4209","Thai restaurant","https://www.google.com/maps/search/?api=1&query=Nana%20Original%20Thai%20Food%20Clementi&query_place_id=ChIJpacnPPwa2jERoFkXHFExOI8"
"Formosa Delights","4.2","509","20 Clementi Rd","Singapore",,"SG","http://www.formosadelights.com/","+65 6778 7398","Chinese restaurant","https://www.google.com/maps/search/?api=1&query=Formosa%20Delights&query_place_id=ChIJB6_SPfwa2jERhWb0-pMgLRo"
"Anyplace Family Restaurant Pte Ltd","5","1","2 Jurong East Street 21","Singapore",,"SG",,"+65 6565 6340","Restaurant","https://www.google.com/maps/search/?api=1&query=Anyplace%20Family%20Restaurant%20Pte%20Ltd&query_place_id=ChIJNxo8dA4Q2jERXyGon4uVxMM"
"桑林川粤海鲜饭店 Canto-Sichuan Seafood Restaurant","3","2","132 Jurong Gateway Rd, #01-273","Singapore",,"SG",,"+65 6561 8658","Restaurant","https://www.google.com/maps/search/?api=1&query=%E6%A1%91%E6%9E%97%E5%B7%9D%E7%B2%A4%E6%B5%B7%E9%B2%9C%E9%A5%AD%E5%BA%97%20Canto-Sichuan%20Seafood%20Restaurant&query_place_id=ChIJGUj2Qg0R2jERwzglCLtK2CE"
"Yee Cheong Yuen Noodle Restaurant Pte Ltd","1.9","7","2 Jurong East Street 21, #03-99, Imm Building","Singapore",,"SG",,"+65 6561 1663","Fusion restaurant","https://www.google.com/maps/search/?api=1&query=Yee%20Cheong%20Yuen%20Noodle%20Restaurant%20Pte%20Ltd&query_place_id=ChIJ7XV52w0Q2jERED3DoSpTxv4"
"81 Restaurant","3.8","321","406 Jurong West Street 42","Singapore",,"SG","http://www.facebook.com/81seafood","+65 8191 1000","Restaurant","https://www.google.com/maps/search/?api=1&query=81%20Restaurant&query_place_id=ChIJR19GINoP2jERIVvcAXcatpg"
"NKS Restaurant Indian Muslim Food","3.3","116","762 Jurong West Street 75","Singapore",,"SG",,,"Restaurant","https://www.google.com/maps/search/?api=1&query=NKS%20Restaurant%20Indian%20Muslim%20Food&query_place_id=ChIJt2wdFaYP2jERjkTBkVsjZGE"
"Siam Square Mookata - Best Mookata Restaurant in Singapore","3.7","140","134 Jurong Gateway Rd","Singapore",,"SG","https://siamsquaremookata.com.sg/","+65 8119 6664","Barbecue restaurant","https://www.google.com/maps/search/?api=1&query=Siam%20Square%20Mookata%20-%20Best%20Mookata%20Restaurant%20in%20Singapore&query_place_id=ChIJ86WNoAUQ2jERWScRdorYYa4"
"Tayyiba Briyani Restaurant @ Nexus One North","4.7","49","1 Fusionopolis Link, #01-03 Nexus @one-north","Singapore",,"SG","https://www.tayyibabiryani.sg/","+65 6993 9648","Indian restaurant","https://www.google.com/maps/search/?api=1&query=Tayyiba%20Briyani%20Restaurant%20%40%20Nexus%20One%20North&query_place_id=ChIJkTDN2YYb2jERnRmbvhRlo0w"
"Woorinara Korean Restaurant","3.9","523","19 Lor Kilat, #01-02","Singapore",,"SG","http://woorinara.sg/","+65 6464 9282","Korean restaurant","https://www.google.com/maps/search/?api=1&query=Woorinara%20Korean%20Restaurant&query_place_id=ChIJ_zMwIGIQ2jER4QzYoMSf_lM"
"Alif Restaurant","3.8","505","374 Bukit Batok Street 31, #01-204","Singapore",,"SG",,,"Indian Muslim restaurant","https://www.google.com/maps/search/?api=1&query=Alif%20Restaurant&query_place_id=ChIJqUBqNTYQ2jERBBDpYC6v9DY"
"Potluck by The Soup Restaurant","3.7","143","IMM #01-101A, 2 Jurong East Street 21","Singapore",,"SG","https://www.facebook.com/potlucksingapore","+65 6899 6636","Restaurant","https://www.google.com/maps/search/?api=1&query=Potluck%20by%20The%20Soup%20Restaurant&query_place_id=ChIJJV7X1Q0Q2jERDNnJQOEaePs"
"Siam Square Mookata - Best Mookata Restaurant in Singapore","3.8","125","221 Boon Lay Pl, Boon Lay Shopping Centre","Singapore",,"SG","https://siamsquaremookata.com.sg/","+65 8119 6664","Thai restaurant","https://www.google.com/maps/search/?api=1&query=Siam%20Square%20Mookata%20-%20Best%20Mookata%20Restaurant%20in%20Singapore&query_place_id=ChIJ1W2wC8IP2jER73BJuOqy9js"
"Pink Candy Korean Restaurant","3.4","226","144 Upper Bukit Timah Rd #04-60 Beauty World Centre","Singapore",,"SG","https://pinkcandysg.com/","+65 9170 2365","Korean restaurant","https://www.google.com/maps/search/?api=1&query=Pink%20Candy%20Korean%20Restaurant&query_place_id=ChIJHwZEaooQ2jERl-shndvFq7I"
"Swensen's @ West Mall","3.7","549","1 Bukit Batok Central Link 02-05 West Mall","Singapore",,"SG","http://www.swensens.com.sg/","+65 6898 9281","Restaurant","https://www.google.com/maps/search/?api=1&query=Swensen's%20%40%20West%20Mall&query_place_id=ChIJxzbY1z4Q2jERHEKnSUZd9vM"
"KJM Curry House","3.8","578","217A Jurong East Street 21","Singapore",,"SG",,"+65 9142 6420","Restaurant","https://www.google.com/maps/search/?api=1&query=KJM%20Curry%20House&query_place_id=ChIJWxHvMRoQ2jERgJklyeIf1uY"
"Ananda's TAJ Restaurant","3.7","101","Blk 19A #01, 60 Nanyang Cres, #02 North Hill Gym","Singapore",,"SG",,"+65 8436 1111","Restaurant","https://www.google.com/maps/search/?api=1&query=Ananda's%20TAJ%20Restaurant&query_place_id=ChIJl_4mcKYP2jERaQTKAt7D5YU"
"Ariff's Restaurant Authentic indian And Muslim Cuisine","3.7","349","274 Bukit Batok East Ave 5",,,"SG",,"+65 8248 9248","Indian restaurant","https://www.google.com/maps/search/?api=1&query=Ariff's%20Restaurant%20Authentic%20indian%20And%20Muslim%20Cuisine&query_place_id=ChIJCSu9KUIQ2jERmAlWHXSKk9U"
"The Sapling Restaurant","4.1","185","21 Bukit Batok Street 22, Shatec","Singapore",,"SG","https://thesapling.shatec.sg/","+65 6415 3553","Fusion restaurant","https://www.google.com/maps/search/?api=1&query=The%20Sapling%20Restaurant&query_place_id=ChIJp2Lnyywa2jERsyM7yLKR91Q"
"The House Steam Boat Restaurant","3.8","8","50 Nanyang Dr","Singapore",,"SG","https://www.burpple.com/food-connection","+65 8821 3302","Restaurant","https://www.google.com/maps/search/?api=1&query=The%20House%20Steam%20Boat%20Restaurant&query_place_id=ChIJSURCxAoP2jERTXZ_TyShiu4"
"Suka Ramai Mama Power","4.2","30","1 Bedok Rd","Singapore",,"SG","https://suka-ramai-mama-power.business.site/?utm_source=gmb&utm_medium=referral","+65 9425 2537","Restaurant","https://www.google.com/maps/search/?api=1&query=Suka%20Ramai%20Mama%20Power&query_place_id=ChIJ9cwssdYi2jERs_Q9LNq5TAU"
"Crust Bistro","3.5","37","74 Bayshore Rd, #01-33 Costa Del Sol","Singapore",,"SG",,"+65 9054 4117","Indian restaurant","https://www.google.com/maps/search/?api=1&query=Crust%20Bistro&query_place_id=ChIJrWWBq8ci2jERrJgyDibcDpA"
"Hock Seng Choon Fishball Kway Teow Mee (#01-50)","3.5","97","16 Bedok S Rd, #01-50","Singapore",,"SG","https://the.fat.guide/singapore/eat/hock-seng-choon-fish-ball-kway-teow-mee/","+65 9789 6160","Hawker stall","https://www.google.com/maps/search/?api=1&query=Hock%20Seng%20Choon%20Fishball%20Kway%20Teow%20Mee%20(%2301-50)&query_place_id=ChIJLxMAbrYi2jERJb6FkfTSYPk"
"Hill Street Fried Kway Teow","4","371","16 Bedok S Rd, #01-41","Singapore",,"SG",,,"Hawker stall","https://www.google.com/maps/search/?api=1&query=Hill%20Street%20Fried%20Kway%20Teow&query_place_id=ChIJ-TAXb7Yi2jERW5xWGXUUDXo"
"Bam! Restaurant","4.5","297","38 Tras St","Singapore",,"SG","http://www.bam.sg/","+65 6226 0500","Restaurant","https://www.google.com/maps/search/?api=1&query=Bam!%20Restaurant&query_place_id=ChIJSSOENm0Z2jERBKC5c68MTWk"
"Ba Shu Sichuan Restaurant","4.3","654","219 Bedok Central, #01-122","Singapore",,"SG","http://bashusichuan.sg/","+65 6384 0115","Sichuan restaurant","https://www.google.com/maps/search/?api=1&query=Ba%20Shu%20Sichuan%20Restaurant&query_place_id=ChIJ9RBloDE92jERyvNEWTgyGS0"
"Neon Pigeon","4.3","772","36 Carpenter St, #01-01","Singapore",,"SG","https://www.neonpigeonsg.com/","+65 3129 7551","Japanese restaurant","https://www.google.com/maps/search/?api=1&query=Neon%20Pigeon&query_place_id=ChIJz-JDm20Z2jER_5M1quhzBbg"
"LAVO Italian Restaurant And Rooftop Bar","4.3","4222","10 Bayfront Ave, Tower 1, Level 57","Singapore",,"SG","https://lavosingapore.com/","+65 6688 8591","Italian restaurant","https://www.google.com/maps/search/?api=1&query=LAVO%20Italian%20Restaurant%20And%20Rooftop%20Bar&query_place_id=ChIJsRrnPwQZ2jERmUK_SYyLwTs"
"Fu Lin Men Chinese Restaurant (National Service Resort & Country Club)","4.1","135","10 Changi Coast Walk, Level 1 National Service Resort & Country Club","Singapore",,"SG","https://www.fulinmen.com.sg/fu-lin-men-nsrcc","+65 6592 4680","Chinese restaurant","https://www.google.com/maps/search/?api=1&query=Fu%20Lin%20Men%20Chinese%20Restaurant%20(National%20Service%20Resort%20%26%20Country%20Club)&query_place_id=ChIJ7e7PY_0j2jERTI4n-bRv4O0"
"Pepper Lunch - Bedok Mall","4.2","647","311 New Upper Changi Rd, #01-05/06/07/08","Singapore",,"SG","http://www.pepperlunch.com.sg/",,"Japanese restaurant","https://www.google.com/maps/search/?api=1&query=Pepper%20Lunch%20-%20Bedok%20Mall&query_place_id=ChIJFfAsG7Mi2jERCX_G_fKJo9Y"
"Blu Kouzina Siglap","4.5","725","907 E Coast Rd, #01-01","Singapore",,"SG","https://blukouzina.com/siglap/","+65 9710 8303","Greek restaurant","https://www.google.com/maps/search/?api=1&query=Blu%20Kouzina%20Siglap&query_place_id=ChIJlfOGefcj2jER8Ce0uih53Zo"
"城记海鲜 Cheng Ji Seafood Restaurant","4.8","135","891 E Coast Rd","Singapore",,"SG","https://social.quandoo.com/en/groups/Cheng%20Ji%20Seafood%20Restaurant%20%E5%9F%8E%E8%AE%B0%E6%B5%B7%E9%B2%9C","+65 9694 1818","Seafood restaurant","https://www.google.com/maps/search/?api=1&query=%E5%9F%8E%E8%AE%B0%E6%B5%B7%E9%B2%9C%20Cheng%20Ji%20Seafood%20Restaurant&query_place_id=ChIJBaFPaMEj2jERDH3HboYBSX8"
"Mendon Bedok Mall","3.4","19","311 New Upper Changi Rd, #B2-27","Singapore",,"SG",,,"Japanese restaurant","https://www.google.com/maps/search/?api=1&query=Mendon%20Bedok%20Mall&query_place_id=ChIJNSyV3UQj2jER8SbQBXrcmDU"
"Masalaa Bar","4.7","2256","723 E Coast Rd","Singapore",,"SG","http://www.masalaabar.com/","+65 6282 4648","Modern Indian restaurant","https://www.google.com/maps/search/?api=1&query=Masalaa%20Bar&query_place_id=ChIJLfD_pN8j2jERCH3WFHh6RN8"
"Adimann Seafood & Satay Specialist","2.8","9","1220 ECP","Singapore",,"SG",,,"Satay restaurant","https://www.google.com/maps/search/?api=1&query=Adimann%20Seafood%20%26%20Satay%20Specialist&query_place_id=ChIJO_QTQHYY2jER-JB3DZoz5GU"
"Springleaf Prata Place - Jln Tua Kong","4.2","1690","57B Jln Tua Kong","Singapore",,"SG","https://spplace.com/","+65 6636 2935","Indian restaurant","https://www.google.com/maps/search/?api=1&query=Springleaf%20Prata%20Place%20-%20Jln%20Tua%20Kong&query_place_id=ChIJV6W3TqUi2jERDDHPrq2PYJc"
"Xin Jian Dong Restaurant Pte Ltd",,"0","219 Bedok Central, #01-140A","Singapore",,"SG",,"+65 6441 2298","Fusion restaurant","https://www.google.com/maps/search/?api=1&query=Xin%20Jian%20Dong%20Restaurant%20Pte%20Ltd&query_place_id=ChIJFWpKlLQi2jERq4Tx7vdPJvY"
"Block 16 Bedok South Market & Food Centre","4.1","2463","16 Bedok S Rd","Singapore",,"SG","https://www.nea.gov.sg/our-services/hawker-management/overview","+65 6225 5632","Hawker center","https://www.google.com/maps/search/?api=1&query=Block%2016%20Bedok%20South%20Market%20%26%20Food%20Centre&query_place_id=ChIJj7s6b7Yi2jER1dqwzveGRnE"
"Satay Solo","4","58","1 Bedok Rd","Singapore",,"SG","https://sataysolo.pickngosg.com/","+65 9711 0116","Hawker stall","https://www.google.com/maps/search/?api=1&query=Satay%20Solo&query_place_id=ChIJvayNsNYi2jERdTv_fii7ObM"
"Khan Saab Restaurant","4","905","55 Chai Chee Dr","Singapore",,"SG",,"+65 6244 4430","Indian restaurant","https://www.google.com/maps/search/?api=1&query=Khan%20Saab%20Restaurant&query_place_id=ChIJDbcktlQ92jER_Ao30nl1TYs"
"Paik's Bibim @ Bedok Mall","3.8","493","311 New Upper Changi Rd, #01-95","Singapore",,"SG","http://www.facebook.com/paiks.bibimsg/","+65 6844 9628","Korean restaurant","https://www.google.com/maps/search/?api=1&query=Paik's%20Bibim%20%40%20Bedok%20Mall&query_place_id=ChIJg7hNhlgZ2jERwL2kxD1496k"
"Pizza Hut Bedok Mall","3.9","547","311 New Upper Changi Rd, #B2 - 05 / 34 Bedok Mall","Singapore",,"SG","http://www.pizzahut.com.sg/?y_source=1_MjAzNDUzMzMtNzE1LWxvY2F0aW9uLndlYnNpdGU%3D","+65 6235 3535","Pizza restaurant","https://www.google.com/maps/search/?api=1&query=Pizza%20Hut%20Bedok%20Mall&query_place_id=ChIJ_xydb7Mi2jERydfjBRJi3O0"
"Ashes Burnnit","4.3","122","69 Bedok South Ave 3, Springleaf Eating House by Coffee Buddy's","Singapore",,"SG","http://www.ashessg.com/",,"Hawker stall","https://www.google.com/maps/search/?api=1&query=Ashes%20Burnnit&query_place_id=ChIJhbjM6j0j2jERk1E01BpwRec"
"Spize @ Bedok","4.1","1908","338 Bedok Rd, Bedok Shopping Complex","Singapore",,"SG","https://smartweb-ecms.tabsquare.com/scan/b8bc5160-ce84-48da-b119-6eb6f2832616","+65 6337 7493","Halal restaurant","https://www.google.com/maps/search/?api=1&query=Spize%20%40%20Bedok&query_place_id=ChIJs26k7TE92jER3ujFW9aQHOw"
"The Nest","4.2","185","11 Laguna Golf Green","Singapore",,"SG","https://www.dusitthanilagunasingapore.com/dining/thenest","+65 6321 6792","Restaurant","https://www.google.com/maps/search/?api=1&query=The%20Nest&query_place_id=ChIJcVzzAisj2jERylKtcEJ5I80"
"Lenu","4.3","372","311 New Upper Changi Rd, B2-32","Singapore",,"SG","https://www.paradisegp.com/brand-lenu-chef-wais-noodle-bar/",,"Chinese noodle restaurant","https://www.google.com/maps/search/?api=1&query=Lenu&query_place_id=ChIJp-45FLMi2jERjtN2om-CLeA"
"An-nur shentonway famous restaurant","4.1","30","36 Chai Chee Ave, Block 36","Singapore",,"SG",,"+65 8742 0797","Restaurant","https://www.google.com/maps/search/?api=1&query=An-nur%20shentonway%20famous%20restaurant&query_place_id=ChIJi9Ojqc0j2jERlCkJ84_LZqE"
"Legends Bar","3.9","15","11 Laguna Golf Green","Singapore",,"SG","https://www.dusitthanilagunasingapore.com/dining/legendsbar",,"Restaurant","https://www.google.com/maps/search/?api=1&query=Legends%20Bar&query_place_id=ChIJL93QZsQj2jERD8tb0uIUVPA"
"Song Kee Fried Oyster","4.4","74","#01-15 East Coast Lagoon Food Village, 1220 ECP","Singapore",,"SG",,,"Hawker stall","https://www.google.com/maps/search/?api=1&query=Song%20Kee%20Fried%20Oyster&query_place_id=ChIJxdu7e5Ui2jERZNiyRo5stqI"
"Biryani Concepts @ Siglap","4.6","59","27 Upper E Coast Rd, Crescendo Building","Singapore",,"SG","https://social.quandoo.com/en/groups/Biryani%20Concepts","+65 8208 8842","Restaurant","https://www.google.com/maps/search/?api=1&query=Biryani%20Concepts%20%40%20Siglap&query_place_id=ChIJAZ5bhPoj2jERjk_OTWS8HQs"
"MOS Burger","3.6","240","311 New Upper Changi Rd, #B2-29 Bedok Mall","Singapore",,"SG","http://www.mosburger.com.sg/","+65 6844 9571","Fast food restaurant","https://www.google.com/maps/search/?api=1&query=MOS%20Burger&query_place_id=ChIJ_cgimrQi2jERwdr0zJw7oZE"
"Black Pearl Steakhouse","4.3","558","85 Upper E Coast Rd","Singapore",,"SG","http://www.blackpearlsteakhouse.com/","+65 6448 1732","Restaurant","https://www.google.com/maps/search/?api=1&query=Black%20Pearl%20Steakhouse&query_place_id=ChIJA0SWFLsi2jERh2JyJGXVr9E"
"Stuff'd","4.3","302","New Upper Changi Rd, B2-22 Bedok Mall, 311","Singapore",,"SG","http://stuffed.com.sg/",,"Salad shop","https://www.google.com/maps/search/?api=1&query=Stuff'd&query_place_id=ChIJX6SVHLMi2jERjgCiHY5kboc"
"Canton Paradise","4.2","922","311 New Upper Changi Road Bedok Mall, B2-11","Singapore",,"SG","https://www.paradisegp.com/brand-canton-paradise/","+65 6844 9244","Cantonese restaurant","https://www.google.com/maps/search/?api=1&query=Canton%20Paradise&query_place_id=ChIJM_2cb7Mi2jER2bFsVBUbDVw"
"Saffrons @ Swan Lake","4.4","310","23 Swan Lake Ave, Opera Estate","Singapore",,"SG","http://www.saffrons.com.sg/","+65 6449 5267","Indian Muslim restaurant","https://www.google.com/maps/search/?api=1&query=Saffrons%20%40%20Swan%20Lake&query_place_id=ChIJdbaN2K0i2jERFrZiLi_kekk"
"Sin Ho (Block 16 Bedok South)","4","14","11 Bedok S Rd",,,"SG",,,"Chinese restaurant","https://www.google.com/maps/search/?api=1&query=Sin%20Ho%20(Block%2016%20Bedok%20South)&query_place_id=ChIJ1QpqzJgj2jEREW_oCNJyhc0"
"Ding Gua Gua Fried Rice","4","31","69 Bedok South Ave 3, #01-498","Singapore",,"SG",,,"Hawker stall","https://www.google.com/maps/search/?api=1&query=Ding%20Gua%20Gua%20Fried%20Rice&query_place_id=ChIJ61zztLsj2jER9fAqekQVxVI"
"Soi 11 ( Thai Bistro Bar)","4.6","39","924 E Coast Rd","Singapore",,"SG",,"+65 8523 9494","Restaurant","https://www.google.com/maps/search/?api=1&query=Soi%2011%20(%20Thai%20Bistro%20Bar)&query_place_id=ChIJ4_qllC4j2jERNfnkBbnwyfM"
"Hot Tomato Bistro","4","489","311 New Upper Changi Rd, #B1-37/38","Singapore",,"SG","http://www.hottomato.com.sg/","+65 6844 9328","Western restaurant","https://www.google.com/maps/search/?api=1&query=Hot%20Tomato%20Bistro&query_place_id=ChIJD1XfF7Mi2jER1IZUNTtg-Xo"
"Tasty Court Pte Ltd","4.2","495","1 Figaro St","Singapore",,"SG","https://www.facebook.com/people/TASTY-COURT-PTE-LTD/100057489757992/","+65 6538 3533","Chinese restaurant","https://www.google.com/maps/search/?api=1&query=Tasty%20Court%20Pte%20Ltd&query_place_id=ChIJqejvSqUi2jERFrh9UUIQ6uI"
"Lai Huat Signatures","4.1","282","17 Upper E Coast Rd","Singapore",,"SG","https://laihuatbuffet.com/","+65 6448 9077","Fish and seafood restaurant","https://www.google.com/maps/search/?api=1&query=Lai%20Huat%20Signatures&query_place_id=ChIJs4gYSrsi2jER30aYz9Tk2JA"
"Choon Hiang","4.1","19","#01-46 East Coast Lagoon Food Village, 1220 ECP","Singapore",,"SG","https://www.sgfoodonfoot.com/2016/08/choon-hiang-east-coast-lagoon-food.html",,"Hawker stall","https://www.google.com/maps/search/?api=1&query=Choon%20Hiang&query_place_id=ChIJPyzK1M0j2jERs0FbQ6_O6GI"
"Pasta Fresca Da Salvatore (Siglap)","4","483","9 Upper E Coast Rd, #01-01","Singapore",,"SG","https://www.pastafresca.com/outlet/pasta-fresca-east-coast/","+65 6241 5560","Italian restaurant","https://www.google.com/maps/search/?api=1&query=Pasta%20Fresca%20Da%20Salvatore%20(Siglap)&query_place_id=ChIJAbqMFbsi2jERlHZFjl-OSKg"
"Srisun Prata","3.8","45","168 Bedok South Ave 3, #01-471","Singapore",,"SG","http://www.srisunprata.com/",,"Hawker stall","https://www.google.com/maps/search/?api=1&query=Srisun%20Prata&query_place_id=ChIJX4icwM4i2jERt1UI7XHTfuw"
"Restaurant Poise","4.9","89","6 Teck Lim Rd","Singapore",,"SG","http://www.restaurantpoise.com/","+65 8894 4118","Restaurant","https://www.google.com/maps/search/?api=1&query=Restaurant%20Poise&query_place_id=ChIJueAjEfEZ2jER63xqRZHiAKE"
"Chinatown Seafood Restaurant","4.1","1337","51 Pagoda St","Singapore",,"SG","https://chinatown.sg/dine/chinatown-seafood-restaurant/","+65 6222 2224","Seafood restaurant","https://www.google.com/maps/search/?api=1&query=Chinatown%20Seafood%20Restaurant&query_place_id=ChIJgwJlSXMZ2jERGrsN1WJyQjs"
"Gaig Singapore","4.3","389","16 Stanley St","Singapore",,"SG","https://sg.restaurantgaig.com/","+65 6221 2134","Catalonian restaurant","https://www.google.com/maps/search/?api=1&query=Gaig%20Singapore&query_place_id=ChIJM_R3nA0Z2jERvr--2_P8h2M"
"Blossom Restaurant","4.7","1780","Marina Bay Sands Hotel, Lobby Tower 2, #01-05/05A, 2 Bayfront Ave","Singapore",,"SG","http://blossomrestaurant.com.sg/","+65 6688 7799","Fine dining restaurant","https://www.google.com/maps/search/?api=1&query=Blossom%20Restaurant&query_place_id=ChIJm5OwF14Z2jER1Qjz37S5wYY"
"Path Restaurant","4.7","230","12 Marina Boulevard, Tower 3, #01-05/06 Marina Bay Financial Centre","Singapore",,"SG","http://pathrestaurant.com.sg/","+65 6443 0180","Asian restaurant","https://www.google.com/maps/search/?api=1&query=Path%20Restaurant&query_place_id=ChIJpXP0eYAZ2jEReM0l4h0xDH4"
"Alati Divine Greek Cuisine","4.5","687","73 Amoy St","Singapore",,"SG","http://www.alati.sg/","+65 6221 6124","Seafood restaurant","https://www.google.com/maps/search/?api=1&query=Alati%20Divine%20Greek%20Cuisine&query_place_id=ChIJn0mYZQ0Z2jERomxAoOxa4zI"
"Ahmad Spring","3.1","14","1220 ECP, #01-58","Singapore",,"SG","https://ahmadspring.pickngosg.com/","+65 9018 2706","Restaurant","https://www.google.com/maps/search/?api=1&query=Ahmad%20Spring&query_place_id=ChIJO_QTQHYY2jERbhtkOCgyztY"
"城记海鲜 Happy Chef Kitchen","4.8","178","Blk 18 Bedok S Rd, #01-45","Singapore",,"SG",,"+65 9747 1818","Seafood restaurant","https://www.google.com/maps/search/?api=1&query=%E5%9F%8E%E8%AE%B0%E6%B5%B7%E9%B2%9C%20Happy%20Chef%20Kitchen&query_place_id=ChIJv0sw6Rkj2jERiZIyymbTWiU"
"Coastal Rhythm at East Coast Park","4.2","108","1206 ECP, Unit #01","Singapore",,"SG","https://www.coastalrhythm.sg/reservation","+65 6636 3705","Restaurant","https://www.google.com/maps/search/?api=1&query=Coastal%20Rhythm%20at%20East%20Coast%20Park&query_place_id=ChIJo0qP2ZUi2jERWt_5mAyRR20"
"Stingray Forever BBQ Seafood","3.8","53","1220 ECP, #01-43 East Coast Lagoon Food Village","Singapore",,"SG",,"+65 6245 2828","Seafood restaurant","https://www.google.com/maps/search/?api=1&query=Stingray%20Forever%20BBQ%20Seafood&query_place_id=ChIJQfJRd5Ui2jEReVTuXRKtSmE"
"Mohamed Waseef","3.9","13","Block 73 Bedok South Ave 3","Singapore",,"SG",,"+65 9892 7145","Indian Muslim restaurant","https://www.google.com/maps/search/?api=1&query=Mohamed%20Waseef&query_place_id=ChIJ_2rm53Yj2jERM1AugpyPrLQ"
"East Coast Lagoon Food Village","4.3","10304","1220 ECP","Singapore",,"SG",,,"Hawker center","https://www.google.com/maps/search/?api=1&query=East%20Coast%20Lagoon%20Food%20Village&query_place_id=ChIJO_QTQHYY2jERsFdaWQ_y_mw"
"Lux Cove Seafood 富景","4.5","83","1202 ECP, #01-03 East Coast Seafood Centre","Singapore",,"SG","https://luxcoveseafood.com/","+65 6604 6777","Seafood restaurant","https://www.google.com/maps/search/?api=1&query=Lux%20Cove%20Seafood%20%E5%AF%8C%E6%99%AF&query_place_id=ChIJ-5k9SJgj2jER8lW1s3h6ZHs"
"Hua Yu Wee Seafood Restaurant","4.4","2263","462 Upper E Coast Rd","Singapore",,"SG","https://www.facebook.com/Hua-Yu-Wee-Seafood-Restaurant-108620067503480","+65 6442 9313","Seafood restaurant","https://www.google.com/maps/search/?api=1&query=Hua%20Yu%20Wee%20Seafood%20Restaurant&query_place_id=ChIJ0_d0Q8Yi2jER45_0U9L73fI"
"Kinara Contemporary Indian Cuisine","3.7","163","164 Upper E Coast Rd","Singapore",,"SG","http://www.thekinaragroup.com/","+65 6446 5745","Indian restaurant","https://www.google.com/maps/search/?api=1&query=Kinara%20Contemporary%20Indian%20Cuisine&query_place_id=ChIJob4l2Lsi2jERKJD9u8tlCjw"
"JUMBO Seafood - East Coast","4.2","6212","1206 ECP, #01-07/08 East Coast Seafood Centre","Singapore",,"SG","http://www.jumboseafood.com.sg/","+65 6442 3435","Seafood restaurant","https://www.google.com/maps/search/?api=1&query=JUMBO%20Seafood%20-%20East%20Coast&query_place_id=ChIJhYVqYZYi2jER9ddB0NENqJs"
"Lucky House Cantonese Private Kitchen 陶然居","4.5","83","267 Upper E Coast Rd","Singapore",,"SG","https://www.facebook.com/Lucky-House-Cantonese-Private-Kitchen-%E9%99%B6%E7%84%B6%E5%B1%85-262923084041886/","+65 9823 7268","Cantonese restaurant","https://www.google.com/maps/search/?api=1&query=Lucky%20House%20Cantonese%20Private%20Kitchen%20%E9%99%B6%E7%84%B6%E5%B1%85&query_place_id=ChIJeRxAVrgi2jER6SipxEwIHNE"
"Dan's Steaks","4.5","154","162 Upper E Coast Rd","Singapore",,"SG","http://www.danssteaks.com/","+65 9112 4066","Restaurant","https://www.google.com/maps/search/?api=1&query=Dan's%20Steaks&query_place_id=ChIJX3rLusgj2jERZ52GlblDpPc"
"Long Beach UDMC","4.2","1653","1202 ECP, #01-04 East Coast Seafood Centre","Singapore",,"SG","http://www.longbeachseafood.com.sg/","+65 6448 3636","Seafood restaurant","https://www.google.com/maps/search/?api=1&query=Long%20Beach%20UDMC&query_place_id=ChIJHXBFWJYi2jERq5SlsYDPoxI"
"Fico","4.3","614","1300 East Coast Parkway, East Coast Park Area F","Singapore",,"SG","https://www.ficomasseria.com/","+65 8121 7208","Italian restaurant","https://www.google.com/maps/search/?api=1&query=Fico&query_place_id=ChIJ04fGxckj2jERlkiNn_xBbbM"
"Diamond Kitchen","4","235","5000F Marine Parade Rd, #01-22/23 Laguna Park Condominum","Singapore",,"SG","http://www.diamondkitchen.com.sg/","+65 6448 0629","Chinese restaurant","https://www.google.com/maps/search/?api=1&query=Diamond%20Kitchen&query_place_id=ChIJP0tkM7wi2jERs6uxw5oDiy0"
"High Tide Bistro and Bar","4.6","709","1390 ECP, PAssion WaVe @ East Coast","Singapore",,"SG",,"+65 9734 2649","Restaurant","https://www.google.com/maps/search/?api=1&query=High%20Tide%20Bistro%20and%20Bar&query_place_id=ChIJlyvzifMj2jERpKBq_QkdP0Q"
"Restaurant Born","4.8","80","1 Neil Rd, #01-01","Singapore",,"SG","https://restaurantborn.com/","+65 9270 8718","Fine dining restaurant","https://www.google.com/maps/search/?api=1&query=Restaurant%20Born&query_place_id=ChIJEbQ9xpYZ2jERyBrI8a2FtEY"
"Nouri","4.6","406","72 Amoy St","Singapore",,"SG","http://nouri.com.sg/","+65 9230 2477","Fine dining restaurant","https://www.google.com/maps/search/?api=1&query=Nouri&query_place_id=ChIJq9pPbw0Z2jERqnm8RBMSAjY"
"Kaarla Wood-Fire Grill","4.4","176","88 Market St, #51-02","CapitaSpring",,"SG","https://www.kaarla.sg/","+65 8518 3763","Restaurant","https://www.google.com/maps/search/?api=1&query=Kaarla%20Wood-Fire%20Grill&query_place_id=ChIJpxXT__4Z2jERI6wo3-Sst3M"
"Bar-A-Thym Restaurant by Francois Mermilliod","4.4","329","18 Gemmill Ln","Singapore",,"SG","http://www.bar-a-thym.sg/","+65 6557 2224","French restaurant","https://www.google.com/maps/search/?api=1&query=Bar-A-Thym%20Restaurant%20by%20Francois%20Mermilliod&query_place_id=ChIJpfJt_AwZ2jER7ut0WFML4-U"
"Straits Chinese Nonya Restaurant 土生坊正宗娘惹餐馆 (1953)","4.4","412","8 Raffles Ave., #02-21 Esplanade Mall","Singapore",,"SG","https://www.straitschinese.com/","+65 6339 3683","Nyonya restaurant","https://www.google.com/maps/search/?api=1&query=Straits%20Chinese%20Nonya%20Restaurant%20%E5%9C%9F%E7%94%9F%E5%9D%8A%E6%AD%A3%E5%AE%97%E5%A8%98%E6%83%B9%E9%A4%90%E9%A6%86%20(1953)&query_place_id=ChIJDwyjCSQZ2jERVTSjY4675kM"
"Jū Kyū Restaurant & Bar","4.7","69","Telok Ayer St, #198","Singapore",,"SG","https://ju-kyu-restaurant-bar.business.site/?utm_source=gmb&utm_medium=referral","+65 8819 8000","Restaurant","https://www.google.com/maps/search/?api=1&query=J%C5%AB%20Ky%C5%AB%20Restaurant%20%26%20Bar&query_place_id=ChIJWY2gmmEZ2jERP7mfcks_QnE"
"Giacomo Restaurant Pte Ltd","4","1",,,,"SG",,"+65 6227 6819","Restaurant","https://www.google.com/maps/search/?api=1&query=Giacomo%20Restaurant%20Pte%20Ltd&query_place_id=ChIJqStVxBIZ2jER1padPOpnF6U"
"Shakira's Restaurant",,"0","Blk 7 Tampines Street 32, Tampines Mart","Singapore",,"SG","https://shakira.sg/","+65 8752 6635","Restaurant","https://www.google.com/maps/search/?api=1&query=Shakira's%20Restaurant&query_place_id=ChIJQyg4_Uo92jERIqyJraX1hf4"
"Kko Kko Nara","2.7","256","78 Airport Blvd., #02 - 243","Singapore",,"SG","http://www.kkokkonara.com/","+65 6242 8720","Korean restaurant","https://www.google.com/maps/search/?api=1&query=Kko%20Kko%20Nara&query_place_id=ChIJ_7Z2XF492jERor7MKTLXuYo"
"Ichikokudo Hokkaido Ramen","4","308","65 Airport Blvd., #B2-58 Terminal 3","Singapore",,"SG","http://www.ichikokudo.com/",,"Japanese restaurant","https://www.google.com/maps/search/?api=1&query=Ichikokudo%20Hokkaido%20Ramen&query_place_id=ChIJex2yY_g92jERzkmTprtNM6k"
"Jade Chicken Rice Restaurant","4.7","11","10 Anson Rd, #01-04 International Plaza","Singapore",,"SG","https://jade-chicken-rice-restaurant.business.site/?utm_source=gmb&utm_medium=referral","+65 8023 6576","Hawker stall","https://www.google.com/maps/search/?api=1&query=Jade%20Chicken%20Rice%20Restaurant&query_place_id=ChIJE94Wr58Z2jERg_ml3jhXazo"
"PAUL Le Café","4","541","Changi Airport Terminal 1 Departure/ Transit lounge West Level 2, #02-26","Singapore",,"SG","http://www.paul-singapore.com/",,"French restaurant","https://www.google.com/maps/search/?api=1&query=PAUL%20Le%20Caf%C3%A9&query_place_id=ChIJtVhzxw492jER3zQW5i9aVME"
"King Omar Restaurant","3.2","28","878C Tampines Ave 8, #01-66","Singapore",,"SG",,"+65 8452 3053","Indian Muslim restaurant","https://www.google.com/maps/search/?api=1&query=King%20Omar%20Restaurant&query_place_id=ChIJ22TP5G492jERc__QwR1JZuQ"
"Enak Enak Restaurant","4.1","1388","1202 ECP, #01-01 East Coast Seafood Centre","Singapore",,"SG","https://www.enakenakrestaurant.com/","+65 6876 5911","Halal restaurant","https://www.google.com/maps/search/?api=1&query=Enak%20Enak%20Restaurant&query_place_id=ChIJ__HGRJYi2jERcNW3e6sQQ38"
"Tanjong Beach Club","4.3","3206","120 Tanjong Beach Walk","Singapore",,"SG","http://www.tanjongbeachclub.com/","+65 9750 5323","Restaurant","https://www.google.com/maps/search/?api=1&query=Tanjong%20Beach%20Club&query_place_id=ChIJc6s2rage2jERzvX_e5IB_6k"
"Una Una (Japanese Restaurant)","3.9","222","1 HarbourFront Walk, #02 - 94","Singapore",,"SG",,"+65 6252 5918","Unagi restaurant","https://www.google.com/maps/search/?api=1&query=Una%20Una%20(Japanese%20Restaurant)&query_place_id=ChIJrbKTuQ4Z2jERoROa0AZS-k0"
"Hwang Sil Jjajang Jjampong specialty restaurant","4.4","343","38 Maxwell Rd, #01-05","Singapore",,"SG",,"+65 6224 4371","Korean restaurant","https://www.google.com/maps/search/?api=1&query=Hwang%20Sil%20Jjajang%20Jjampong%20specialty%20restaurant&query_place_id=ChIJg8dwrRIZ2jERmQfJ-q43cgA"
"McDonald's Changi Airport Terminal 2 (T2) Transit Lounge","4.1","261","Changi Airport Terminal 2 Departure/ Transit Lounge Central, #36-070","Singapore",,"SG","https://www.mcdonalds.com.sg/","+65 6777 3777","Hamburger restaurant","https://www.google.com/maps/search/?api=1&query=McDonald's%20Changi%20Airport%20Terminal%202%20(T2)%20Transit%20Lounge&query_place_id=ChIJwWK-boU92jERW32dlufR3kY"
"Sukiya Gyudon • Curry (Jewel)","4.4","174","78 Airport Boulevard, #B2-200, Jewel, Singapore Changi Airport","Singapore",,"SG","http://www.sukiya.com.sg/",,"Japanese restaurant","https://www.google.com/maps/search/?api=1&query=Sukiya%20Gyudon%20%E2%80%A2%20Curry%20(Jewel)&query_place_id=ChIJt5Dx2rk92jER-bM2e0LLPnU"
"Hilltop Garden Restaurant","3.5","126","91 Bukit Batok West Ave 2","Singapore",,"SG","http://www.qianxi.com.sg/","+65 6316 5500","Restaurant","https://www.google.com/maps/search/?api=1&query=Hilltop%20Garden%20Restaurant&query_place_id=ChIJMduSTzgQ2jEROj60t5-zEL8"
"Fu Zhen Seafood Restaurant","4","125","283 Bukit Batok East Ave 3, Block 283","Singapore",,"SG","https://www.facebook.com/profile.php?id=100066508998462","+65 6563 9255","Fish and seafood restaurant","https://www.google.com/maps/search/?api=1&query=Fu%20Zhen%20Seafood%20Restaurant&query_place_id=ChIJheAG8UEQ2jERuM6t_6u8dhI"
